timestamp,dateTimeISO,tempC,tempF,feelslikeF,dewpointF,humidity,pressureMB,pressureIN,windDir,windDirDEG,windSpeedMPH,windGustMPH,precipMM,precipIN,precipRateMM,precipRateIN,pop,visibilityKM,visibilityMI,sky,weather,weatherPrimary,spressureMB,spressureIN,WS
1689256800,2023-07-13T10:00:00-04:00,32.23,90.01,103.15,77.0,66,1016,30.0,ESE,117,4.47,6.71,0.0,0.0,0.0,0.0,0,16.0,9.942,59,Partly Cloudy,Partly Cloudy,1015.8,30.0,KHST
1689260400,2023-07-13T11:00:00-04:00,33.1,91.58,104.42,76.35,61,1016,30.0,ESE,117,5.44,7.83,0.0,0.0,0.0,0.0,0,16.0,9.942,58,Partly Cloudy,Partly Cloudy,1015.8,30.0,KHST
1689264000,2023-07-13T12:00:00-04:00,33.3,91.94,104.74,76.23,60,1016,30.0,ESE,107,5.97,8.95,0.17,0.01,0.17,0.01,32,16.0,9.942,64,Chance of Storms,Chance of Storms,1015.8,30.0,KHST
1689267600,2023-07-13T13:00:00-04:00,32.87,91.17,103.69,76.23,62,1016,30.0,ESE,111,7.4,10.65,0.17,0.01,0.17,0.01,35,15.152,9.415,65,Chance of Storms,Chance of Storms,1015.8,30.0,KHST
1689271200,2023-07-13T14:00:00-04:00,32.87,91.17,103.69,76.23,62,1015,29.97,SE,127,8.95,12.46,0.17,0.01,0.17,0.01,43,16.0,9.942,69,Chance of Storms,Chance of Storms,1014.8,29.97,KHST
1689274800,2023-07-13T15:00:00-04:00,33.1,91.58,103.53,75.69,60,1015,29.97,ESE,120,8.52,12.28,0.61,0.02,0.61,0.02,55,16.0,9.942,64,Chance of Storms,Chance of Storms,1014.8,29.97,KHST
1689278400,2023-07-13T16:00:00-04:00,32.53,90.55,102.15,75.69,62,1015,29.97,SE,131,7.83,12.3,0.61,0.02,0.61,0.02,57,16.0,9.942,76,Chance of Storms,Chance of Storms,1014.8,29.97,KHST
1689282000,2023-07-13T17:00:00-04:00,32.7,90.86,101.95,75.2,60,1014,29.94,SE,137,7.83,11.18,0.61,0.02,0.61,0.02,59,16.0,9.942,71,Chance of Storms,Chance of Storms,1013.8,29.94,KHST
1689285600,2023-07-13T18:00:00-04:00,31.34,88.41,97.95,74.61,64,1014,29.94,ESE,107,6.71,10.38,0.61,0.02,0.61,0.02,53,11.343,7.048,75,Chance of Storms,Chance of Storms,1013.8,29.94,KHST
1689289200,2023-07-13T19:00:00-04:00,30.77,87.39,96.55,74.61,66,1014,29.94,ESE,115,6.33,8.95,0.61,0.02,0.61,0.02,51,12.733,7.912,79,Chance of Storms,Chance of Storms,1013.8,29.94,KHST
1689292800,2023-07-13T20:00:00-04:00,30.4,86.72,97.16,76.03,71,1015,29.97,ESE,109,5.59,8.14,0.61,0.02,0.61,0.02,46,14.593,9.068,83,Chance of Storms,Chance of Storms,1014.8,29.97,KHST
1689296400,2023-07-13T21:00:00-04:00,28.89,84.0,92.58,75.69,76,1016,30.0,E,100,4.47,6.71,0.03,0.0,0.03,0.0,27,13.001,8.078,81,Isolated Storms,Isolated Storms,1015.8,30.0,KHST
1689300000,2023-07-13T22:00:00-04:00,28.17,82.71,90.38,75.69,79,1015,29.97,NNE,24,4.47,6.71,0.03,0.0,0.03,0.0,22,16.0,9.942,75,Isolated Storms,Isolated Storms,1014.8,29.97,KHST
1689303600,2023-07-13T23:00:00-04:00,27.63,81.73,88.38,75.33,81,1016,30.0,NE,46,4.47,6.71,0.03,0.0,0.03,0.0,21,16.0,9.942,68,Isolated Storms,Isolated Storms,1015.8,30.0,KHST
1689307200,2023-07-14T00:00:00-04:00,27.2,80.96,86.93,75.33,83,1016,30.0,ENE,65,4.63,7.02,0.03,0.0,0.03,0.0,25,16.0,9.942,56,Isolated Storms,Isolated Storms,1015.8,30.0,KHST
1689310800,2023-07-14T01:00:00-04:00,27.1,80.78,86.64,75.43,84,1015,29.97,ENE,70,5.59,7.83,0.03,0.0,0.03,0.0,25,16.0,9.942,49,Isolated Storms,Isolated Storms,1014.8,29.97,KHST
1689314400,2023-07-14T02:00:00-04:00,26.84,80.31,85.33,74.61,83,1015,29.97,E,87,5.59,7.83,0.03,0.0,0.03,0.0,24,16.0,9.942,48,Isolated Storms,Isolated Storms,1014.8,29.97,KHST
1689318000,2023-07-14T03:00:00-04:00,26.84,80.31,85.33,74.61,83,1014,29.94,E,86,5.59,7.83,0.06,0.0,0.06,0.0,25,16.0,9.942,48,Isolated Storms,Isolated Storms,1013.8,29.94,KHST
1689321600,2023-07-14T04:00:00-04:00,26.7,80.06,84.85,74.61,83,1014,29.94,E,100,5.59,7.83,0.06,0.0,0.06,0.0,26,16.0,9.942,46,Isolated Storms,Isolated Storms,1013.8,29.94,KHST
1689325200,2023-07-14T05:00:00-04:00,26.53,79.75,79.75,74.61,84,1014,29.94,E,100,5.59,8.14,0.06,0.0,0.06,0.0,27,16.0,9.942,44,Isolated Storms,Isolated Storms,1013.8,29.94,KHST
1689328800,2023-07-14T06:00:00-04:00,25.91,78.64,78.64,74.84,88,1014,29.94,ESE,113,5.59,7.83,0.06,0.0,0.06,0.0,29,15.459,9.605,43,Isolated Storms,Isolated Storms,1013.8,29.94,KHST
1689332400,2023-07-14T07:00:00-04:00,26.56,79.81,79.81,75.25,86,1014,29.94,SE,136,4.79,7.83,0.06,0.0,0.06,0.0,29,16.0,9.942,43,Isolated Storms,Isolated Storms,1013.8,29.94,KHST
1689336000,2023-07-14T08:00:00-04:00,27.63,81.73,89.02,76.28,84,1015,29.97,ESE,120,4.79,7.4,0.06,0.0,0.06,0.0,54,16.0,9.942,44,Chance of Storms,Chance of Storms,1014.8,29.97,KHST
1689339600,2023-07-14T09:00:00-04:00,29.77,85.59,96.97,77.41,77,1015,29.97,SE,131,4.79,7.02,0.22,0.01,0.22,0.01,54,16.0,9.942,48,Chance of Storms,Chance of Storms,1014.8,29.97,KHST
1689256800,2023-07-13T10:00:00-04:00,32.69,90.84,104.49,77.13,64,1016,30.0,ESE,120,4.47,6.71,0.0,0.0,0.0,0.0,0,16.0,9.942,53,Partly Cloudy,Partly Cloudy,1015.8,30.0,KTMB
1689260400,2023-07-13T11:00:00-04:00,33.8,92.84,105.8,76.12,58,1016,30.0,ESE,120,5.37,6.71,0.0,0.0,0.0,0.0,0,16.0,9.942,55,Partly Cloudy,Partly Cloudy,1015.8,30.0,KTMB
1689264000,2023-07-13T12:00:00-04:00,33.8,92.84,104.43,75.09,56,1016,30.0,SE,130,6.49,8.95,0.25,0.01,0.25,0.01,37,16.0,9.942,61,Chance of Storms,Chance of Storms,1015.8,30.0,KTMB
1689267600,2023-07-13T13:00:00-04:00,33.81,92.86,104.46,75.09,56,1015,29.97,ESE,121,6.71,10.04,0.25,0.01,0.25,0.01,42,16.0,9.942,67,Chance of Storms,Chance of Storms,1014.8,29.97,KTMB
1689271200,2023-07-13T14:00:00-04:00,33.31,91.96,103.13,74.98,58,1015,29.97,SE,130,8.81,12.3,0.25,0.01,0.25,0.01,52,16.0,9.942,70,Chance of Storms,Chance of Storms,1014.8,29.97,KTMB
1689274800,2023-07-13T15:00:00-04:00,33.3,91.94,104.42,75.99,60,1015,29.97,SE,132,8.75,12.3,1.62,0.06,1.62,0.06,64,16.0,9.942,70,Scattered Storms,Scattered Storms,1014.8,29.97,KTMB
1689278400,2023-07-13T16:00:00-04:00,32.6,90.68,101.57,75.09,60,1014,29.94,SSE,150,8.95,12.41,1.62,0.06,1.62,0.06,66,16.0,9.942,73,Scattered Storms,Scattered Storms,1013.8,29.94,KTMB
1689282000,2023-07-13T17:00:00-04:00,33.24,91.83,102.72,74.79,58,1014,29.94,SSE,151,7.83,12.21,1.62,0.06,1.62,0.06,68,15.896,9.877,72,Scattered Storms,Scattered Storms,1013.8,29.94,KTMB
1689285600,2023-07-13T18:00:00-04:00,32.06,89.71,99.97,74.84,62,1014,29.94,SSE,162,7.83,11.21,1.62,0.06,1.62,0.06,61,15.371,9.551,81,Chance of Storms,Chance of Storms,1013.8,29.94,KTMB
1689289200,2023-07-13T19:00:00-04:00,31.15,88.07,96.97,74.12,63,1014,29.94,ESE,115,6.49,8.95,1.62,0.06,1.62,0.06,58,16.0,9.942,84,Chance of Storms,Chance of Storms,1013.8,29.94,KTMB
1689292800,2023-07-13T20:00:00-04:00,30.48,86.86,96.22,74.98,68,1015,29.97,ESE,109,5.59,8.95,1.62,0.06,1.62,0.06,47,12.322,7.657,83,Chance of Storms,Chance of Storms,1014.8,29.97,KTMB
1689296400,2023-07-13T21:00:00-04:00,28.77,83.79,92.67,76.19,78,1016,30.0,E,93,5.5,6.73,0.04,0.0,0.04,0.0,29,14.407,8.952,84,Isolated Storms,Isolated Storms,1015.8,30.0,KTMB
1689300000,2023-07-13T22:00:00-04:00,28.4,83.12,91.52,76.19,80,1015,29.97,ENE,78,4.47,6.71,0.04,0.0,0.04,0.0,21,16.0,9.942,73,Isolated Storms,Isolated Storms,1014.8,29.97,KTMB
1689303600,2023-07-13T23:00:00-04:00,27.2,80.96,86.75,74.98,82,1016,30.0,ENE,61,3.36,5.59,0.04,0.0,0.04,0.0,18,16.0,9.942,62,Isolated Storms,Isolated Storms,1015.8,30.0,KTMB
1689307200,2023-07-14T00:00:00-04:00,27.2,80.96,86.75,74.98,82,1016,30.0,ENE,70,3.36,5.59,0.04,0.0,0.04,0.0,22,16.0,9.942,50,Isolated Storms,Isolated Storms,1015.8,30.0,KTMB
1689310800,2023-07-14T01:00:00-04:00,27.2,80.96,87.37,76.1,85,1015,29.97,ENE,58,3.44,6.58,0.04,0.0,0.04,0.0,21,16.0,9.942,42,Isolated Storms,Isolated Storms,1014.8,29.97,KTMB
1689314400,2023-07-14T02:00:00-04:00,26.8,80.24,85.35,74.97,84,1015,29.97,E,80,3.36,5.59,0.04,0.0,0.04,0.0,20,16.0,9.942,35,Isolated Storms,Isolated Storms,1014.8,29.97,KTMB
1689318000,2023-07-14T03:00:00-04:00,26.7,80.06,84.99,74.97,85,1014,29.94,E,80,3.36,5.59,0.0,0.0,0.0,0.0,0,16.0,9.942,35,Partly Cloudy,Partly Cloudy,1013.8,29.94,KTMB
1689321600,2023-07-14T04:00:00-04:00,26.7,80.06,84.99,74.97,85,1014,29.94,E,91,3.36,5.59,0.0,0.0,0.0,0.0,0,16.0,9.942,38,Partly Cloudy,Partly Cloudy,1013.8,29.94,KTMB
1689325200,2023-07-14T05:00:00-04:00,26.7,80.06,85.47,76.1,88,1014,29.94,E,90,3.36,5.59,0.0,0.0,0.0,0.0,0,16.0,9.942,40,Partly Cloudy,Partly Cloudy,1013.8,29.94,KTMB
1689328800,2023-07-14T06:00:00-04:00,25.82,78.48,78.48,74.98,89,1014,29.94,E,89,3.36,5.59,0.0,0.0,0.0,0.0,0,16.0,9.942,39,Partly Cloudy,Partly Cloudy,1013.8,29.94,KTMB
1689332400,2023-07-14T07:00:00-04:00,26.6,79.88,79.88,76.1,88,1015,29.97,E,89,3.36,5.59,0.0,0.0,0.0,0.0,0,16.0,9.942,35,Partly Cloudy,Partly Cloudy,1014.8,29.97,KTMB
1689336000,2023-07-14T08:00:00-04:00,27.7,81.86,89.88,77.13,86,1015,29.97,ESE,107,3.36,5.59,0.0,0.0,0.0,0.0,0,16.0,9.942,31,Mostly Sunny,Mostly Sunny,1014.8,29.97,KTMB
1689339600,2023-07-14T09:00:00-04:00,29.55,85.19,96.09,77.22,77,1016,30.0,ESE,120,3.58,6.69,0.18,0.01,0.18,0.01,54,16.0,9.942,33,Chance of Storms,Chance of Storms,1015.8,30.0,KTMB
1689256800,2023-07-13T10:00:00-04:00,32.08,89.74,104.3,78.08,69,1016,30.0,SE,140,4.47,6.71,0.0,0.0,0.0,0.0,0,16.0,9.942,56,Partly Cloudy,Partly Cloudy,1015.9,30.0,KMIA
1689260400,2023-07-13T11:00:00-04:00,33.47,92.25,105.83,76.71,61,1016,30.0,SE,143,4.83,6.71,0.0,0.0,0.0,0.0,0,16.0,9.942,62,Partly Cloudy,Partly Cloudy,1015.9,30.0,KMIA
1689264000,2023-07-13T12:00:00-04:00,33.8,92.84,105.78,76.1,58,1016,30.0,SE,133,5.59,8.95,0.19,0.01,0.19,0.01,32,16.0,9.942,66,Chance of Storms,Chance of Storms,1015.9,30.0,KMIA
1689267600,2023-07-13T13:00:00-04:00,33.8,92.84,105.78,76.1,58,1016,30.0,SE,140,7.83,10.71,0.19,0.01,0.19,0.01,35,15.482,9.62,71,Chance of Storms,Chance of Storms,1015.9,30.0,KMIA
1689271200,2023-07-13T14:00:00-04:00,33.8,92.84,107.05,77.0,60,1015,29.97,SE,130,8.95,12.41,0.19,0.01,0.19,0.01,44,16.0,9.942,69,Chance of Storms,Chance of Storms,1014.9,29.97,KMIA
1689274800,2023-07-13T15:00:00-04:00,32.65,90.77,104.21,77.0,64,1015,29.97,SE,140,10.07,13.49,0.8,0.03,0.8,0.03,56,16.0,9.942,73,Chance of Storms,Chance of Storms,1014.9,29.97,KMIA
1689278400,2023-07-13T16:00:00-04:00,32.2,89.96,102.65,76.69,65,1015,29.97,SE,137,8.95,13.42,0.8,0.03,0.8,0.03,58,16.0,9.942,68,Chance of Storms,Chance of Storms,1014.9,29.97,KMIA
1689282000,2023-07-13T17:00:00-04:00,32.7,90.86,103.17,76.15,62,1014,29.94,SE,140,8.95,13.42,0.8,0.03,0.8,0.03,57,16.0,9.942,78,Chance of Storms,Chance of Storms,1013.9,29.94,KMIA
1689285600,2023-07-13T18:00:00-04:00,31.7,89.06,99.24,74.97,63,1013,29.91,SSE,160,8.3,12.68,0.8,0.03,0.8,0.03,51,16.0,9.942,80,Chance of Storms,Chance of Storms,1012.9,29.91,KMIA
1689289200,2023-07-13T19:00:00-04:00,30.6,87.08,95.63,74.12,66,1014,29.94,ESE,110,6.71,10.07,0.8,0.03,0.8,0.03,49,15.149,9.413,82,Chance of Storms,Chance of Storms,1013.9,29.94,KMIA
1689292800,2023-07-13T20:00:00-04:00,30.6,87.08,97.73,76.06,70,1015,29.97,ESE,117,5.59,8.95,0.8,0.03,0.8,0.03,42,10.568,6.566,87,Chance of Storms,Chance of Storms,1014.9,29.97,KMIA
1689296400,2023-07-13T21:00:00-04:00,28.8,83.84,92.68,76.1,78,1016,30.0,SE,136,5.59,8.95,0.04,0.0,0.04,0.0,27,15.467,9.61,81,Isolated Storms,Isolated Storms,1015.9,30.0,KMIA
1689300000,2023-07-13T22:00:00-04:00,28.4,83.12,91.41,76.06,79,1016,30.0,ESE,111,4.52,7.18,0.04,0.0,0.04,0.0,21,16.0,9.942,68,Isolated Storms,Isolated Storms,1015.9,30.0,KMIA
1689303600,2023-07-13T23:00:00-04:00,28.4,83.12,90.42,74.84,76,1016,30.0,ENE,77,4.47,6.71,0.04,0.0,0.04,0.0,18,16.0,9.942,58,Isolated Storms,Isolated Storms,1015.9,30.0,KMIA
1689307200,2023-07-14T00:00:00-04:00,27.7,81.86,88.29,74.84,79,1016,30.0,E,81,4.12,6.71,0.04,0.0,0.04,0.0,21,16.0,9.942,44,Isolated Storms,Isolated Storms,1015.9,30.0,KMIA
1689310800,2023-07-14T01:00:00-04:00,27.7,81.86,88.29,74.84,79,1015,29.97,E,90,4.12,5.7,0.04,0.0,0.04,0.0,19,16.0,9.942,40,Isolated Storms,Isolated Storms,1014.9,29.97,KMIA
1689314400,2023-07-14T02:00:00-04:00,27.37,81.27,87.23,74.84,81,1015,29.97,E,81,3.47,5.66,0.04,0.0,0.04,0.0,18,16.0,9.942,37,Isolated Storms,Isolated Storms,1014.9,29.97,KMIA
1689318000,2023-07-14T03:00:00-04:00,27.37,81.27,87.66,75.58,83,1014,29.94,E,97,4.47,5.7,0.24,0.01,0.24,0.01,20,16.0,9.942,36,Isolated Storms,Isolated Storms,1013.9,29.94,KMIA
1689321600,2023-07-14T04:00:00-04:00,27.2,80.96,87.12,75.67,84,1014,29.94,E,100,4.54,6.78,0.24,0.01,0.24,0.01,22,16.0,9.942,38,Isolated Storms,Isolated Storms,1013.9,29.94,KMIA
1689325200,2023-07-14T05:00:00-04:00,27.2,80.96,87.37,76.1,85,1014,29.94,ESE,110,4.12,6.78,0.24,0.01,0.24,0.01,24,16.0,9.942,39,Isolated Storms,Isolated Storms,1013.9,29.94,KMIA
1689328800,2023-07-14T06:00:00-04:00,27.2,80.96,87.37,76.1,85,1014,29.94,ESE,110,4.12,6.71,0.24,0.01,0.24,0.01,26,16.0,9.942,38,Isolated Storms,Isolated Storms,1013.9,29.94,KMIA
1689332400,2023-07-14T07:00:00-04:00,26.7,80.06,85.47,76.1,88,1015,29.97,E,100,4.12,5.66,0.24,0.01,0.24,0.01,26,16.0,9.942,35,Isolated Storms,Isolated Storms,1014.9,29.97,KMIA
1689336000,2023-07-14T08:00:00-04:00,28.4,83.12,92.23,77.0,82,1015,29.97,ESE,120,4.47,6.82,0.24,0.01,0.24,0.01,44,16.0,9.942,33,Chance of Storms,Chance of Storms,1014.9,29.97,KMIA
1689339600,2023-07-14T09:00:00-04:00,29.71,85.48,97.58,78.08,79,1016,30.0,SE,136,4.83,6.82,0.04,0.0,0.04,0.0,44,16.0,9.942,35,Chance of Storms,Chance of Storms,1015.9,30.0,KMIA
1689256800,2023-07-13T10:00:00-04:00,32.32,90.18,103.37,77.0,65,1016,30.0,SSE,150,4.21,6.71,0.0,0.0,0.0,0.0,0,16.0,9.942,55,Partly Cloudy,Partly Cloudy,1015.8,30.0,KOPF
1689260400,2023-07-13T11:00:00-04:00,33.42,92.16,103.21,74.84,57,1016,30.0,SE,142,4.47,6.71,0.0,0.0,0.0,0.0,0,16.0,9.942,60,Partly Cloudy,Partly Cloudy,1015.8,30.0,KOPF
1689264000,2023-07-13T12:00:00-04:00,33.79,92.82,103.75,74.57,56,1016,30.0,SE,142,5.59,8.81,0.5,0.02,0.5,0.02,34,16.0,9.942,63,Chance of Storms,Chance of Storms,1015.8,30.0,KOPF
1689267600,2023-07-13T13:00:00-04:00,33.7,92.66,104.13,75.04,57,1015,29.97,SE,132,6.71,10.07,0.5,0.02,0.5,0.02,39,16.0,9.942,71,Chance of Storms,Chance of Storms,1014.8,29.97,KOPF
1689271200,2023-07-13T14:00:00-04:00,33.97,93.15,104.51,74.84,55,1015,29.97,ESE,120,8.25,12.3,0.5,0.02,0.5,0.02,48,16.0,9.942,74,Chance of Storms,Chance of Storms,1014.8,29.97,KOPF
1689274800,2023-07-13T15:00:00-04:00,32.77,90.99,102.66,75.63,61,1015,29.97,SE,125,9.37,13.42,1.33,0.05,1.33,0.05,59,16.0,9.942,74,Chance of Storms,Chance of Storms,1014.8,29.97,KOPF
1689278400,2023-07-13T16:00:00-04:00,32.51,90.52,101.49,75.2,61,1015,29.97,SE,132,9.37,13.42,1.33,0.05,1.33,0.05,60,16.0,9.942,72,Chance of Storms,Chance of Storms,1014.8,29.97,KOPF
1689282000,2023-07-13T17:00:00-04:00,33.08,91.54,102.41,74.84,58,1014,29.94,SE,140,9.37,13.42,1.33,0.05,1.33,0.05,57,16.0,9.942,72,Chance of Storms,Chance of Storms,1013.8,29.94,KOPF
1689285600,2023-07-13T18:00:00-04:00,31.51,88.72,98.33,74.57,63,1013,29.91,SSE,165,9.37,13.42,1.33,0.05,1.33,0.05,52,16.0,9.942,79,Chance of Storms,Chance of Storms,1012.8,29.91,KOPF
1689289200,2023-07-13T19:00:00-04:00,30.9,87.62,96.36,74.12,64,1014,29.94,SSW,198,8.25,12.17,1.33,0.05,1.33,0.05,50,15.896,9.877,83,Chance of Storms,Chance of Storms,1013.8,29.94,KOPF
1689292800,2023-07-13T20:00:00-04:00,29.94,85.89,94.41,74.57,69,1015,29.97,E,101,7.14,9.08,1.33,0.05,1.33,0.05,43,13.96,8.674,87,Chance of Storms,Chance of Storms,1014.8,29.97,KOPF
1689296400,2023-07-13T21:00:00-04:00,28.45,83.21,90.36,74.57,75,1016,30.0,S,180,5.59,8.95,0.11,0.0,0.11,0.0,27,16.0,9.942,77,Isolated Storms,Isolated Storms,1015.8,30.0,KOPF
1689300000,2023-07-13T22:00:00-04:00,28.05,82.49,89.64,75.2,79,1016,30.0,ESE,104,4.9,7.14,0.11,0.0,0.11,0.0,21,16.0,9.942,69,Isolated Storms,Isolated Storms,1015.8,30.0,KOPF
1689303600,2023-07-13T23:00:00-04:00,27.45,81.41,87.34,74.57,80,1016,30.0,E,93,4.47,6.71,0.11,0.0,0.11,0.0,17,16.0,9.942,54,Isolated Showers,Isolated Showers,1015.8,30.0,KOPF
1689307200,2023-07-14T00:00:00-04:00,27.2,80.96,86.53,74.57,81,1016,30.0,ESE,115,4.47,6.29,0.11,0.0,0.11,0.0,19,16.0,9.942,42,Isolated Storms,Isolated Storms,1015.8,30.0,KOPF
1689310800,2023-07-14T01:00:00-04:00,27.45,81.41,87.34,74.57,80,1015,29.97,SSW,201,3.36,5.32,0.11,0.0,0.11,0.0,17,16.0,9.942,37,Isolated Showers,Isolated Showers,1014.8,29.97,KOPF
1689314400,2023-07-14T02:00:00-04:00,27.01,80.62,85.9,74.57,82,1015,29.97,ENE,70,2.66,4.34,0.0,0.0,0.0,0.0,0,16.0,9.942,34,Partly Cloudy,Partly Cloudy,1014.8,29.97,KOPF
1689318000,2023-07-14T03:00:00-04:00,26.82,80.28,85.37,74.84,84,1014,29.94,E,100,3.36,4.9,0.21,0.01,0.21,0.01,17,16.0,9.942,32,Isolated Showers,Isolated Showers,1013.8,29.94,KOPF
1689321600,2023-07-14T04:00:00-04:00,26.76,80.17,85.04,74.57,83,1014,29.94,ESE,109,3.36,5.59,0.21,0.01,0.21,0.01,19,16.0,9.942,32,Isolated Storms,Isolated Storms,1013.8,29.94,KOPF
1689325200,2023-07-14T05:00:00-04:00,26.45,79.61,79.61,75.63,88,1014,29.94,ESE,120,3.36,5.59,0.21,0.01,0.21,0.01,21,16.0,9.942,30,Isolated Storms,Isolated Storms,1013.8,29.94,KOPF
1689328800,2023-07-14T06:00:00-04:00,26.76,80.17,85.16,74.84,84,1014,29.94,ESE,114,3.36,5.59,0.21,0.01,0.21,0.01,23,14.313,8.894,25,Isolated Storms,Isolated Storms,1013.8,29.94,KOPF
1689332400,2023-07-14T07:00:00-04:00,26.51,79.72,79.72,76.1,89,1015,29.97,E,98,3.09,4.47,0.21,0.01,0.21,0.01,23,16.0,9.942,20,Isolated Storms,Isolated Storms,1014.8,29.97,KOPF
1689336000,2023-07-14T08:00:00-04:00,27.7,81.86,89.78,77.0,85,1015,29.97,ESE,108,3.36,5.59,0.21,0.01,0.21,0.01,43,16.0,9.942,20,Isolated Storms,Isolated Storms,1014.8,29.97,KOPF
1689339600,2023-07-14T09:00:00-04:00,29.75,85.55,96.91,77.41,77,1016,30.0,SE,128,4.47,6.71,0.04,0.0,0.04,0.0,43,16.0,9.942,26,Isolated Storms,Isolated Storms,1015.8,30.0,KOPF
1689256800,2023-07-13T10:00:00-04:00,32.35,90.23,103.45,77.0,65,1016,30.0,SSE,151,4.12,6.13,0.0,0.0,0.0,0.0,0,16.0,9.942,56,Partly Cloudy,Partly Cloudy,1015.8,30.0,KHWO
1689260400,2023-07-13T11:00:00-04:00,33.16,91.69,102.6,74.84,58,1016,30.0,SSE,150,4.47,6.71,0.0,0.0,0.0,0.0,0,16.0,9.942,60,Partly Cloudy,Partly Cloudy,1015.8,30.0,KHWO
1689264000,2023-07-13T12:00:00-04:00,33.94,93.09,104.44,74.84,56,1016,30.0,SSE,153,5.59,8.95,0.33,0.01,0.33,0.01,33,16.0,9.942,65,Chance of Storms,Chance of Storms,1015.8,30.0,KHWO
1689267600,2023-07-13T13:00:00-04:00,33.7,92.66,103.79,74.77,56,1015,29.97,SE,131,7.25,10.07,0.33,0.01,0.33,0.01,37,16.0,9.942,71,Chance of Storms,Chance of Storms,1014.8,29.97,KHWO
1689271200,2023-07-13T14:00:00-04:00,33.59,92.46,103.96,75.11,57,1015,29.97,ESE,112,8.37,12.19,0.33,0.01,0.33,0.01,46,16.0,9.942,77,Chance of Storms,Chance of Storms,1014.8,29.97,KHWO
1689274800,2023-07-13T15:00:00-04:00,32.7,90.86,101.5,74.84,60,1015,29.97,ESE,120,9.48,13.42,1.07,0.04,1.07,0.04,57,16.0,9.942,72,Chance of Storms,Chance of Storms,1014.8,29.97,KHWO
1689278400,2023-07-13T16:00:00-04:00,32.7,90.86,101.84,75.11,60,1014,29.94,SE,130,9.48,13.2,1.07,0.04,1.07,0.04,57,16.0,9.942,70,Chance of Storms,Chance of Storms,1013.8,29.94,KHWO
1689282000,2023-07-13T17:00:00-04:00,33.17,91.71,102.96,75.11,59,1014,29.94,SE,140,9.48,13.42,1.07,0.04,1.07,0.04,55,16.0,9.942,74,Chance of Storms,Chance of Storms,1013.8,29.94,KHWO
1689285600,2023-07-13T18:00:00-04:00,31.59,88.86,98.44,74.5,63,1013,29.91,S,186,9.48,13.42,1.07,0.04,1.07,0.04,50,16.0,9.942,77,Chance of Storms,Chance of Storms,1012.8,29.91,KHWO
1689289200,2023-07-13T19:00:00-04:00,30.54,86.97,95.48,74.12,66,1014,29.94,S,190,8.37,12.3,1.07,0.04,1.07,0.04,48,16.0,9.942,83,Chance of Storms,Chance of Storms,1013.8,29.94,KHWO
1689292800,2023-07-13T20:00:00-04:00,29.43,84.97,93.32,74.84,72,1015,29.97,ESE,116,6.71,10.07,1.07,0.04,1.07,0.04,39,15.602,9.695,86,Chance of Storms,Chance of Storms,1014.8,29.97,KHWO
1689296400,2023-07-13T21:00:00-04:00,27.85,82.13,88.76,74.84,79,1016,30.0,S,178,5.59,8.95,0.09,0.0,0.09,0.0,25,16.0,9.942,72,Isolated Storms,Isolated Storms,1015.8,30.0,KHWO
1689300000,2023-07-13T22:00:00-04:00,27.7,81.86,88.29,74.84,79,1016,30.0,SSE,168,4.72,7.49,0.09,0.0,0.09,0.0,19,16.0,9.942,66,Isolated Storms,Isolated Storms,1015.8,30.0,KHWO
1689303600,2023-07-13T23:00:00-04:00,27.2,80.96,86.67,74.84,82,1016,30.0,ESE,113,4.14,5.59,0.09,0.0,0.09,0.0,16,16.0,9.942,49,Isolated Showers,Isolated Showers,1015.8,30.0,KHWO
1689307200,2023-07-14T00:00:00-04:00,27.2,80.96,86.67,74.84,82,1016,30.0,ESE,106,3.83,5.59,0.09,0.0,0.09,0.0,18,16.0,9.942,43,Isolated Storms,Isolated Storms,1015.8,30.0,KHWO
1689310800,2023-07-14T01:00:00-04:00,27.2,80.96,86.67,74.84,82,1015,29.97,SSE,164,3.36,6.38,0.09,0.0,0.09,0.0,16,16.0,9.942,38,Isolated Showers,Isolated Showers,1014.8,29.97,KHWO
1689314400,2023-07-14T02:00:00-04:00,26.96,80.53,86.15,75.45,85,1015,29.97,E,95,3.02,4.68,0.09,0.0,0.09,0.0,14,16.0,9.942,35,Isolated Showers,Isolated Showers,1014.8,29.97,KHWO
1689318000,2023-07-14T03:00:00-04:00,26.81,80.26,85.6,75.45,85,1014,29.94,E,93,3.36,5.37,0.06,0.0,0.06,0.0,16,16.0,9.942,32,Isolated Showers,Isolated Showers,1013.8,29.94,KHWO
1689321600,2023-07-14T04:00:00-04:00,26.7,80.06,85.19,75.45,86,1014,29.94,ESE,120,3.36,4.47,0.06,0.0,0.06,0.0,18,16.0,9.942,30,Isolated Storms,Isolated Storms,1013.8,29.94,KHWO
1689325200,2023-07-14T05:00:00-04:00,26.7,80.06,85.19,75.45,86,1014,29.94,SE,127,3.36,5.59,0.06,0.0,0.06,0.0,21,16.0,9.942,28,Isolated Storms,Isolated Storms,1013.8,29.94,KHWO
1689328800,2023-07-14T06:00:00-04:00,26.17,79.11,79.11,74.84,87,1014,29.94,ESE,122,3.36,5.48,0.06,0.0,0.06,0.0,22,14.02,8.712,26,Isolated Storms,Isolated Storms,1013.8,29.94,KHWO
1689332400,2023-07-14T07:00:00-04:00,26.44,79.59,79.59,76.1,89,1015,29.97,E,100,3.36,4.47,0.06,0.0,0.06,0.0,22,16.0,9.942,25,Isolated Storms,Isolated Storms,1014.8,29.97,KHWO
1689336000,2023-07-14T08:00:00-04:00,27.46,81.43,88.89,77.0,86,1015,29.97,ESE,110,3.36,5.26,0.06,0.0,0.06,0.0,45,16.0,9.942,27,Isolated Storms,Isolated Storms,1014.8,29.97,KHWO
1689339600,2023-07-14T09:00:00-04:00,29.5,85.1,95.96,77.23,77,1016,30.0,SE,132,4.47,6.71,0.28,0.01,0.28,0.01,45,16.0,9.942,33,Chance of Storms,Chance of Storms,1015.8,30.0,KHWO
1689256800,2023-07-13T10:00:00-04:00,31.7,89.06,103.34,78.12,70,1016,30.0,SSE,150,4.63,6.55,0.0,0.0,0.0,0.0,0,16.0,9.942,59,Partly Cloudy,Partly Cloudy,1015.7,29.99,KFLL
1689260400,2023-07-13T11:00:00-04:00,32.62,90.72,103.91,76.84,64,1016,30.0,SE,128,5.59,8.01,0.0,0.0,0.0,0.0,0,16.0,9.942,62,Partly Cloudy,Partly Cloudy,1015.7,29.99,KFLL
1689264000,2023-07-13T12:00:00-04:00,32.72,90.9,104.21,76.87,64,1016,30.0,ESE,120,5.75,9.69,0.15,0.01,0.15,0.01,28,16.0,9.942,71,Chance of Storms,Chance of Storms,1015.7,29.99,KFLL
1689267600,2023-07-13T13:00:00-04:00,33.21,91.78,105.6,77.0,62,1016,30.0,ESE,120,7.99,12.86,0.15,0.01,0.15,0.01,30,16.0,9.942,75,Chance of Storms,Chance of Storms,1015.7,29.99,KFLL
1689271200,2023-07-13T14:00:00-04:00,32.37,90.27,103.28,76.84,65,1015,29.97,ESE,120,10.02,14.34,0.15,0.01,0.15,0.01,38,16.0,9.942,71,Chance of Storms,Chance of Storms,1014.7,29.96,KFLL
1689274800,2023-07-13T15:00:00-04:00,31.87,89.37,101.04,76.1,65,1015,29.97,ESE,120,10.02,14.54,0.52,0.02,0.52,0.02,48,16.0,9.942,71,Chance of Storms,Chance of Storms,1014.7,29.96,KFLL
1689278400,2023-07-13T16:00:00-04:00,31.7,89.06,101.78,77.0,68,1015,29.97,SE,130,10.22,15.46,0.52,0.02,0.52,0.02,49,16.0,9.942,70,Chance of Storms,Chance of Storms,1014.7,29.96,KFLL
1689282000,2023-07-13T17:00:00-04:00,32.27,90.09,103.07,76.87,65,1014,29.94,SE,130,10.07,15.46,0.52,0.02,0.52,0.02,47,15.895,9.877,64,Chance of Storms,Chance of Storms,1013.7,29.93,KFLL
1689285600,2023-07-13T18:00:00-04:00,31.2,88.16,99.34,76.1,68,1013,29.91,SSE,150,8.95,14.34,0.52,0.02,0.52,0.02,42,16.0,9.942,69,Chance of Storms,Chance of Storms,1012.7,29.9,KFLL
1689289200,2023-07-13T19:00:00-04:00,30.09,86.16,94.48,74.25,68,1014,29.94,S,172,7.99,12.3,0.52,0.02,0.52,0.02,41,15.775,9.802,80,Chance of Storms,Chance of Storms,1013.7,29.93,KFLL
1689292800,2023-07-13T20:00:00-04:00,28.8,83.84,91.58,74.84,74,1014,29.94,SSE,167,7.45,10.98,0.52,0.02,0.52,0.02,34,16.0,9.942,82,Chance of Storms,Chance of Storms,1013.7,29.93,KFLL
1689296400,2023-07-13T21:00:00-04:00,27.8,82.04,88.44,74.59,78,1015,29.97,SSE,160,5.59,8.95,0.0,0.0,0.0,0.0,0,15.448,9.599,73,Mostly Cloudy,Mostly Cloudy,1014.7,29.96,KFLL
1689300000,2023-07-13T22:00:00-04:00,27.7,81.86,88.43,75.06,80,1016,30.0,SSW,202,5.59,8.75,0.0,0.0,0.0,0.0,0,16.0,9.942,64,Partly Cloudy,Partly Cloudy,1015.7,29.99,KFLL
1689303600,2023-07-13T23:00:00-04:00,27.2,80.96,86.83,75.15,83,1016,30.0,SSE,165,5.21,6.71,0.0,0.0,0.0,0.0,0,16.0,9.942,47,Partly Cloudy,Partly Cloudy,1015.7,29.99,KFLL
1689307200,2023-07-14T00:00:00-04:00,27.2,80.96,86.77,75.02,82,1016,30.0,SE,143,4.47,6.71,0.0,0.0,0.0,0.0,0,16.0,9.942,43,Partly Cloudy,Partly Cloudy,1015.7,29.99,KFLL
1689310800,2023-07-14T01:00:00-04:00,26.79,80.22,85.09,74.43,83,1015,29.97,SE,128,4.47,6.71,0.0,0.0,0.0,0.0,0,16.0,9.942,38,Partly Cloudy,Partly Cloudy,1014.7,29.96,KFLL
1689314400,2023-07-14T02:00:00-04:00,27.13,80.83,86.22,74.43,81,1015,29.97,ESE,111,4.27,6.51,0.0,0.0,0.0,0.0,0,16.0,9.942,36,Partly Cloudy,Partly Cloudy,1014.7,29.96,KFLL
1689318000,2023-07-14T03:00:00-04:00,26.7,80.06,85.07,75.15,85,1014,29.94,E,101,4.43,6.51,0.0,0.0,0.0,0.0,0,16.0,9.942,35,Partly Cloudy,Partly Cloudy,1013.7,29.93,KFLL
1689321600,2023-07-14T04:00:00-04:00,26.7,80.06,84.83,74.55,83,1014,29.94,SE,139,3.53,5.59,0.0,0.0,0.0,0.0,0,16.0,9.942,34,Partly Cloudy,Partly Cloudy,1013.7,29.93,KFLL
1689325200,2023-07-14T05:00:00-04:00,26.63,79.93,79.93,75.18,85,1014,29.94,SE,140,4.47,6.89,0.0,0.0,0.0,0.0,0,16.0,9.942,32,Partly Cloudy,Partly Cloudy,1013.7,29.93,KFLL
1689328800,2023-07-14T06:00:00-04:00,26.7,80.06,85.07,75.15,85,1014,29.94,SE,140,4.32,6.55,0.0,0.0,0.0,0.0,0,15.373,9.553,30,Mostly Clear,Mostly Clear,1013.7,29.93,KFLL
1689332400,2023-07-14T07:00:00-04:00,26.27,79.29,79.29,76.23,90,1015,29.97,SE,136,3.53,6.51,0.0,0.0,0.0,0.0,0,16.0,9.942,29,Mostly Sunny,Mostly Sunny,1014.7,29.96,KFLL
1689336000,2023-07-14T08:00:00-04:00,27.7,81.86,89.9,77.16,86,1015,29.97,SE,138,4.27,6.51,0.0,0.0,0.0,0.0,0,16.0,9.942,29,Mostly Sunny,Mostly Sunny,1014.7,29.96,KFLL
1689339600,2023-07-14T09:00:00-04:00,29.5,85.1,96.97,78.12,80,1016,30.0,SSE,150,5.59,8.01,0.77,0.03,0.77,0.03,47,16.0,9.942,32,Chance of Storms,Chance of Storms,1015.7,29.99,KFLL
1689256800,2023-07-13T10:00:00-04:00,31.5,88.7,101.82,77.41,69,1016,30.0,ENE,60,4.47,5.99,0.0,0.0,0.0,0.0,0,16.0,9.942,46,Partly Cloudy,Partly Cloudy,1015.9,30.0,KAPF
1689260400,2023-07-13T11:00:00-04:00,33.07,91.53,103.41,75.65,60,1016,30.0,WNW,287,4.47,6.71,0.0,0.0,0.0,0.0,0,16.0,9.942,48,Partly Cloudy,Partly Cloudy,1015.9,30.0,KAPF
1689264000,2023-07-13T12:00:00-04:00,33.6,92.48,104.71,75.67,58,1016,30.0,W,270,5.59,8.23,0.01,0.0,0.01,0.0,19,16.0,9.942,52,Isolated Storms,Isolated Storms,1015.9,30.0,KAPF
1689267600,2023-07-13T13:00:00-04:00,33.6,92.48,105.79,76.46,60,1016,30.0,W,270,7.43,10.47,0.01,0.0,0.01,0.0,28,16.0,9.942,52,Chance of Storms,Chance of Storms,1015.9,30.0,KAPF
1689271200,2023-07-13T14:00:00-04:00,33.6,92.48,105.79,76.46,60,1015,29.97,W,270,9.64,11.61,0.01,0.0,0.01,0.0,41,16.0,9.942,57,Chance of Storms,Chance of Storms,1014.9,29.97,KAPF
1689274800,2023-07-13T15:00:00-04:00,33.6,92.48,106.36,76.86,61,1015,29.97,W,270,9.66,13.82,0.12,0.0,0.12,0.0,56,16.0,9.942,61,Chance of Storms,Chance of Storms,1014.9,29.97,KAPF
1689278400,2023-07-13T16:00:00-04:00,33.07,91.53,105.02,76.84,62,1014,29.94,W,270,10.07,13.42,0.12,0.0,0.12,0.0,58,16.0,9.942,73,Chance of Storms,Chance of Storms,1013.9,29.94,KAPF
1689282000,2023-07-13T17:00:00-04:00,33.6,92.48,107.15,77.4,62,1014,29.94,W,280,9.64,12.73,0.12,0.0,0.12,0.0,56,16.0,9.942,78,Chance of Storms,Chance of Storms,1013.9,29.94,KAPF
1689285600,2023-07-13T18:00:00-04:00,32.51,90.52,103.88,77.02,65,1013,29.91,WNW,290,8.52,11.18,0.12,0.0,0.12,0.0,52,16.0,9.942,76,Chance of Storms,Chance of Storms,1012.9,29.91,KAPF
1689289200,2023-07-13T19:00:00-04:00,31.7,89.06,101.05,76.44,66,1014,29.94,WNW,300,7.43,10.07,0.12,0.0,0.12,0.0,50,15.283,9.496,83,Chance of Storms,Chance of Storms,1013.9,29.94,KAPF
1689292800,2023-07-13T20:00:00-04:00,31.51,88.72,101.85,77.41,69,1014,29.94,NW,310,6.29,8.25,0.12,0.0,0.12,0.0,42,15.63,9.712,83,Chance of Storms,Chance of Storms,1013.9,29.94,KAPF
1689296400,2023-07-13T21:00:00-04:00,29.81,85.66,96.43,76.84,75,1015,29.97,SE,137,5.59,8.25,0.04,0.0,0.04,0.0,28,16.0,9.942,78,Isolated Storms,Isolated Storms,1014.9,29.97,KAPF
1689300000,2023-07-13T22:00:00-04:00,29.1,84.38,93.92,76.44,77,1015,29.97,NE,42,4.9,7.83,0.04,0.0,0.04,0.0,19,15.689,9.748,79,Isolated Storms,Isolated Storms,1014.9,29.97,KAPF
1689303600,2023-07-13T23:00:00-04:00,28.39,83.1,91.43,76.12,80,1016,30.0,ENE,66,5.59,7.83,0.04,0.0,0.04,0.0,16,15.579,9.68,76,Isolated Showers,Isolated Showers,1015.9,30.0,KAPF
1689307200,2023-07-14T00:00:00-04:00,27.95,82.31,89.98,76.1,82,1015,29.97,E,96,4.5,7.11,0.04,0.0,0.04,0.0,15,16.0,9.942,57,Isolated Showers,Isolated Showers,1014.9,29.97,KAPF
1689310800,2023-07-14T01:00:00-04:00,27.34,81.21,87.87,76.1,85,1015,29.97,E,100,3.78,6.02,0.0,0.0,0.0,0.0,0,16.0,9.942,46,Partly Cloudy,Partly Cloudy,1014.9,29.97,KAPF
1689314400,2023-07-14T02:00:00-04:00,27.34,81.21,87.87,76.1,85,1015,29.97,ESE,106,4.47,5.59,0.0,0.0,0.0,0.0,0,16.0,9.942,32,Partly Cloudy,Partly Cloudy,1014.9,29.97,KAPF
1689318000,2023-07-14T03:00:00-04:00,27.34,81.21,88.44,77.0,87,1014,29.94,ESE,116,3.78,5.59,0.0,0.0,0.0,0.0,0,16.0,9.942,26,Mostly Clear,Mostly Clear,1013.9,29.94,KAPF
1689321600,2023-07-14T04:00:00-04:00,26.84,80.31,86.45,77.0,90,1014,29.94,ESE,120,3.78,5.59,0.0,0.0,0.0,0.0,0,16.0,9.942,27,Mostly Clear,Mostly Clear,1013.9,29.94,KAPF
1689325200,2023-07-14T05:00:00-04:00,26.84,80.31,86.01,76.1,87,1014,29.94,ESE,120,4.47,6.71,0.0,0.0,0.0,0.0,0,16.0,9.942,29,Mostly Clear,Mostly Clear,1013.9,29.94,KAPF
1689328800,2023-07-14T06:00:00-04:00,26.84,80.31,86.01,76.1,87,1014,29.94,ESE,110,3.78,6.71,0.0,0.0,0.0,0.0,0,16.0,9.942,28,Mostly Clear,Mostly Clear,1013.9,29.94,KAPF
1689332400,2023-07-14T07:00:00-04:00,26.3,79.34,79.34,76.1,90,1015,29.97,E,100,4.47,6.71,0.0,0.0,0.0,0.0,0,16.0,9.942,25,Mostly Sunny,Mostly Sunny,1014.9,29.97,KAPF
1689336000,2023-07-14T08:00:00-04:00,26.84,80.31,86.18,76.44,88,1015,29.97,ESE,110,4.47,6.71,0.0,0.0,0.0,0.0,0,16.0,9.942,24,Mostly Sunny,Mostly Sunny,1014.9,29.97,KAPF
1689339600,2023-07-14T09:00:00-04:00,29.09,84.36,94.88,77.41,80,1016,30.0,ESE,120,4.47,6.71,0.1,0.0,0.1,0.0,34,16.0,9.942,28,Isolated Storms,Isolated Storms,1015.9,30.0,KAPF
1689256800,2023-07-13T10:00:00-04:00,32.2,89.96,104.61,78.08,68,1016,30.0,SSE,154,4.38,5.7,0.0,0.0,0.0,0.0,0,16.0,9.942,55,Partly Cloudy,Partly Cloudy,1015.9,30.0,KFXE
1689260400,2023-07-13T11:00:00-04:00,33.24,91.83,104.42,76.1,60,1016,30.0,SE,124,5.19,7.83,0.0,0.0,0.0,0.0,0,16.0,9.942,66,Partly Cloudy,Partly Cloudy,1015.9,30.0,KFXE
1689264000,2023-07-13T12:00:00-04:00,33.48,92.26,105.13,76.19,60,1016,30.0,SE,124,5.59,8.95,0.05,0.0,0.05,0.0,30,16.0,9.942,69,Chance of Storms,Chance of Storms,1015.9,30.0,KFXE
1689267600,2023-07-13T13:00:00-04:00,33.48,92.26,105.0,76.1,59,1016,30.0,ESE,114,7.83,12.3,0.05,0.0,0.05,0.0,33,16.0,9.942,78,Chance of Storms,Chance of Storms,1015.9,30.0,KFXE
1689271200,2023-07-13T14:00:00-04:00,33.24,91.83,104.42,76.1,60,1015,29.97,ESE,116,9.46,13.42,0.05,0.0,0.05,0.0,42,16.0,9.942,76,Chance of Storms,Chance of Storms,1014.9,29.97,KFXE
1689274800,2023-07-13T15:00:00-04:00,32.38,90.28,102.31,76.1,63,1015,29.97,ESE,120,9.98,14.05,1.32,0.05,1.32,0.05,53,16.0,9.942,71,Chance of Storms,Chance of Storms,1014.9,29.97,KFXE
1689278400,2023-07-13T16:00:00-04:00,32.42,90.36,102.41,76.1,63,1014,29.94,ESE,120,10.07,14.54,1.32,0.05,1.32,0.05,53,16.0,9.942,68,Chance of Storms,Chance of Storms,1013.9,29.94,KFXE
1689282000,2023-07-13T17:00:00-04:00,32.92,91.26,103.64,76.1,61,1014,29.94,SE,130,10.07,15.05,1.32,0.05,1.32,0.05,52,16.0,9.942,70,Chance of Storms,Chance of Storms,1013.9,29.94,KFXE
1689285600,2023-07-13T18:00:00-04:00,31.62,88.92,99.45,75.31,64,1013,29.91,SSE,150,8.95,13.42,1.32,0.05,1.32,0.05,46,15.909,9.885,75,Chance of Storms,Chance of Storms,1012.9,29.91,KFXE
1689289200,2023-07-13T19:00:00-04:00,30.38,86.68,95.35,74.39,67,1014,29.94,SSE,153,8.95,12.41,1.32,0.05,1.32,0.05,44,14.898,9.257,81,Chance of Storms,Chance of Storms,1013.9,29.94,KFXE
1689292800,2023-07-13T20:00:00-04:00,29.19,84.54,92.62,74.79,73,1014,29.94,SSE,165,7.74,10.18,1.32,0.05,1.32,0.05,34,16.0,9.942,80,Chance of Storms,Chance of Storms,1013.9,29.94,KFXE
1689296400,2023-07-13T21:00:00-04:00,28.03,82.45,89.72,75.4,79,1015,29.97,SSE,156,5.7,8.95,0.0,0.0,0.0,0.0,0,16.0,9.942,69,Partly Cloudy,Partly Cloudy,1014.9,29.97,KFXE
1689300000,2023-07-13T22:00:00-04:00,28.03,82.45,89.72,75.4,79,1016,30.0,S,184,4.88,6.71,0.0,0.0,0.0,0.0,0,16.0,9.942,56,Partly Cloudy,Partly Cloudy,1015.9,30.0,KFXE
1689303600,2023-07-13T23:00:00-04:00,27.43,81.37,87.9,75.63,83,1016,30.0,S,171,4.47,6.71,0.0,0.0,0.0,0.0,0,16.0,9.942,45,Partly Cloudy,Partly Cloudy,1015.9,30.0,KFXE
1689307200,2023-07-14T00:00:00-04:00,27.2,80.96,86.92,75.31,83,1016,30.0,SSE,166,4.47,6.71,0.0,0.0,0.0,0.0,0,16.0,9.942,39,Partly Cloudy,Partly Cloudy,1015.9,30.0,KFXE
1689310800,2023-07-14T01:00:00-04:00,27.2,80.96,86.97,75.4,83,1015,29.97,S,175,3.98,6.71,0.0,0.0,0.0,0.0,0,16.0,9.942,35,Partly Cloudy,Partly Cloudy,1014.9,29.97,KFXE
1689314400,2023-07-14T02:00:00-04:00,26.93,80.47,85.97,75.31,84,1015,29.97,SE,132,3.36,5.59,0.0,0.0,0.0,0.0,0,16.0,9.942,33,Partly Cloudy,Partly Cloudy,1014.9,29.97,KFXE
1689318000,2023-07-14T03:00:00-04:00,26.93,80.47,86.22,75.83,86,1014,29.94,SE,126,3.36,5.59,0.0,0.0,0.0,0.0,0,16.0,9.942,32,Partly Cloudy,Partly Cloudy,1013.9,29.94,KFXE
1689321600,2023-07-14T04:00:00-04:00,26.7,80.06,85.61,76.42,89,1014,29.94,SE,140,3.36,5.59,0.0,0.0,0.0,0.0,0,16.0,9.942,33,Partly Cloudy,Partly Cloudy,1013.9,29.94,KFXE
1689325200,2023-07-14T05:00:00-04:00,26.43,79.57,79.57,76.42,90,1014,29.94,SSE,150,3.36,5.59,0.0,0.0,0.0,0.0,0,16.0,9.942,31,Mostly Clear,Mostly Clear,1013.9,29.94,KFXE
1689328800,2023-07-14T06:00:00-04:00,26.7,80.06,85.35,75.83,87,1014,29.94,SE,135,3.36,4.99,0.0,0.0,0.0,0.0,0,16.0,9.942,29,Mostly Clear,Mostly Clear,1013.9,29.94,KFXE
1689332400,2023-07-14T07:00:00-04:00,26.47,79.65,79.65,76.42,90,1015,29.97,SE,131,2.95,5.1,0.0,0.0,0.0,0.0,0,15.461,9.607,26,Mostly Sunny,Mostly Sunny,1014.9,29.97,KFXE
1689336000,2023-07-14T08:00:00-04:00,27.7,81.86,90.53,77.97,88,1015,29.97,SE,136,2.95,5.59,0.0,0.0,0.0,0.0,0,16.0,9.942,25,Mostly Sunny,Mostly Sunny,1014.9,29.97,KFXE
1689339600,2023-07-14T09:00:00-04:00,29.77,85.59,98.26,78.48,79,1016,30.0,SE,140,4.47,7.23,0.47,0.02,0.47,0.02,43,16.0,9.942,28,Isolated Storms,Isolated Storms,1015.9,30.0,KFXE
1689256800,2023-07-13T10:00:00-04:00,32.06,89.71,104.7,78.39,69,1016,30.0,SSE,150,4.47,6.71,0.0,0.0,0.0,0.0,0,16.0,9.942,54,Partly Cloudy,Partly Cloudy,1015.5,29.99,KPMP
1689260400,2023-07-13T11:00:00-04:00,32.91,91.24,103.79,76.23,62,1016,30.0,SE,128,5.59,8.95,0.0,0.0,0.0,0.0,0,16.0,9.942,63,Partly Cloudy,Partly Cloudy,1015.5,29.99,KPMP
1689264000,2023-07-13T12:00:00-04:00,33.3,91.94,104.74,76.23,60,1016,30.0,ESE,120,6.67,10.07,0.09,0.0,0.09,0.0,27,16.0,9.942,70,Chance of Storms,Chance of Storms,1015.5,29.99,KPMP
1689267600,2023-07-13T13:00:00-04:00,32.7,90.86,104.26,76.95,64,1016,30.0,ESE,112,8.5,13.42,0.09,0.0,0.09,0.0,30,16.0,9.942,73,Chance of Storms,Chance of Storms,1015.5,29.99,KPMP
1689271200,2023-07-13T14:00:00-04:00,32.38,90.28,103.08,76.68,64,1015,29.97,ESE,112,10.07,14.54,0.09,0.0,0.09,0.0,38,16.0,9.942,72,Chance of Storms,Chance of Storms,1014.5,29.96,KPMP
1689274800,2023-07-13T15:00:00-04:00,32.08,89.74,102.32,76.68,66,1015,29.97,ESE,120,10.07,15.21,0.9,0.04,0.9,0.04,49,16.0,9.942,73,Chance of Storms,Chance of Storms,1014.5,29.96,KPMP
1689278400,2023-07-13T16:00:00-04:00,32.0,89.6,101.28,76.03,64,1014,29.94,SE,128,10.07,15.66,0.9,0.04,0.9,0.04,49,16.0,9.942,67,Chance of Storms,Chance of Storms,1013.5,29.93,KPMP
1689282000,2023-07-13T17:00:00-04:00,32.38,90.28,102.48,76.23,64,1014,29.94,SE,130,10.07,15.66,0.9,0.04,0.9,0.04,49,16.0,9.942,67,Chance of Storms,Chance of Storms,1013.5,29.93,KPMP
1689285600,2023-07-13T18:00:00-04:00,31.09,87.96,98.52,75.65,67,1013,29.91,SE,140,9.62,15.19,0.9,0.04,0.9,0.04,43,16.0,9.942,75,Chance of Storms,Chance of Storms,1012.5,29.9,KPMP
1689289200,2023-07-13T19:00:00-04:00,30.36,86.65,95.76,74.84,68,1014,29.94,SE,134,8.95,14.54,0.9,0.04,0.9,0.04,42,15.654,9.727,77,Chance of Storms,Chance of Storms,1013.5,29.93,KPMP
1689292800,2023-07-13T20:00:00-04:00,29.68,85.42,93.75,74.59,70,1014,29.94,SSE,165,7.83,12.3,0.9,0.04,0.9,0.04,32,16.0,9.942,83,Chance of Storms,Chance of Storms,1013.5,29.93,KPMP
1689296400,2023-07-13T21:00:00-04:00,28.09,82.56,89.52,74.88,78,1015,29.97,SSE,160,6.44,10.33,0.06,0.0,0.06,0.0,24,16.0,9.942,70,Isolated Storms,Isolated Storms,1014.5,29.96,KPMP
1689300000,2023-07-13T22:00:00-04:00,27.95,82.31,88.9,74.59,78,1016,30.0,S,170,5.59,8.5,0.06,0.0,0.06,0.0,17,16.0,9.942,51,Isolated Storms,Isolated Storms,1015.5,29.99,KPMP
1689303600,2023-07-13T23:00:00-04:00,27.63,81.73,88.07,74.84,80,1016,30.0,SSW,192,4.74,7.83,0.06,0.0,0.06,0.0,15,16.0,9.942,45,Isolated Showers,Isolated Showers,1015.5,29.99,KPMP
1689307200,2023-07-14T00:00:00-04:00,27.38,81.28,87.12,74.59,80,1016,30.0,S,172,4.47,6.89,0.06,0.0,0.06,0.0,17,16.0,9.942,39,Isolated Showers,Isolated Showers,1015.5,29.99,KPMP
1689310800,2023-07-14T01:00:00-04:00,27.06,80.71,86.07,74.59,82,1015,29.97,S,180,4.47,7.11,0.06,0.0,0.06,0.0,16,16.0,9.942,35,Isolated Showers,Isolated Showers,1014.5,29.96,KPMP
1689314400,2023-07-14T02:00:00-04:00,27.14,80.85,86.34,74.59,81,1015,29.97,SE,138,3.94,6.71,0.06,0.0,0.06,0.0,15,16.0,9.942,32,Isolated Showers,Isolated Showers,1014.5,29.96,KPMP
1689318000,2023-07-14T03:00:00-04:00,26.88,80.38,85.46,74.59,83,1014,29.94,SE,140,3.94,6.44,0.0,0.0,0.0,0.0,0,16.0,9.942,32,Partly Cloudy,Partly Cloudy,1013.5,29.93,KPMP
1689321600,2023-07-14T04:00:00-04:00,26.88,80.38,85.68,75.07,84,1014,29.94,SE,140,4.29,6.44,0.0,0.0,0.0,0.0,0,16.0,9.942,33,Partly Cloudy,Partly Cloudy,1013.5,29.93,KPMP
1689325200,2023-07-14T05:00:00-04:00,26.88,80.38,85.81,75.34,85,1014,29.94,SSE,150,4.21,6.71,0.0,0.0,0.0,0.0,0,16.0,9.942,32,Partly Cloudy,Partly Cloudy,1013.5,29.93,KPMP
1689328800,2023-07-14T06:00:00-04:00,26.7,80.06,84.94,74.84,84,1014,29.94,SSE,148,3.76,5.86,0.0,0.0,0.0,0.0,0,16.0,9.942,30,Mostly Clear,Mostly Clear,1013.5,29.93,KPMP
1689332400,2023-07-14T07:00:00-04:00,26.56,79.81,79.81,76.1,88,1015,29.97,SSE,156,3.76,5.86,0.0,0.0,0.0,0.0,0,16.0,9.942,27,Mostly Sunny,Mostly Sunny,1014.5,29.96,KPMP
1689336000,2023-07-14T08:00:00-04:00,27.5,81.5,89.35,77.43,88,1015,29.97,SSE,150,3.36,5.86,0.0,0.0,0.0,0.0,0,16.0,9.942,26,Mostly Sunny,Mostly Sunny,1014.5,29.96,KPMP
1689339600,2023-07-14T09:00:00-04:00,29.68,85.42,97.53,78.12,79,1016,30.0,SSE,150,4.88,7.83,0.24,0.01,0.24,0.01,40,16.0,9.942,29,Isolated Storms,Isolated Storms,1015.5,29.99,KPMP
1689256800,2023-07-13T10:00:00-04:00,31.06,87.91,99.71,76.69,70,1016,30.0,NE,40,3.74,5.59,0.0,0.0,0.0,0.0,0,16.0,9.942,27,Mostly Sunny,Mostly Sunny,1015.2,29.98,KRSW
1689260400,2023-07-13T11:00:00-04:00,32.2,89.96,102.65,76.69,65,1016,30.0,NE,36,4.47,5.59,0.0,0.0,0.0,0.0,0,16.0,9.942,24,Mostly Sunny,Mostly Sunny,1015.2,29.98,KRSW
1689264000,2023-07-13T12:00:00-04:00,33.3,91.94,104.57,76.1,60,1016,30.0,SW,222,4.85,6.6,0.04,0.0,0.04,0.0,17,16.0,9.942,44,Isolated Storms,Isolated Storms,1015.2,29.98,KRSW
1689267600,2023-07-13T13:00:00-04:00,33.8,92.84,104.11,74.84,56,1015,29.97,W,278,5.32,7.09,0.04,0.0,0.04,0.0,28,16.0,9.942,48,Scattered Storms,Scattered Storms,1014.2,29.95,KRSW
1689271200,2023-07-13T14:00:00-04:00,34.41,93.94,105.14,74.52,54,1015,29.97,W,264,5.59,9.33,0.04,0.0,0.04,0.0,39,16.0,9.942,50,Scattered Storms,Scattered Storms,1014.2,29.95,KRSW
1689274800,2023-07-13T15:00:00-04:00,34.5,94.1,105.76,74.84,54,1014,29.94,W,266,8.21,11.56,2.11,0.08,2.11,0.08,43,16.0,9.942,60,Scattered Storms,Scattered Storms,1013.2,29.92,KRSW
1689278400,2023-07-13T16:00:00-04:00,32.96,91.33,102.12,74.84,59,1013,29.91,WNW,287,8.95,12.8,2.11,0.08,2.11,0.08,48,16.0,9.942,70,Scattered Storms,Scattered Storms,1012.2,29.89,KRSW
1689282000,2023-07-13T17:00:00-04:00,32.41,90.34,100.81,74.84,61,1013,29.91,WSW,250,9.33,13.42,2.11,0.08,2.11,0.08,53,16.0,9.942,70,Scattered Storms,Scattered Storms,1012.2,29.89,KRSW
1689285600,2023-07-13T18:00:00-04:00,31.91,89.44,99.61,74.84,62,1013,29.91,WNW,282,8.21,11.56,2.11,0.08,2.11,0.08,48,16.0,9.942,82,Scattered Storms,Scattered Storms,1012.2,29.89,KRSW
1689289200,2023-07-13T19:00:00-04:00,29.33,84.79,93.05,74.84,72,1014,29.94,NE,55,6.71,10.45,2.11,0.08,2.11,0.08,43,16.0,9.942,92,Scattered Storms,Scattered Storms,1013.2,29.92,KRSW
1689292800,2023-07-13T20:00:00-04:00,28.33,82.99,91.22,76.1,80,1014,29.94,ESE,109,5.59,8.21,2.11,0.08,2.11,0.08,37,16.0,9.942,93,Scattered Storms,Scattered Storms,1013.2,29.92,KRSW
1689296400,2023-07-13T21:00:00-04:00,27.58,81.64,88.72,76.1,83,1015,29.97,ESE,107,5.59,7.2,0.56,0.02,0.56,0.02,32,16.0,9.942,88,Scattered Storms,Scattered Storms,1014.2,29.95,KRSW
1689300000,2023-07-13T22:00:00-04:00,27.08,80.74,86.69,75.67,85,1015,29.97,ESE,107,5.59,7.09,0.56,0.02,0.56,0.02,27,15.549,9.662,79,Scattered Storms,Scattered Storms,1014.2,29.95,KRSW
1689303600,2023-07-13T23:00:00-04:00,26.7,80.06,85.28,75.67,87,1016,30.0,ESE,109,5.59,7.67,0.56,0.02,0.56,0.02,21,16.0,9.942,59,Isolated Storms,Isolated Storms,1015.2,29.98,KRSW
1689307200,2023-07-14T00:00:00-04:00,26.58,79.84,79.84,76.1,88,1015,29.97,E,100,4.47,6.71,0.56,0.02,0.56,0.02,16,16.0,9.942,46,Isolated Storms,Isolated Storms,1014.2,29.95,KRSW
1689310800,2023-07-14T01:00:00-04:00,26.58,79.84,79.84,76.1,88,1015,29.97,ESE,110,4.47,5.59,0.0,0.0,0.0,0.0,0,16.0,9.942,43,Partly Cloudy,Partly Cloudy,1014.2,29.95,KRSW
1689314400,2023-07-14T02:00:00-04:00,26.06,78.91,78.91,76.1,91,1014,29.94,ESE,120,3.74,5.59,0.0,0.0,0.0,0.0,0,16.0,9.942,49,Partly Cloudy,Partly Cloudy,1013.2,29.92,KRSW
1689318000,2023-07-14T03:00:00-04:00,25.6,78.08,78.08,74.84,90,1014,29.94,SE,130,3.85,5.59,0.0,0.0,0.0,0.0,0,16.0,9.942,45,Partly Cloudy,Partly Cloudy,1013.2,29.92,KRSW
1689321600,2023-07-14T04:00:00-04:00,25.54,77.97,77.97,74.84,90,1014,29.94,SE,130,4.47,5.59,0.0,0.0,0.0,0.0,0,16.0,9.942,45,Partly Cloudy,Partly Cloudy,1013.2,29.92,KRSW
1689325200,2023-07-14T05:00:00-04:00,25.0,77.0,77.0,74.77,93,1014,29.94,SE,131,4.47,5.59,0.0,0.0,0.0,0.0,0,16.0,9.942,38,Partly Cloudy,Partly Cloudy,1013.2,29.92,KRSW
1689328800,2023-07-14T06:00:00-04:00,25.0,77.0,77.0,74.84,93,1014,29.94,ESE,120,3.36,5.59,0.0,0.0,0.0,0.0,0,16.0,9.942,27,Mostly Clear,Mostly Clear,1013.2,29.92,KRSW
1689332400,2023-07-14T07:00:00-04:00,25.0,77.0,77.0,74.84,93,1015,29.97,ESE,110,3.36,5.59,0.04,0.0,0.04,0.0,21,16.0,9.942,28,Isolated Storms,Isolated Storms,1014.2,29.95,KRSW
1689336000,2023-07-14T08:00:00-04:00,26.2,79.16,79.16,76.1,90,1015,29.97,ESE,120,3.36,5.59,0.04,0.0,0.04,0.0,27,16.0,9.942,17,Scattered Storms,Scattered Storms,1014.2,29.95,KRSW
1689339600,2023-07-14T09:00:00-04:00,28.4,83.12,91.44,76.1,79,1016,30.0,SE,135,4.0,5.59,0.04,0.0,0.04,0.0,27,16.0,9.942,19,Scattered Storms,Scattered Storms,1015.2,29.98,KRSW
1689256800,2023-07-13T10:00:00-04:00,31.39,88.5,99.83,76.1,67,1016,30.0,NE,38,4.21,5.59,0.0,0.0,0.0,0.0,0,16.0,9.942,23,Mostly Sunny,Mostly Sunny,1015.5,29.99,KFMY
1689260400,2023-07-13T11:00:00-04:00,32.81,91.06,103.02,75.83,61,1016,30.0,NE,34,5.03,5.59,0.0,0.0,0.0,0.0,0,16.0,9.942,29,Mostly Sunny,Mostly Sunny,1015.5,29.99,KFMY
1689264000,2023-07-13T12:00:00-04:00,33.65,92.57,103.76,74.84,56,1016,30.0,S,175,5.1,6.22,0.04,0.0,0.04,0.0,17,16.0,9.942,44,Isolated Storms,Isolated Storms,1015.5,29.99,KFMY
1689267600,2023-07-13T13:00:00-04:00,34.18,93.52,105.01,74.84,55,1015,29.97,W,262,5.1,6.49,0.04,0.0,0.04,0.0,28,16.0,9.942,55,Scattered Storms,Scattered Storms,1014.5,29.96,KFMY
1689271200,2023-07-13T14:00:00-04:00,34.5,94.1,105.56,74.68,54,1015,29.97,W,264,6.71,10.07,0.04,0.0,0.04,0.0,40,16.0,9.942,57,Scattered Storms,Scattered Storms,1014.5,29.96,KFMY
1689274800,2023-07-13T15:00:00-04:00,34.5,94.1,105.76,74.84,54,1014,29.94,W,272,8.46,11.63,1.13,0.04,1.13,0.04,43,16.0,9.942,67,Scattered Storms,Scattered Storms,1013.5,29.93,KFMY
1689278400,2023-07-13T16:00:00-04:00,33.3,91.94,102.93,74.84,58,1014,29.94,W,280,8.95,13.27,1.13,0.04,1.13,0.04,47,16.0,9.942,76,Scattered Storms,Scattered Storms,1013.5,29.93,KFMY
1689282000,2023-07-13T17:00:00-04:00,32.7,90.86,101.5,74.84,60,1013,29.91,W,280,9.64,14.05,1.13,0.04,1.13,0.04,50,16.0,9.942,72,Scattered Storms,Scattered Storms,1012.5,29.9,KFMY
1689285600,2023-07-13T18:00:00-04:00,32.07,89.73,99.99,74.84,62,1013,29.91,WNW,290,9.15,11.81,1.13,0.04,1.13,0.04,46,16.0,9.942,70,Scattered Storms,Scattered Storms,1012.5,29.9,KFMY
1689289200,2023-07-13T19:00:00-04:00,30.39,86.7,95.84,74.84,68,1014,29.94,NW,310,8.19,10.69,1.13,0.04,1.13,0.04,41,16.0,9.942,88,Scattered Storms,Scattered Storms,1013.5,29.93,KFMY
1689292800,2023-07-13T20:00:00-04:00,29.18,84.52,92.64,74.84,73,1014,29.94,ENE,78,5.59,8.95,1.13,0.04,1.13,0.04,36,16.0,9.942,89,Scattered Storms,Scattered Storms,1013.5,29.93,KFMY
1689296400,2023-07-13T21:00:00-04:00,28.62,83.52,91.12,74.91,75,1014,29.94,ENE,77,6.22,6.71,0.25,0.01,0.25,0.01,31,16.0,9.942,80,Scattered Storms,Scattered Storms,1013.5,29.93,KFMY
1689300000,2023-07-13T22:00:00-04:00,27.93,82.27,89.06,74.91,78,1015,29.97,E,90,4.97,6.78,0.25,0.01,0.25,0.01,27,15.544,9.659,77,Scattered Storms,Scattered Storms,1014.5,29.96,KFMY
1689303600,2023-07-13T23:00:00-04:00,27.46,81.43,87.57,74.91,81,1016,30.0,E,95,5.59,7.83,0.25,0.01,0.25,0.01,22,16.0,9.942,59,Isolated Storms,Isolated Storms,1015.5,29.99,KFMY
1689307200,2023-07-14T00:00:00-04:00,26.8,80.24,85.86,76.1,87,1015,29.97,E,100,4.47,6.22,0.25,0.01,0.25,0.01,16,16.0,9.942,50,Isolated Storms,Isolated Storms,1014.5,29.96,KFMY
1689310800,2023-07-14T01:00:00-04:00,26.7,80.06,85.47,76.1,88,1015,29.97,ESE,113,3.85,5.59,0.0,0.0,0.0,0.0,0,16.0,9.942,47,Partly Cloudy,Partly Cloudy,1014.5,29.96,KFMY
1689314400,2023-07-14T02:00:00-04:00,26.23,79.21,79.21,75.61,89,1014,29.94,ESE,122,3.85,5.59,0.0,0.0,0.0,0.0,0,16.0,9.942,47,Partly Cloudy,Partly Cloudy,1013.5,29.93,KFMY
1689318000,2023-07-14T03:00:00-04:00,25.87,78.57,78.57,75.67,91,1014,29.94,SE,130,3.62,5.59,0.0,0.0,0.0,0.0,0,16.0,9.942,45,Partly Cloudy,Partly Cloudy,1013.5,29.93,KFMY
1689321600,2023-07-14T04:00:00-04:00,25.73,78.31,78.31,75.81,92,1014,29.94,SE,130,3.78,5.59,0.0,0.0,0.0,0.0,0,16.0,9.942,45,Partly Cloudy,Partly Cloudy,1013.5,29.93,KFMY
1689325200,2023-07-14T05:00:00-04:00,25.09,77.16,77.16,75.61,95,1014,29.94,ESE,121,4.47,5.66,0.0,0.0,0.0,0.0,0,16.0,9.942,39,Partly Cloudy,Partly Cloudy,1013.5,29.93,KFMY
1689328800,2023-07-14T06:00:00-04:00,25.6,78.08,78.08,75.61,92,1014,29.94,ESE,112,3.85,5.59,0.0,0.0,0.0,0.0,0,16.0,9.942,28,Mostly Clear,Mostly Clear,1013.5,29.93,KFMY
1689332400,2023-07-14T07:00:00-04:00,25.5,77.9,77.9,75.61,93,1015,29.97,ESE,111,3.36,5.59,0.04,0.0,0.04,0.0,23,16.0,9.942,26,Isolated Storms,Isolated Storms,1014.5,29.96,KFMY
1689336000,2023-07-14T08:00:00-04:00,26.23,79.21,79.21,76.1,90,1015,29.97,ESE,120,3.36,5.59,0.04,0.0,0.04,0.0,30,16.0,9.942,20,Scattered Storms,Scattered Storms,1014.5,29.96,KFMY
1689339600,2023-07-14T09:00:00-04:00,28.4,83.12,91.44,76.1,79,1016,30.0,SE,129,4.47,5.59,0.04,0.0,0.04,0.0,30,16.0,9.942,14,Scattered Storms,Scattered Storms,1015.5,29.99,KFMY
1689256800,2023-07-13T10:00:00-04:00,31.44,88.59,103.0,78.37,72,1016,30.0,S,190,3.94,5.59,0.0,0.0,0.0,0.0,0,16.0,9.942,59,Partly Cloudy,Partly Cloudy,1015.5,29.99,KPBI
1689260400,2023-07-13T11:00:00-04:00,32.93,91.27,104.98,77.05,63,1016,30.0,S,169,5.06,6.71,0.0,0.0,0.0,0.0,0,16.0,9.942,68,Partly Cloudy,Partly Cloudy,1015.5,29.99,KPBI
1689264000,2023-07-13T12:00:00-04:00,33.3,91.94,105.9,77.05,62,1016,30.0,SE,145,6.17,8.52,2.82,0.11,2.82,0.11,29,16.0,9.942,65,Chance of Storms,Chance of Storms,1015.5,29.99,KPBI
1689267600,2023-07-13T13:00:00-04:00,33.75,92.75,107.01,77.05,60,1016,30.0,SE,124,6.87,9.64,2.82,0.11,2.82,0.11,32,16.0,9.942,66,Chance of Storms,Chance of Storms,1015.5,29.99,KPBI
1689271200,2023-07-13T14:00:00-04:00,33.27,91.89,105.24,76.64,61,1015,29.97,ESE,114,8.95,13.42,2.82,0.11,2.82,0.11,40,16.0,9.942,68,Chance of Storms,Chance of Storms,1014.5,29.96,KPBI
1689274800,2023-07-13T15:00:00-04:00,32.65,90.77,104.13,76.95,64,1015,29.97,ESE,120,9.53,14.0,0.72,0.03,0.72,0.03,50,16.0,9.942,66,Chance of Storms,Chance of Storms,1014.5,29.96,KPBI
1689278400,2023-07-13T16:00:00-04:00,32.2,89.96,101.57,75.87,63,1014,29.94,ESE,111,9.53,14.0,0.72,0.03,0.72,0.03,50,16.0,9.942,68,Chance of Storms,Chance of Storms,1013.5,29.93,KPBI
1689282000,2023-07-13T17:00:00-04:00,32.7,90.86,102.35,75.52,61,1014,29.94,ESE,115,9.53,14.12,0.72,0.03,0.72,0.03,45,16.0,9.942,75,Chance of Storms,Chance of Storms,1013.5,29.93,KPBI
1689285600,2023-07-13T18:00:00-04:00,31.2,88.16,99.06,75.87,67,1014,29.94,SSE,149,9.53,14.0,0.72,0.03,0.72,0.03,40,16.0,9.942,77,Chance of Storms,Chance of Storms,1013.5,29.93,KPBI
1689289200,2023-07-13T19:00:00-04:00,30.6,87.08,96.62,75.07,68,1014,29.94,SSE,150,8.52,12.3,0.72,0.03,0.72,0.03,38,16.0,9.942,75,Chance of Storms,Chance of Storms,1013.5,29.93,KPBI
1689292800,2023-07-13T20:00:00-04:00,30.0,86.0,95.9,75.87,72,1014,29.94,S,169,7.83,11.88,0.72,0.03,0.72,0.03,25,16.0,9.942,64,Isolated Storms,Isolated Storms,1013.5,29.93,KPBI
1689296400,2023-07-13T21:00:00-04:00,28.14,82.65,90.61,76.1,81,1015,29.97,S,180,6.71,10.07,0.0,0.0,0.0,0.0,0,16.0,9.942,51,Partly Cloudy,Partly Cloudy,1014.5,29.96,KPBI
1689300000,2023-07-13T22:00:00-04:00,27.46,81.43,87.88,75.43,82,1016,30.0,S,180,5.59,8.95,0.0,0.0,0.0,0.0,0,15.454,9.602,43,Partly Cloudy,Partly Cloudy,1015.5,29.99,KPBI
1689303600,2023-07-13T23:00:00-04:00,27.2,80.96,86.92,75.31,83,1016,30.0,S,190,5.59,7.94,0.0,0.0,0.0,0.0,0,16.0,9.942,46,Partly Cloudy,Partly Cloudy,1015.5,29.99,KPBI
1689307200,2023-07-14T00:00:00-04:00,26.96,80.53,85.85,74.84,83,1016,30.0,S,191,5.01,7.83,0.0,0.0,0.0,0.0,0,16.0,9.942,36,Partly Cloudy,Partly Cloudy,1015.5,29.99,KPBI
1689310800,2023-07-14T01:00:00-04:00,26.7,80.06,85.13,75.31,85,1015,29.97,S,190,4.47,6.71,0.0,0.0,0.0,0.0,0,16.0,9.942,29,Mostly Clear,Mostly Clear,1014.5,29.96,KPBI
1689314400,2023-07-14T02:00:00-04:00,26.91,80.44,85.9,75.31,84,1015,29.97,S,180,4.47,6.29,0.0,0.0,0.0,0.0,0,16.0,9.942,22,Mostly Clear,Mostly Clear,1014.5,29.96,KPBI
1689318000,2023-07-14T03:00:00-04:00,26.46,79.63,79.63,75.31,87,1015,29.97,S,170,3.47,5.59,0.0,0.0,0.0,0.0,0,16.0,9.942,20,Mostly Clear,Mostly Clear,1014.5,29.96,KPBI
1689321600,2023-07-14T04:00:00-04:00,26.46,79.63,79.63,75.31,87,1014,29.94,S,180,3.36,5.06,0.0,0.0,0.0,0.0,0,16.0,9.942,22,Mostly Clear,Mostly Clear,1013.5,29.93,KPBI
1689325200,2023-07-14T05:00:00-04:00,26.46,79.63,79.63,75.31,87,1014,29.94,S,180,3.36,4.52,0.0,0.0,0.0,0.0,0,16.0,9.942,25,Mostly Clear,Mostly Clear,1013.5,29.93,KPBI
1689328800,2023-07-14T06:00:00-04:00,26.17,79.11,79.11,74.84,87,1015,29.97,S,190,3.36,5.53,0.0,0.0,0.0,0.0,0,16.0,9.942,29,Mostly Clear,Mostly Clear,1014.5,29.96,KPBI
1689332400,2023-07-14T07:00:00-04:00,26.2,79.16,79.16,76.1,90,1015,29.97,SSW,195,3.36,4.52,0.0,0.0,0.0,0.0,0,16.0,9.942,31,Mostly Sunny,Mostly Sunny,1014.5,29.96,KPBI
1689336000,2023-07-14T08:00:00-04:00,27.2,80.96,87.9,77.0,88,1015,29.97,S,170,3.47,4.94,0.0,0.0,0.0,0.0,0,16.0,9.942,32,Partly Cloudy,Partly Cloudy,1014.5,29.96,KPBI
1689339600,2023-07-14T09:00:00-04:00,29.5,85.1,96.86,78.03,79,1016,30.0,SSE,160,4.47,6.22,0.32,0.01,0.32,0.01,35,16.0,9.942,33,Isolated Storms,Isolated Storms,1015.5,29.99,KPBI
1689256800,2023-07-13T10:00:00-04:00,31.27,88.29,98.37,75.13,65,1016,30.0,NNE,30,5.59,5.59,0.0,0.0,0.0,0.0,0,16.0,9.942,22,Mostly Sunny,Mostly Sunny,1016.0,30.0,KPGD
1689260400,2023-07-13T11:00:00-04:00,32.4,90.32,100.79,74.84,61,1016,30.0,N,10,5.59,5.59,0.0,0.0,0.0,0.0,0,16.0,9.942,24,Mostly Sunny,Mostly Sunny,1016.0,30.0,KPGD
1689264000,2023-07-13T12:00:00-04:00,33.57,92.43,103.57,74.84,57,1016,30.0,NW,325,5.59,6.71,0.06,0.0,0.06,0.0,17,16.0,9.942,37,Isolated Storms,Isolated Storms,1016.0,30.0,KPGD
1689267600,2023-07-13T13:00:00-04:00,33.8,92.84,103.23,74.12,55,1015,29.97,WNW,294,5.59,7.07,0.06,0.0,0.06,0.0,27,16.0,9.942,55,Scattered Storms,Scattered Storms,1015.0,29.97,KPGD
1689271200,2023-07-13T14:00:00-04:00,34.18,93.52,104.11,74.12,54,1014,29.94,W,280,7.23,9.46,0.06,0.0,0.06,0.0,38,15.956,9.915,54,Scattered Storms,Scattered Storms,1014.0,29.94,KPGD
1689274800,2023-07-13T15:00:00-04:00,34.55,94.19,104.97,74.12,52,1014,29.94,W,265,8.19,11.54,1.94,0.08,1.94,0.08,42,16.0,9.942,64,Scattered Storms,Scattered Storms,1014.0,29.94,KPGD
1689278400,2023-07-13T16:00:00-04:00,33.57,92.43,102.69,74.12,55,1013,29.91,W,275,9.46,13.42,1.94,0.08,1.94,0.08,46,16.0,9.942,61,Scattered Storms,Scattered Storms,1013.0,29.91,KPGD
1689282000,2023-07-13T17:00:00-04:00,33.3,91.94,102.06,74.12,56,1013,29.91,WSW,250,9.46,13.42,1.94,0.08,1.94,0.08,51,16.0,9.942,62,Scattered Storms,Scattered Storms,1013.0,29.91,KPGD
1689285600,2023-07-13T18:00:00-04:00,32.47,90.45,100.95,74.84,60,1013,29.91,WSW,255,9.46,13.42,1.94,0.08,1.94,0.08,46,16.0,9.942,79,Scattered Storms,Scattered Storms,1013.0,29.91,KPGD
1689289200,2023-07-13T19:00:00-04:00,30.6,87.08,96.37,74.84,67,1014,29.94,NW,308,8.34,11.18,1.94,0.08,1.94,0.08,42,15.98,9.93,79,Scattered Storms,Scattered Storms,1014.0,29.94,KPGD
1689292800,2023-07-13T20:00:00-04:00,29.5,85.1,93.51,74.84,71,1014,29.94,WNW,291,6.71,10.07,1.94,0.08,1.94,0.08,38,16.0,9.942,90,Scattered Storms,Scattered Storms,1014.0,29.94,KPGD
1689296400,2023-07-13T21:00:00-04:00,28.08,82.54,89.47,74.84,78,1014,29.94,NW,326,5.59,9.46,0.07,0.0,0.07,0.0,32,16.0,9.942,89,Scattered Storms,Scattered Storms,1014.0,29.94,KPGD
1689300000,2023-07-13T22:00:00-04:00,27.65,81.77,88.14,74.84,80,1015,29.97,SE,146,5.59,7.83,0.07,0.0,0.07,0.0,27,16.0,9.942,82,Scattered Storms,Scattered Storms,1015.0,29.97,KPGD
1689303600,2023-07-13T23:00:00-04:00,27.09,80.76,86.3,74.84,82,1016,30.0,E,90,5.59,7.83,0.07,0.0,0.07,0.0,22,16.0,9.942,58,Isolated Storms,Isolated Storms,1016.0,30.0,KPGD
1689307200,2023-07-14T00:00:00-04:00,26.7,80.06,84.94,74.84,84,1016,30.0,E,88,5.14,6.71,0.07,0.0,0.07,0.0,15,16.0,9.942,46,Isolated Storms,Isolated Storms,1016.0,30.0,KPGD
1689310800,2023-07-14T01:00:00-04:00,26.36,79.45,79.45,74.77,86,1015,29.97,ESE,108,4.47,6.71,0.0,0.0,0.0,0.0,0,16.0,9.942,52,Partly Cloudy,Partly Cloudy,1015.0,29.97,KPGD
1689314400,2023-07-14T02:00:00-04:00,25.6,78.08,78.08,74.84,90,1014,29.94,ESE,118,4.47,6.35,0.0,0.0,0.0,0.0,0,16.0,9.942,48,Partly Cloudy,Partly Cloudy,1014.0,29.94,KPGD
1689318000,2023-07-14T03:00:00-04:00,25.06,77.11,77.11,74.84,93,1014,29.94,SE,124,4.47,5.59,0.0,0.0,0.0,0.0,0,16.0,9.942,47,Partly Cloudy,Partly Cloudy,1014.0,29.94,KPGD
1689321600,2023-07-14T04:00:00-04:00,25.0,77.0,77.0,74.44,92,1014,29.94,SE,130,4.32,5.59,0.0,0.0,0.0,0.0,0,16.0,9.942,36,Partly Cloudy,Partly Cloudy,1014.0,29.94,KPGD
1689325200,2023-07-14T05:00:00-04:00,24.73,76.51,76.51,74.12,92,1014,29.94,SE,135,4.47,5.59,0.0,0.0,0.0,0.0,0,16.0,9.942,31,Mostly Clear,Mostly Clear,1014.0,29.94,KPGD
1689328800,2023-07-14T06:00:00-04:00,24.57,76.23,76.23,74.84,95,1014,29.94,ESE,118,4.47,5.59,0.0,0.0,0.0,0.0,0,16.0,9.942,29,Mostly Clear,Mostly Clear,1014.0,29.94,KPGD
1689332400,2023-07-14T07:00:00-04:00,24.8,76.64,76.64,74.12,92,1015,29.97,ESE,115,4.36,5.59,0.04,0.0,0.04,0.0,20,16.0,9.942,25,Isolated Storms,Isolated Storms,1015.0,29.97,KPGD
1689336000,2023-07-14T08:00:00-04:00,25.6,78.08,78.08,76.1,94,1015,29.97,ESE,120,3.96,5.59,0.04,0.0,0.04,0.0,26,16.0,9.942,24,Scattered Storms,Scattered Storms,1015.0,29.97,KPGD
1689339600,2023-07-14T09:00:00-04:00,28.58,83.44,92.01,76.1,79,1016,30.0,SE,131,4.47,5.59,0.04,0.0,0.04,0.0,26,16.0,9.942,21,Scattered Storms,Scattered Storms,1016.0,30.0,KPGD
1689256800,2023-07-13T10:00:00-04:00,31.24,88.23,101.54,77.72,71,1016,30.0,N,5,5.59,5.59,0.0,0.0,0.0,0.0,0,16.0,9.942,14,Mostly Sunny,Mostly Sunny,1015.7,29.99,KVNC
1689260400,2023-07-13T11:00:00-04:00,32.33,90.19,104.21,77.58,67,1016,30.0,WNW,290,5.59,7.81,0.0,0.0,0.0,0.0,0,16.0,9.942,22,Mostly Sunny,Mostly Sunny,1015.7,29.99,KVNC
1689264000,2023-07-13T12:00:00-04:00,32.63,90.73,104.88,77.5,65,1016,30.0,W,277,9.01,10.89,0.04,0.0,0.04,0.0,17,16.0,9.942,18,Isolated Storms,Isolated Storms,1015.7,29.99,KVNC
1689267600,2023-07-13T13:00:00-04:00,32.63,90.73,104.06,76.93,64,1016,30.0,W,277,10.65,12.59,0.04,0.0,0.04,0.0,24,16.0,9.942,35,Isolated Storms,Isolated Storms,1015.7,29.99,KVNC
1689271200,2023-07-13T14:00:00-04:00,32.63,90.73,104.06,76.93,64,1015,29.97,W,277,11.41,15.19,0.04,0.0,0.04,0.0,31,16.0,9.942,28,Scattered Storms,Scattered Storms,1014.7,29.96,KVNC
1689274800,2023-07-13T15:00:00-04:00,32.56,90.61,101.99,75.51,61,1015,29.97,WNW,285,11.41,14.61,0.04,0.0,0.04,0.0,31,16.0,9.942,43,Scattered Storms,Scattered Storms,1014.7,29.96,KVNC
1689278400,2023-07-13T16:00:00-04:00,32.41,90.34,103.01,76.57,64,1014,29.94,WNW,289,12.01,16.24,0.04,0.0,0.04,0.0,32,16.0,9.942,34,Scattered Storms,Scattered Storms,1013.7,29.93,KVNC
1689282000,2023-07-13T17:00:00-04:00,32.1,89.78,101.62,76.1,64,1014,29.94,WNW,290,11.41,14.76,0.04,0.0,0.04,0.0,33,16.0,9.942,40,Scattered Storms,Scattered Storms,1013.7,29.93,KVNC
1689285600,2023-07-13T18:00:00-04:00,31.86,89.35,101.02,76.1,65,1014,29.94,WNW,300,11.41,14.18,0.04,0.0,0.04,0.0,32,16.0,9.942,48,Scattered Storms,Scattered Storms,1013.7,29.93,KVNC
1689289200,2023-07-13T19:00:00-04:00,30.88,87.58,99.07,76.57,70,1013,29.91,NW,308,9.71,12.46,0.04,0.0,0.04,0.0,31,16.0,9.942,52,Scattered Storms,Scattered Storms,1012.7,29.9,KVNC
1689292800,2023-07-13T20:00:00-04:00,29.74,85.53,96.09,76.71,75,1014,29.94,NW,310,7.99,10.76,0.04,0.0,0.04,0.0,30,16.0,9.942,50,Scattered Storms,Scattered Storms,1013.7,29.93,KVNC
1689296400,2023-07-13T21:00:00-04:00,29.5,85.1,95.7,77.0,77,1014,29.94,NW,315,6.71,9.42,0.04,0.0,0.04,0.0,27,16.0,9.942,69,Scattered Storms,Scattered Storms,1013.7,29.93,KVNC
1689300000,2023-07-13T22:00:00-04:00,28.9,84.02,94.44,77.58,81,1015,29.97,NNW,333,5.01,8.3,0.04,0.0,0.04,0.0,25,16.0,9.942,65,Scattered Storms,Scattered Storms,1014.7,29.96,KVNC
1689303600,2023-07-13T23:00:00-04:00,28.46,83.23,93.66,78.3,85,1015,29.97,N,7,5.01,7.76,0.04,0.0,0.04,0.0,22,16.0,9.942,63,Isolated Storms,Isolated Storms,1014.7,29.96,KVNC
1689307200,2023-07-14T00:00:00-04:00,28.17,82.71,92.59,78.3,87,1015,29.97,NE,53,5.01,7.76,0.04,0.0,0.04,0.0,17,15.988,9.934,53,Isolated Storms,Isolated Storms,1014.7,29.96,KVNC
1689310800,2023-07-14T01:00:00-04:00,27.54,81.57,89.92,78.01,89,1015,29.97,ENE,70,5.01,7.25,0.0,0.0,0.0,0.0,0,14.996,9.318,45,Partly Cloudy,Partly Cloudy,1014.7,29.96,KVNC
1689314400,2023-07-14T02:00:00-04:00,27.04,80.67,87.75,77.85,91,1015,29.97,ESE,111,4.41,6.64,0.0,0.0,0.0,0.0,0,15.98,9.93,49,Partly Cloudy,Partly Cloudy,1014.7,29.96,KVNC
1689318000,2023-07-14T03:00:00-04:00,27.04,80.67,87.88,78.06,92,1014,29.94,ESE,120,4.41,6.64,0.0,0.0,0.0,0.0,0,15.937,9.903,35,Partly Cloudy,Partly Cloudy,1013.7,29.93,KVNC
1689321600,2023-07-14T04:00:00-04:00,26.91,80.44,87.19,77.85,92,1014,29.94,SE,125,4.41,6.64,0.0,0.0,0.0,0.0,0,15.863,9.857,40,Partly Cloudy,Partly Cloudy,1013.7,29.93,KVNC
1689325200,2023-07-14T05:00:00-04:00,26.54,79.77,79.77,78.13,95,1014,29.94,ESE,120,5.01,7.16,0.0,0.0,0.0,0.0,0,15.904,9.882,22,Mostly Clear,Mostly Clear,1013.7,29.93,KVNC
1689328800,2023-07-14T06:00:00-04:00,26.54,79.77,79.77,77.85,94,1014,29.94,ESE,105,5.01,7.25,0.04,0.0,0.04,0.0,15,15.41,9.576,24,Isolated Storms,Isolated Storms,1013.7,29.93,KVNC
1689332400,2023-07-14T07:00:00-04:00,26.54,79.77,79.77,77.85,94,1015,29.97,E,97,5.59,7.25,0.04,0.0,0.04,0.0,30,15.296,9.505,21,Scattered Storms,Scattered Storms,1014.7,29.96,KVNC
1689336000,2023-07-14T08:00:00-04:00,27.46,81.43,90.19,78.8,92,1015,29.97,ESE,105,5.01,7.25,0.04,0.0,0.04,0.0,37,15.944,9.907,27,Scattered Storms,Scattered Storms,1014.7,29.96,KVNC
1689339600,2023-07-14T09:00:00-04:00,29.5,85.1,97.61,78.66,81,1016,30.0,SSE,157,5.01,6.71,0.14,0.01,0.14,0.01,37,15.98,9.93,41,Scattered Storms,Scattered Storms,1015.7,29.99,KVNC
1689256800,2023-07-13T10:00:00-04:00,30.99,87.78,99.91,77.0,71,1016,30.0,SSW,212,4.27,4.27,0.0,0.0,0.0,0.0,0,16.0,9.942,44,Partly Cloudy,Partly Cloudy,1015.3,29.98,KSUA
1689260400,2023-07-13T11:00:00-04:00,31.99,89.58,102.53,77.0,67,1016,30.0,SW,220,5.26,5.26,0.0,0.0,0.0,0.0,0,16.0,9.942,44,Partly Cloudy,Partly Cloudy,1015.3,29.98,KSUA
1689264000,2023-07-13T12:00:00-04:00,32.89,91.2,104.43,76.73,63,1016,30.0,S,182,6.42,6.42,0.32,0.01,0.32,0.01,31,16.0,9.942,45,Chance of Storms,Chance of Storms,1015.3,29.98,KSUA
1689267600,2023-07-13T13:00:00-04:00,32.53,90.55,103.53,76.73,64,1016,30.0,ESE,112,8.43,8.43,0.32,0.01,0.32,0.01,31,16.0,9.942,46,Chance of Storms,Chance of Storms,1015.3,29.98,KSUA
1689271200,2023-07-13T14:00:00-04:00,31.64,88.95,101.27,76.73,67,1016,30.0,E,80,9.55,11.92,0.32,0.01,0.32,0.01,54,16.0,9.942,48,Chance of Storms,Chance of Storms,1015.3,29.98,KSUA
1689274800,2023-07-13T15:00:00-04:00,31.91,89.44,101.14,76.1,65,1015,29.97,E,90,9.86,12.64,2.25,0.09,2.25,0.09,54,16.0,9.942,49,Chance of Storms,Chance of Storms,1014.3,29.95,KSUA
1689278400,2023-07-13T16:00:00-04:00,31.33,88.39,98.62,75.22,65,1014,29.94,ESE,102,9.86,12.64,2.25,0.09,2.25,0.09,54,16.0,9.942,50,Chance of Storms,Chance of Storms,1013.3,29.92,KSUA
1689282000,2023-07-13T17:00:00-04:00,30.8,87.44,96.72,74.7,66,1014,29.94,ESE,110,9.86,12.64,2.25,0.09,2.25,0.09,50,16.0,9.942,52,Chance of Storms,Chance of Storms,1013.3,29.92,KSUA
1689285600,2023-07-13T18:00:00-04:00,30.62,87.12,96.27,74.7,67,1014,29.94,ESE,120,9.73,12.1,2.25,0.09,2.25,0.09,50,16.0,9.942,53,Chance of Storms,Chance of Storms,1013.3,29.92,KSUA
1689289200,2023-07-13T19:00:00-04:00,29.78,85.6,93.91,74.48,69,1014,29.94,SE,140,8.61,8.61,2.25,0.09,2.25,0.09,50,16.0,9.942,54,Chance of Storms,Chance of Storms,1013.3,29.92,KSUA
1689292800,2023-07-13T20:00:00-04:00,28.87,83.97,91.9,74.98,74,1014,29.94,SSE,150,7.83,7.83,2.25,0.09,2.25,0.09,29,16.0,9.942,55,Chance of Storms,Chance of Storms,1013.3,29.92,KSUA
1689296400,2023-07-13T21:00:00-04:00,27.34,81.21,86.93,74.48,80,1015,29.97,SSE,160,6.71,6.71,0.17,0.01,0.17,0.01,29,15.971,9.924,50,Chance of Storms,Chance of Storms,1014.3,29.95,KSUA
1689300000,2023-07-13T22:00:00-04:00,27.17,80.91,86.32,74.35,81,1016,30.0,S,182,5.59,5.59,0.17,0.01,0.17,0.01,29,15.972,9.925,45,Chance of Storms,Chance of Storms,1015.3,29.98,KSUA
1689303600,2023-07-13T23:00:00-04:00,26.67,80.01,84.64,74.35,83,1016,30.0,SSW,193,5.59,5.59,0.17,0.01,0.17,0.01,21,15.986,9.933,40,Isolated Storms,Isolated Storms,1015.3,29.98,KSUA
1689307200,2023-07-14T00:00:00-04:00,26.57,79.83,79.83,74.21,83,1016,30.0,SSW,197,4.47,4.47,0.17,0.01,0.17,0.01,21,16.0,9.942,36,Isolated Storms,Isolated Storms,1015.3,29.98,KSUA
1689310800,2023-07-14T01:00:00-04:00,26.1,78.98,78.98,73.31,83,1015,29.97,SSW,197,4.47,4.47,0.17,0.01,0.17,0.01,21,16.0,9.942,32,Isolated Storms,Isolated Storms,1014.3,29.95,KSUA
1689314400,2023-07-14T02:00:00-04:00,26.1,78.98,78.98,73.31,83,1015,29.97,SSW,197,4.47,4.47,0.17,0.01,0.17,0.01,15,15.985,9.933,28,Isolated Storms,Isolated Storms,1014.3,29.95,KSUA
1689318000,2023-07-14T03:00:00-04:00,25.6,78.08,78.08,73.31,85,1014,29.94,SSW,197,3.69,3.69,0.0,0.0,0.0,0.0,0,15.974,9.926,25,Mostly Clear,Mostly Clear,1013.3,29.92,KSUA
1689321600,2023-07-14T04:00:00-04:00,25.54,77.97,77.97,73.08,85,1014,29.94,S,190,3.56,3.56,0.0,0.0,0.0,0.0,0,15.964,9.919,22,Mostly Clear,Mostly Clear,1013.3,29.92,KSUA
1689325200,2023-07-14T05:00:00-04:00,25.52,77.94,77.94,73.08,85,1014,29.94,S,190,3.36,3.36,0.0,0.0,0.0,0.0,0,15.9,9.88,20,Mostly Clear,Mostly Clear,1013.3,29.92,KSUA
1689328800,2023-07-14T06:00:00-04:00,25.41,77.74,77.74,73.31,86,1015,29.97,SSW,200,3.36,3.36,0.0,0.0,0.0,0.0,0,15.968,9.922,22,Mostly Clear,Mostly Clear,1014.3,29.95,KSUA
1689332400,2023-07-14T07:00:00-04:00,25.41,77.74,77.74,74.44,90,1015,29.97,SSW,207,3.36,3.36,0.0,0.0,0.0,0.0,0,15.968,9.922,25,Mostly Sunny,Mostly Sunny,1014.3,29.95,KSUA
1689336000,2023-07-14T08:00:00-04:00,27.11,80.8,86.29,74.7,82,1015,29.97,SSW,210,3.36,3.36,0.0,0.0,0.0,0.0,0,15.968,9.922,32,Partly Cloudy,Partly Cloudy,1014.3,29.95,KSUA
1689339600,2023-07-14T09:00:00-04:00,29.87,85.77,94.46,74.8,70,1016,30.0,S,190,4.47,4.47,0.04,0.0,0.04,0.0,66,15.966,9.921,31,Isolated Storms,Isolated Storms,1015.3,29.98,KSUA
1689256800,2023-07-13T10:00:00-04:00,31.63,88.93,103.1,78.08,70,1016,30.0,WSW,240,4.21,4.21,0.0,0.0,0.0,0.0,0,16.0,9.942,36,Partly Cloudy,Partly Cloudy,1015.1,29.98,KOBE
1689260400,2023-07-13T11:00:00-04:00,33.22,91.8,107.24,78.08,64,1016,30.0,SW,230,4.47,4.47,0.0,0.0,0.0,0.0,0,16.0,9.942,36,Partly Cloudy,Partly Cloudy,1015.1,29.98,KOBE
1689264000,2023-07-13T12:00:00-04:00,33.8,92.84,108.7,78.08,62,1016,30.0,SW,219,5.32,5.32,0.0,0.0,0.0,0.0,0,15.964,9.919,40,Partly Cloudy,Partly Cloudy,1015.1,29.98,KOBE
1689267600,2023-07-13T13:00:00-04:00,33.97,93.15,109.12,78.08,62,1016,30.0,SSW,199,5.59,5.59,0.0,0.0,0.0,0.0,0,16.0,9.942,45,Partly Cloudy,Partly Cloudy,1015.1,29.98,KOBE
1689271200,2023-07-13T14:00:00-04:00,33.97,93.15,109.12,78.08,62,1015,29.97,S,189,5.59,5.59,0.0,0.0,0.0,0.0,0,16.0,9.942,49,Partly Cloudy,Partly Cloudy,1014.1,29.95,KOBE
1689274800,2023-07-13T15:00:00-04:00,34.5,94.1,108.76,77.0,58,1015,29.97,S,170,6.58,6.58,3.12,0.12,3.12,0.12,52,16.0,9.942,53,Chance of Storms,Chance of Storms,1014.1,29.95,KOBE
1689278400,2023-07-13T16:00:00-04:00,33.42,92.16,106.12,77.0,61,1014,29.94,SE,131,6.71,6.71,3.12,0.12,3.12,0.12,52,16.0,9.942,58,Chance of Storms,Chance of Storms,1013.1,29.92,KOBE
1689282000,2023-07-13T17:00:00-04:00,32.08,89.74,102.62,76.89,66,1013,29.91,ESE,120,7.56,7.56,3.12,0.12,3.12,0.12,69,16.0,9.942,62,Scattered Storms,Scattered Storms,1012.1,29.89,KOBE
1689285600,2023-07-13T18:00:00-04:00,30.0,86.0,96.15,76.1,72,1013,29.91,ESE,121,7.56,7.56,3.12,0.12,3.12,0.12,69,16.0,9.942,65,Scattered Storms,Scattered Storms,1012.1,29.89,KOBE
1689289200,2023-07-13T19:00:00-04:00,28.76,83.77,92.55,76.08,78,1014,29.94,SE,131,6.71,6.71,3.12,0.12,3.12,0.12,69,16.0,9.942,68,Scattered Storms,Scattered Storms,1013.1,29.92,KOBE
1689292800,2023-07-13T20:00:00-04:00,27.58,81.64,88.52,75.79,82,1014,29.94,SE,141,6.71,6.71,3.12,0.12,3.12,0.12,41,15.775,9.802,71,Chance of Storms,Chance of Storms,1013.1,29.92,KOBE
1689296400,2023-07-13T21:00:00-04:00,26.2,79.16,79.16,75.79,89,1015,29.97,SSE,150,5.59,5.59,0.04,0.0,0.04,0.0,41,15.715,9.765,64,Chance of Storms,Chance of Storms,1014.1,29.95,KOBE
1689300000,2023-07-13T22:00:00-04:00,25.6,78.08,78.08,75.79,93,1016,30.0,S,170,5.59,5.59,0.04,0.0,0.04,0.0,41,16.0,9.942,56,Chance of Storms,Chance of Storms,1015.1,29.98,KOBE
1689303600,2023-07-13T23:00:00-04:00,25.6,78.08,78.08,75.79,93,1016,30.0,S,180,5.59,5.59,0.04,0.0,0.04,0.0,19,16.0,9.942,49,Isolated Storms,Isolated Storms,1015.1,29.98,KOBE
1689307200,2023-07-14T00:00:00-04:00,24.88,76.78,76.78,75.79,97,1016,30.0,S,180,4.47,4.47,0.04,0.0,0.04,0.0,19,16.0,9.942,43,Isolated Storms,Isolated Storms,1015.1,29.98,KOBE
1689310800,2023-07-14T01:00:00-04:00,24.88,76.78,76.78,75.79,97,1016,30.0,S,172,4.47,4.47,0.04,0.0,0.04,0.0,19,16.0,9.942,36,Isolated Storms,Isolated Storms,1015.1,29.98,KOBE
1689314400,2023-07-14T02:00:00-04:00,24.88,76.78,76.78,74.84,94,1015,29.97,S,172,4.47,4.47,0.0,0.0,0.0,0.0,0,16.0,9.942,29,Mostly Clear,Mostly Clear,1014.1,29.95,KOBE
1689318000,2023-07-14T03:00:00-04:00,24.33,75.79,75.79,74.84,97,1014,29.94,S,172,4.47,4.47,0.0,0.0,0.0,0.0,0,16.0,9.942,27,Mostly Clear,Mostly Clear,1013.1,29.92,KOBE
1689321600,2023-07-14T04:00:00-04:00,24.33,75.79,75.79,74.75,97,1014,29.94,S,171,4.47,4.47,0.0,0.0,0.0,0.0,0,16.0,9.942,25,Mostly Clear,Mostly Clear,1013.1,29.92,KOBE
1689325200,2023-07-14T05:00:00-04:00,23.8,74.84,74.84,74.66,99,1014,29.94,S,171,4.47,4.47,0.0,0.0,0.0,0.0,0,16.0,9.942,22,Mostly Clear,Mostly Clear,1013.1,29.92,KOBE
1689328800,2023-07-14T06:00:00-04:00,24.33,75.79,75.79,75.72,100,1015,29.97,S,180,3.6,3.6,0.0,0.0,0.0,0.0,0,16.0,9.942,25,Mostly Clear,Mostly Clear,1014.1,29.95,KOBE
1689332400,2023-07-14T07:00:00-04:00,24.71,76.48,76.48,76.48,100,1015,29.97,S,180,3.36,3.36,0.0,0.0,0.0,0.0,0,16.0,9.942,27,Mostly Sunny,Mostly Sunny,1014.1,29.95,KOBE
1689336000,2023-07-14T08:00:00-04:00,26.51,79.72,79.72,77.47,93,1015,29.97,S,190,3.36,3.36,0.0,0.0,0.0,0.0,0,16.0,9.942,32,Partly Cloudy,Partly Cloudy,1014.1,29.95,KOBE
1689339600,2023-07-14T09:00:00-04:00,29.64,85.35,99.61,79.84,84,1016,30.0,S,188,4.47,4.47,0.04,0.0,0.04,0.0,79,16.0,9.942,30,Isolated Storms,Isolated Storms,1015.1,29.98,KOBE
1689256800,2023-07-13T10:00:00-04:00,31.2,88.16,100.47,77.0,70,1016,30.0,N,6,4.47,5.59,0.0,0.0,0.0,0.0,0,16.0,9.942,20,Mostly Sunny,Mostly Sunny,1015.4,29.99,KSRQ
1689260400,2023-07-13T11:00:00-04:00,31.99,89.58,101.83,76.48,65,1016,30.0,WNW,292,5.59,6.06,0.0,0.0,0.0,0.0,0,16.0,9.942,20,Mostly Sunny,Mostly Sunny,1015.4,29.99,KSRQ
1689264000,2023-07-13T12:00:00-04:00,33.04,91.47,104.45,76.48,62,1016,30.0,W,270,7.18,8.3,0.04,0.0,0.04,0.0,20,16.0,9.942,29,Isolated Storms,Isolated Storms,1015.4,29.99,KSRQ
1689267600,2023-07-13T13:00:00-04:00,33.3,91.94,105.09,76.48,61,1016,30.0,W,280,9.42,10.54,0.04,0.0,0.04,0.0,26,16.0,9.942,28,Scattered Storms,Scattered Storms,1015.4,29.99,KSRQ
1689271200,2023-07-13T14:00:00-04:00,33.34,92.01,105.18,76.48,61,1015,29.97,W,280,10.07,12.12,0.04,0.0,0.04,0.0,33,16.0,9.942,38,Scattered Storms,Scattered Storms,1014.4,29.96,KSRQ
1689274800,2023-07-13T15:00:00-04:00,33.99,93.18,104.56,74.84,55,1015,29.97,W,280,11.16,13.4,0.04,0.0,0.04,0.0,32,16.0,9.942,43,Scattered Storms,Scattered Storms,1014.4,29.96,KSRQ
1689278400,2023-07-13T16:00:00-04:00,33.05,91.49,103.96,76.1,61,1014,29.94,W,280,11.16,13.89,0.04,0.0,0.04,0.0,32,16.0,9.942,32,Scattered Storms,Scattered Storms,1013.4,29.93,KSRQ
1689282000,2023-07-13T17:00:00-04:00,32.71,90.88,103.13,76.1,62,1014,29.94,WNW,290,11.65,13.89,0.04,0.0,0.04,0.0,32,16.0,9.942,40,Scattered Storms,Scattered Storms,1013.4,29.93,KSRQ
1689285600,2023-07-13T18:00:00-04:00,32.2,89.96,101.87,76.1,64,1014,29.94,WNW,290,10.54,13.42,0.04,0.0,0.04,0.0,31,16.0,9.942,40,Scattered Storms,Scattered Storms,1013.4,29.93,KSRQ
1689289200,2023-07-13T19:00:00-04:00,31.2,88.16,99.34,76.1,68,1013,29.91,WNW,290,10.04,12.77,0.04,0.0,0.04,0.0,30,16.0,9.942,49,Scattered Storms,Scattered Storms,1012.4,29.9,KSRQ
1689292800,2023-07-13T20:00:00-04:00,30.0,86.0,96.57,76.48,73,1014,29.94,NW,304,8.93,11.18,0.04,0.0,0.04,0.0,29,16.0,9.942,41,Scattered Storms,Scattered Storms,1013.4,29.93,KSRQ
1689296400,2023-07-13T21:00:00-04:00,29.5,85.1,95.27,76.6,76,1014,29.94,NW,316,6.71,10.54,0.04,0.0,0.04,0.0,26,16.0,9.942,58,Scattered Storms,Scattered Storms,1013.4,29.93,KSRQ
1689300000,2023-07-13T22:00:00-04:00,28.8,83.84,92.67,76.08,78,1015,29.97,NNW,330,5.59,9.42,0.04,0.0,0.04,0.0,23,16.0,9.942,58,Isolated Storms,Isolated Storms,1014.4,29.96,KSRQ
1689303600,2023-07-13T23:00:00-04:00,28.57,83.43,91.96,76.08,79,1015,29.97,NNW,344,5.59,7.67,0.04,0.0,0.04,0.0,20,16.0,9.942,59,Isolated Storms,Isolated Storms,1014.4,29.96,KSRQ
1689307200,2023-07-14T00:00:00-04:00,28.4,83.12,91.43,76.08,79,1015,29.97,NE,41,4.97,7.2,0.04,0.0,0.04,0.0,15,16.0,9.942,42,Isolated Storms,Isolated Storms,1014.4,29.96,KSRQ
1689310800,2023-07-14T01:00:00-04:00,28.0,82.4,89.76,75.58,80,1015,29.97,NE,56,4.97,7.18,0.0,0.0,0.0,0.0,0,15.833,9.838,43,Partly Cloudy,Partly Cloudy,1014.4,29.96,KSRQ
1689314400,2023-07-14T02:00:00-04:00,27.2,80.96,87.06,75.56,84,1015,29.97,E,96,5.59,7.18,0.0,0.0,0.0,0.0,0,15.84,9.842,49,Partly Cloudy,Partly Cloudy,1014.4,29.96,KSRQ
1689318000,2023-07-14T03:00:00-04:00,27.12,80.82,86.79,75.58,84,1014,29.94,ESE,120,5.59,7.83,0.0,0.0,0.0,0.0,0,15.84,9.842,31,Mostly Clear,Mostly Clear,1013.4,29.93,KSRQ
1689321600,2023-07-14T04:00:00-04:00,26.91,80.44,86.02,75.56,85,1014,29.94,SE,124,4.94,7.18,0.0,0.0,0.0,0.0,0,15.84,9.842,18,Mostly Clear,Mostly Clear,1013.4,29.93,KSRQ
1689325200,2023-07-14T05:00:00-04:00,26.41,79.54,79.54,75.25,87,1014,29.94,ESE,120,4.94,6.71,0.0,0.0,0.0,0.0,0,15.84,9.842,21,Mostly Clear,Mostly Clear,1013.4,29.93,KSRQ
1689328800,2023-07-14T06:00:00-04:00,26.41,79.54,79.54,75.56,88,1014,29.94,ESE,114,4.94,6.71,0.0,0.0,0.0,0.0,0,15.825,9.833,20,Mostly Clear,Mostly Clear,1013.4,29.93,KSRQ
1689332400,2023-07-14T07:00:00-04:00,26.41,79.54,79.54,75.56,88,1015,29.97,ESE,120,5.57,7.18,0.04,0.0,0.04,0.0,27,15.776,9.802,25,Scattered Storms,Scattered Storms,1014.4,29.96,KSRQ
1689336000,2023-07-14T08:00:00-04:00,27.41,81.34,89.44,78.06,90,1015,29.97,ESE,114,4.47,6.71,0.04,0.0,0.04,0.0,34,15.834,9.839,24,Scattered Storms,Scattered Storms,1014.4,29.96,KSRQ
1689339600,2023-07-14T09:00:00-04:00,29.1,84.38,94.95,77.45,80,1016,30.0,SE,144,4.94,6.71,0.07,0.0,0.07,0.0,34,15.826,9.834,19,Scattered Storms,Scattered Storms,1015.4,29.99,KSRQ
1689256800,2023-07-13T10:00:00-04:00,30.6,87.08,98.35,76.59,71,1016,30.0,SW,230,4.47,4.47,0.0,0.0,0.0,0.0,0,16.0,9.942,39,Partly Cloudy,Partly Cloudy,1015.3,29.98,KFPR
1689260400,2023-07-13T11:00:00-04:00,32.2,89.96,102.51,76.59,65,1016,30.0,WSW,240,4.52,4.52,0.0,0.0,0.0,0.0,0,16.0,9.942,37,Partly Cloudy,Partly Cloudy,1015.3,29.98,KFPR
1689264000,2023-07-13T12:00:00-04:00,32.8,91.04,104.01,76.59,63,1016,30.0,SSW,200,5.59,5.59,0.22,0.01,0.22,0.01,29,16.0,9.942,40,Chance of Storms,Chance of Storms,1015.3,29.98,KFPR
1689267600,2023-07-13T13:00:00-04:00,32.99,91.38,104.47,76.59,62,1016,30.0,SE,130,6.71,6.71,0.22,0.01,0.22,0.01,29,16.0,9.942,43,Chance of Storms,Chance of Storms,1015.3,29.98,KFPR
1689271200,2023-07-13T14:00:00-04:00,32.47,90.45,103.18,76.59,64,1016,30.0,E,100,7.83,7.83,0.22,0.01,0.22,0.01,56,16.0,9.942,46,Scattered Storms,Scattered Storms,1015.3,29.98,KFPR
1689274800,2023-07-13T15:00:00-04:00,32.44,90.39,103.11,76.59,64,1015,29.97,E,100,8.9,8.9,2.92,0.11,2.92,0.11,56,16.0,9.942,47,Scattered Storms,Scattered Storms,1014.3,29.95,KFPR
1689278400,2023-07-13T16:00:00-04:00,31.96,89.53,101.9,76.59,66,1014,29.94,ESE,110,9.46,10.96,2.92,0.11,2.92,0.11,56,16.0,9.942,47,Scattered Storms,Scattered Storms,1013.3,29.92,KFPR
1689282000,2023-07-13T17:00:00-04:00,31.2,88.16,99.94,76.59,69,1014,29.94,ESE,110,10.02,13.24,2.92,0.11,2.92,0.11,51,16.0,9.942,47,Chance of Storms,Chance of Storms,1013.3,29.92,KFPR
1689285600,2023-07-13T18:00:00-04:00,30.29,86.52,97.5,76.59,72,1014,29.94,ESE,120,9.46,10.96,2.92,0.11,2.92,0.11,51,16.0,9.942,51,Chance of Storms,Chance of Storms,1013.3,29.92,KFPR
1689289200,2023-07-13T19:00:00-04:00,29.45,85.01,95.09,76.57,76,1014,29.94,SE,140,8.86,8.86,2.92,0.11,2.92,0.11,51,16.0,9.942,54,Chance of Storms,Chance of Storms,1013.3,29.92,KFPR
1689292800,2023-07-13T20:00:00-04:00,27.81,82.06,89.86,76.57,84,1014,29.94,SSE,150,7.74,7.74,2.92,0.11,2.92,0.11,29,16.0,9.942,58,Chance of Storms,Chance of Storms,1013.3,29.92,KFPR
1689296400,2023-07-13T21:00:00-04:00,26.97,80.55,86.22,75.52,85,1014,29.94,SSE,160,6.71,6.71,0.07,0.0,0.07,0.0,29,15.81,9.824,51,Chance of Storms,Chance of Storms,1013.3,29.92,KFPR
1689300000,2023-07-13T22:00:00-04:00,26.46,79.63,79.63,75.52,87,1016,30.0,S,185,6.13,6.13,0.07,0.0,0.07,0.0,29,15.84,9.843,45,Chance of Storms,Chance of Storms,1015.3,29.98,KFPR
1689303600,2023-07-13T23:00:00-04:00,26.16,79.09,79.09,75.49,89,1016,30.0,SSW,200,5.59,5.59,0.07,0.0,0.07,0.0,21,15.869,9.86,39,Isolated Storms,Isolated Storms,1015.3,29.98,KFPR
1689307200,2023-07-14T00:00:00-04:00,25.6,78.08,78.08,74.52,89,1016,30.0,SSW,200,4.52,4.52,0.07,0.0,0.07,0.0,21,15.998,9.941,35,Isolated Storms,Isolated Storms,1015.3,29.98,KFPR
1689310800,2023-07-14T01:00:00-04:00,25.29,77.52,77.52,74.52,90,1016,30.0,S,190,4.47,4.47,0.07,0.0,0.07,0.0,21,16.0,9.942,31,Isolated Storms,Isolated Storms,1015.3,29.98,KFPR
1689314400,2023-07-14T02:00:00-04:00,25.0,77.0,77.0,74.14,91,1015,29.97,S,190,4.47,4.47,0.0,0.0,0.0,0.0,0,15.887,9.872,26,Mostly Clear,Mostly Clear,1014.3,29.95,KFPR
1689318000,2023-07-14T03:00:00-04:00,24.74,76.53,76.53,74.14,92,1014,29.94,S,190,4.43,4.43,0.0,0.0,0.0,0.0,0,15.87,9.861,26,Mostly Clear,Mostly Clear,1013.3,29.92,KFPR
1689321600,2023-07-14T04:00:00-04:00,24.5,76.1,76.1,74.12,94,1014,29.94,SSW,195,4.43,4.43,0.0,0.0,0.0,0.0,0,15.866,9.859,25,Mostly Clear,Mostly Clear,1013.3,29.92,KFPR
1689325200,2023-07-14T05:00:00-04:00,24.45,76.01,76.01,72.91,90,1014,29.94,SSW,195,4.43,4.43,0.0,0.0,0.0,0.0,0,15.846,9.846,24,Mostly Clear,Mostly Clear,1013.3,29.92,KFPR
1689328800,2023-07-14T06:00:00-04:00,24.13,75.43,75.43,74.14,96,1015,29.97,SSW,200,4.43,4.43,0.0,0.0,0.0,0.0,0,15.846,9.846,25,Mostly Clear,Mostly Clear,1014.3,29.95,KFPR
1689332400,2023-07-14T07:00:00-04:00,24.13,75.43,75.43,74.84,98,1015,29.97,SSW,210,3.87,3.87,0.0,0.0,0.0,0.0,0,15.87,9.861,26,Mostly Sunny,Mostly Sunny,1014.3,29.95,KFPR
1689336000,2023-07-14T08:00:00-04:00,26.66,79.99,79.99,76.14,88,1015,29.97,SSW,210,3.87,3.87,0.0,0.0,0.0,0.0,0,15.87,9.861,29,Mostly Sunny,Mostly Sunny,1014.3,29.95,KFPR
1689339600,2023-07-14T09:00:00-04:00,29.69,85.44,96.26,77.0,76,1016,30.0,S,190,5.06,5.06,0.04,0.0,0.04,0.0,64,15.87,9.861,29,Isolated Storms,Isolated Storms,1015.3,29.98,KFPR
1689256800,2023-07-13T10:00:00-04:00,30.97,87.75,99.18,76.46,69,1016,30.0,SW,234,4.47,4.47,0.0,0.0,0.0,0.0,0,16.0,9.942,36,Partly Cloudy,Partly Cloudy,1015.5,29.99,KVRB
1689260400,2023-07-13T11:00:00-04:00,32.01,89.62,101.86,76.46,65,1016,30.0,WSW,240,5.59,5.59,0.0,0.0,0.0,0.0,0,16.0,9.942,34,Partly Cloudy,Partly Cloudy,1015.5,29.99,KVRB
1689264000,2023-07-13T12:00:00-04:00,33.07,91.53,104.5,76.46,62,1016,30.0,SSW,200,6.71,6.71,0.37,0.01,0.37,0.01,29,16.0,9.942,38,Chance of Storms,Chance of Storms,1015.5,29.99,KVRB
1689267600,2023-07-13T13:00:00-04:00,32.7,90.86,103.59,76.46,63,1016,30.0,SE,124,7.83,7.83,0.37,0.01,0.37,0.01,29,16.0,9.942,42,Chance of Storms,Chance of Storms,1015.5,29.99,KVRB
1689271200,2023-07-13T14:00:00-04:00,33.07,91.53,104.5,76.46,62,1015,29.97,E,84,8.95,8.95,0.37,0.01,0.37,0.01,55,16.0,9.942,46,Scattered Storms,Scattered Storms,1014.5,29.96,KVRB
1689274800,2023-07-13T15:00:00-04:00,32.51,90.52,103.11,76.46,64,1015,29.97,E,90,9.62,11.68,1.04,0.04,1.04,0.04,55,16.0,9.942,45,Scattered Storms,Scattered Storms,1014.5,29.96,KVRB
1689278400,2023-07-13T16:00:00-04:00,31.51,88.72,100.59,76.46,67,1014,29.94,E,100,9.62,11.68,1.04,0.04,1.04,0.04,55,16.0,9.942,45,Scattered Storms,Scattered Storms,1013.5,29.93,KVRB
1689282000,2023-07-13T17:00:00-04:00,31.51,88.72,100.59,76.46,67,1014,29.94,E,100,9.62,11.68,1.04,0.04,1.04,0.04,50,16.0,9.942,44,Chance of Storms,Chance of Storms,1013.5,29.93,KVRB
1689285600,2023-07-13T18:00:00-04:00,30.37,86.67,97.57,76.46,72,1014,29.94,ESE,120,9.62,11.68,1.04,0.04,1.04,0.04,50,16.0,9.942,48,Chance of Storms,Chance of Storms,1013.5,29.93,KVRB
1689289200,2023-07-13T19:00:00-04:00,29.07,84.33,93.49,76.1,76,1014,29.94,SE,140,8.95,8.95,1.04,0.04,1.04,0.04,50,16.0,9.942,51,Chance of Storms,Chance of Storms,1013.5,29.93,KVRB
1689292800,2023-07-13T20:00:00-04:00,27.51,81.52,88.48,76.1,84,1014,29.94,SSE,150,7.83,7.83,1.04,0.04,1.04,0.04,29,16.0,9.942,55,Chance of Storms,Chance of Storms,1013.5,29.93,KVRB
1689296400,2023-07-13T21:00:00-04:00,27.0,80.6,86.62,76.1,86,1014,29.94,SSE,160,6.71,6.71,0.14,0.01,0.14,0.01,29,16.0,9.942,49,Chance of Storms,Chance of Storms,1013.5,29.93,KVRB
1689300000,2023-07-13T22:00:00-04:00,26.51,79.72,79.72,74.84,85,1015,29.97,S,180,6.71,6.71,0.14,0.01,0.14,0.01,29,16.0,9.942,44,Chance of Storms,Chance of Storms,1014.5,29.96,KVRB
1689303600,2023-07-13T23:00:00-04:00,25.6,78.08,78.08,74.84,90,1016,30.0,S,190,5.59,5.59,0.14,0.01,0.14,0.01,21,16.0,9.942,38,Isolated Storms,Isolated Storms,1015.5,29.99,KVRB
1689307200,2023-07-14T00:00:00-04:00,25.6,78.08,78.08,74.84,90,1016,30.0,SSW,200,5.59,5.59,0.14,0.01,0.14,0.01,21,16.0,9.942,36,Isolated Storms,Isolated Storms,1015.5,29.99,KVRB
1689310800,2023-07-14T01:00:00-04:00,25.0,77.0,77.0,74.12,91,1016,30.0,SSW,200,4.47,4.47,0.14,0.01,0.14,0.01,21,16.0,9.942,33,Isolated Storms,Isolated Storms,1015.5,29.99,KVRB
1689314400,2023-07-14T02:00:00-04:00,25.0,77.0,77.0,74.12,91,1015,29.97,SSW,200,4.47,4.47,0.0,0.0,0.0,0.0,0,16.0,9.942,30,Mostly Clear,Mostly Clear,1014.5,29.96,KVRB
1689318000,2023-07-14T03:00:00-04:00,24.23,75.61,75.61,74.12,95,1014,29.94,SSW,200,4.47,4.47,0.0,0.0,0.0,0.0,0,16.0,9.942,29,Mostly Clear,Mostly Clear,1013.5,29.93,KVRB
1689321600,2023-07-14T04:00:00-04:00,24.5,76.1,76.1,74.12,94,1014,29.94,SSW,200,4.47,4.47,0.0,0.0,0.0,0.0,0,16.0,9.942,28,Mostly Clear,Mostly Clear,1013.5,29.93,KVRB
1689325200,2023-07-14T05:00:00-04:00,24.23,75.61,75.61,72.86,91,1014,29.94,SSW,196,4.47,4.47,0.0,0.0,0.0,0.0,0,16.0,9.942,26,Mostly Clear,Mostly Clear,1013.5,29.93,KVRB
1689328800,2023-07-14T06:00:00-04:00,23.8,74.84,74.84,74.12,98,1015,29.97,SSW,200,4.47,4.47,0.0,0.0,0.0,0.0,0,16.0,9.942,27,Mostly Clear,Mostly Clear,1014.5,29.96,KVRB
1689332400,2023-07-14T07:00:00-04:00,23.8,74.84,74.84,74.41,99,1015,29.97,SSW,210,4.47,4.47,0.0,0.0,0.0,0.0,0,16.0,9.942,28,Mostly Sunny,Mostly Sunny,1014.5,29.96,KVRB
1689336000,2023-07-14T08:00:00-04:00,26.2,79.16,79.16,75.33,88,1015,29.97,SW,220,4.47,4.47,0.0,0.0,0.0,0.0,0,16.0,9.942,29,Mostly Sunny,Mostly Sunny,1014.5,29.96,KVRB
1689339600,2023-07-14T09:00:00-04:00,28.8,83.84,92.31,75.69,77,1016,30.0,S,190,4.92,4.92,0.04,0.0,0.04,0.0,62,16.0,9.942,30,Isolated Storms,Isolated Storms,1015.5,29.99,KVRB
1689256800,2023-07-13T10:00:00-04:00,30.1,86.18,98.54,77.9,76,1017,30.03,NW,312,3.36,3.36,0.0,0.0,0.0,0.0,0,16.0,9.942,29,Mostly Sunny,Mostly Sunny,1016.3,30.01,KMLB
1689260400,2023-07-13T11:00:00-04:00,31.63,88.93,103.02,78.03,70,1017,30.03,NW,326,4.47,4.47,0.0,0.0,0.0,0.0,0,16.0,9.942,26,Mostly Sunny,Mostly Sunny,1016.3,30.01,KMLB
1689264000,2023-07-13T12:00:00-04:00,32.09,89.76,104.06,77.9,68,1016,30.0,W,279,5.82,5.82,0.12,0.0,0.12,0.0,20,16.0,9.942,32,Isolated Storms,Isolated Storms,1015.3,29.98,KMLB
1689267600,2023-07-13T13:00:00-04:00,32.68,90.82,105.56,77.88,66,1016,30.0,ENE,60,7.83,7.83,0.12,0.0,0.12,0.0,20,16.0,9.942,38,Isolated Storms,Isolated Storms,1015.3,29.98,KMLB
1689271200,2023-07-13T14:00:00-04:00,32.52,90.54,103.93,77.04,65,1015,29.97,E,90,8.95,8.95,0.12,0.0,0.12,0.0,54,16.0,9.942,44,Chance of Storms,Chance of Storms,1014.3,29.95,KMLB
1689274800,2023-07-13T15:00:00-04:00,32.18,89.92,103.07,77.04,66,1015,29.97,E,90,9.17,9.8,1.09,0.04,1.09,0.04,54,16.0,9.942,43,Chance of Storms,Chance of Storms,1014.3,29.95,KMLB
1689278400,2023-07-13T16:00:00-04:00,32.09,89.76,102.84,77.04,66,1014,29.94,E,100,9.95,12.93,1.09,0.04,1.09,0.04,54,16.0,9.942,42,Chance of Storms,Chance of Storms,1013.3,29.92,KMLB
1689282000,2023-07-13T17:00:00-04:00,31.7,89.06,101.83,77.04,68,1014,29.94,ESE,110,9.91,12.8,1.09,0.04,1.09,0.04,50,16.0,9.942,41,Chance of Storms,Chance of Storms,1013.3,29.92,KMLB
1689285600,2023-07-13T18:00:00-04:00,30.08,86.14,97.44,77.04,74,1014,29.94,ESE,111,8.95,8.95,1.09,0.04,1.09,0.04,50,16.0,9.942,45,Chance of Storms,Chance of Storms,1013.3,29.92,KMLB
1689289200,2023-07-13T19:00:00-04:00,28.88,83.98,93.65,76.86,79,1014,29.94,SE,130,8.05,8.05,1.09,0.04,1.09,0.04,50,15.992,9.937,49,Chance of Storms,Chance of Storms,1013.3,29.92,KMLB
1689292800,2023-07-13T20:00:00-04:00,28.32,82.98,91.83,76.86,82,1014,29.94,SE,130,6.93,6.93,1.09,0.04,1.09,0.04,35,16.0,9.942,53,Chance of Storms,Chance of Storms,1013.3,29.92,KMLB
1689296400,2023-07-13T21:00:00-04:00,27.2,80.96,87.79,76.82,87,1015,29.97,SSE,150,6.93,6.93,0.15,0.01,0.15,0.01,35,15.994,9.938,49,Chance of Storms,Chance of Storms,1014.3,29.95,KMLB
1689300000,2023-07-13T22:00:00-04:00,26.62,79.92,79.92,76.14,88,1015,29.97,S,190,5.97,5.97,0.15,0.01,0.15,0.01,35,15.735,9.777,45,Chance of Storms,Chance of Storms,1014.3,29.95,KMLB
1689303600,2023-07-13T23:00:00-04:00,25.83,78.49,78.49,75.87,92,1016,30.0,SSW,210,5.97,5.97,0.15,0.01,0.15,0.01,21,15.846,9.846,41,Isolated Storms,Isolated Storms,1015.3,29.98,KMLB
1689307200,2023-07-14T00:00:00-04:00,25.7,78.26,78.26,75.02,90,1016,30.0,SSW,210,5.59,5.59,0.15,0.01,0.15,0.01,21,15.992,9.937,39,Isolated Storms,Isolated Storms,1015.3,29.98,KMLB
1689310800,2023-07-14T01:00:00-04:00,25.23,77.41,77.41,74.88,92,1015,29.97,SSW,200,5.59,5.59,0.15,0.01,0.15,0.01,21,15.994,9.938,37,Isolated Storms,Isolated Storms,1014.3,29.95,KMLB
1689314400,2023-07-14T02:00:00-04:00,24.73,76.51,76.51,74.17,92,1015,29.97,SSW,200,4.72,4.72,0.0,0.0,0.0,0.0,0,15.98,9.929,35,Partly Cloudy,Partly Cloudy,1014.3,29.95,KMLB
1689318000,2023-07-14T03:00:00-04:00,24.69,76.44,76.44,74.17,93,1014,29.94,SSW,200,4.72,4.72,0.0,0.0,0.0,0.0,0,15.915,9.889,33,Partly Cloudy,Partly Cloudy,1013.3,29.92,KMLB
1689321600,2023-07-14T04:00:00-04:00,24.57,76.23,76.23,74.14,93,1014,29.94,SSW,200,4.52,4.52,0.0,0.0,0.0,0.0,0,15.9,9.88,30,Mostly Clear,Mostly Clear,1013.3,29.92,KMLB
1689325200,2023-07-14T05:00:00-04:00,24.1,75.38,75.38,74.14,96,1014,29.94,SSW,210,4.52,4.52,0.0,0.0,0.0,0.0,0,15.849,9.848,27,Mostly Clear,Mostly Clear,1013.3,29.92,KMLB
1689328800,2023-07-14T06:00:00-04:00,24.03,75.25,75.25,74.35,97,1015,29.97,SSW,210,4.52,4.52,0.0,0.0,0.0,0.0,0,15.849,9.848,29,Mostly Clear,Mostly Clear,1014.3,29.95,KMLB
1689332400,2023-07-14T07:00:00-04:00,24.03,75.25,75.25,74.88,99,1015,29.97,SW,220,4.47,4.47,0.0,0.0,0.0,0.0,0,15.815,9.827,32,Partly Cloudy,Partly Cloudy,1014.3,29.95,KMLB
1689336000,2023-07-14T08:00:00-04:00,25.51,77.92,77.92,76.1,94,1015,29.97,SW,220,4.47,4.47,0.0,0.0,0.0,0.0,0,15.88,9.867,33,Partly Cloudy,Partly Cloudy,1014.3,29.95,KMLB
1689339600,2023-07-14T09:00:00-04:00,28.19,82.74,91.17,76.59,82,1016,30.0,SSW,200,5.59,5.59,0.04,0.0,0.04,0.0,65,15.994,9.938,37,Isolated Storms,Isolated Storms,1015.3,29.98,KMLB
1689256800,2023-07-13T10:00:00-04:00,30.53,86.95,98.81,77.13,73,1017,30.03,NW,326,3.36,3.36,0.0,0.0,0.0,0.0,0,16.0,9.942,29,Mostly Sunny,Mostly Sunny,1017.0,30.03,KCOF
1689260400,2023-07-13T11:00:00-04:00,31.2,88.16,101.93,78.08,72,1017,30.03,N,11,4.47,4.47,0.0,0.0,0.0,0.0,0,16.0,9.942,26,Mostly Sunny,Mostly Sunny,1017.0,30.03,KCOF
1689264000,2023-07-13T12:00:00-04:00,32.55,90.59,105.53,78.08,67,1016,30.0,NNE,31,6.64,6.64,0.0,0.0,0.0,0.0,0,16.0,9.942,30,Mostly Sunny,Mostly Sunny,1016.0,30.0,KCOF
1689267600,2023-07-13T13:00:00-04:00,32.62,90.72,105.82,78.15,67,1016,30.0,ENE,71,7.83,7.83,0.0,0.0,0.0,0.0,0,16.0,9.942,34,Partly Cloudy,Partly Cloudy,1016.0,30.0,KCOF
1689271200,2023-07-13T14:00:00-04:00,32.62,90.72,107.4,79.16,69,1015,29.97,E,90,9.93,12.88,0.0,0.0,0.0,0.0,0,16.0,9.942,39,Partly Cloudy,Partly Cloudy,1015.0,29.97,KCOF
1689274800,2023-07-13T15:00:00-04:00,32.56,90.61,107.04,79.03,69,1015,29.97,E,100,10.07,13.42,0.43,0.02,0.43,0.02,46,16.0,9.942,39,Chance of Storms,Chance of Storms,1015.0,29.97,KCOF
1689278400,2023-07-13T16:00:00-04:00,32.62,90.72,107.2,79.03,69,1014,29.94,ESE,109,10.07,13.42,0.43,0.02,0.43,0.02,46,16.0,9.942,39,Chance of Storms,Chance of Storms,1014.0,29.94,KCOF
1689282000,2023-07-13T17:00:00-04:00,32.08,89.74,104.3,78.08,69,1014,29.94,ESE,110,10.07,13.42,0.43,0.02,0.43,0.02,43,16.0,9.942,39,Chance of Storms,Chance of Storms,1014.0,29.94,KCOF
1689285600,2023-07-13T18:00:00-04:00,31.2,88.16,101.93,78.08,72,1014,29.94,ESE,119,9.93,12.88,0.43,0.02,0.43,0.02,43,16.0,9.942,43,Chance of Storms,Chance of Storms,1014.0,29.94,KCOF
1689289200,2023-07-13T19:00:00-04:00,29.53,85.15,97.02,78.08,79,1014,29.94,SE,130,8.81,8.81,0.43,0.02,0.43,0.02,43,15.713,9.764,47,Chance of Storms,Chance of Storms,1014.0,29.94,KCOF
1689292800,2023-07-13T20:00:00-04:00,28.87,83.97,93.88,77.13,80,1014,29.94,SE,139,8.75,8.75,0.43,0.02,0.43,0.02,35,16.0,9.942,51,Chance of Storms,Chance of Storms,1014.0,29.94,KCOF
1689296400,2023-07-13T21:00:00-04:00,27.32,81.18,88.4,77.05,87,1015,29.97,SSE,150,8.75,8.75,0.15,0.01,0.15,0.01,35,15.654,9.727,48,Chance of Storms,Chance of Storms,1015.0,29.97,KCOF
1689300000,2023-07-13T22:00:00-04:00,27.76,81.97,89.46,76.26,83,1015,29.97,S,190,8.84,8.84,0.15,0.01,0.15,0.01,35,15.64,9.718,44,Chance of Storms,Chance of Storms,1015.0,29.97,KCOF
1689303600,2023-07-13T23:00:00-04:00,27.23,81.01,87.51,76.15,85,1016,30.0,SSW,210,8.84,8.84,0.15,0.01,0.15,0.01,21,15.471,9.613,41,Isolated Storms,Isolated Storms,1016.0,30.0,KCOF
1689307200,2023-07-14T00:00:00-04:00,26.35,79.43,79.43,76.15,90,1015,29.97,SSW,210,7.76,7.76,0.15,0.01,0.15,0.01,21,15.638,9.717,39,Isolated Storms,Isolated Storms,1015.0,29.97,KCOF
1689310800,2023-07-14T01:00:00-04:00,26.28,79.3,79.3,76.1,90,1015,29.97,SSW,200,6.64,6.64,0.15,0.01,0.15,0.01,21,15.642,9.719,38,Isolated Storms,Isolated Storms,1015.0,29.97,KCOF
1689314400,2023-07-14T02:00:00-04:00,26.28,79.3,79.3,76.1,90,1015,29.97,SSW,200,6.51,6.51,0.0,0.0,0.0,0.0,0,15.516,9.641,36,Partly Cloudy,Partly Cloudy,1015.0,29.97,KCOF
1689318000,2023-07-14T03:00:00-04:00,25.66,78.19,78.19,76.1,93,1014,29.94,SSW,200,5.53,5.53,0.0,0.0,0.0,0.0,0,15.33,9.526,33,Partly Cloudy,Partly Cloudy,1014.0,29.94,KCOF
1689321600,2023-07-14T04:00:00-04:00,26.28,79.3,79.3,74.98,87,1014,29.94,SSW,209,5.46,5.46,0.0,0.0,0.0,0.0,0,15.259,9.482,31,Mostly Clear,Mostly Clear,1014.0,29.94,KCOF
1689325200,2023-07-14T05:00:00-04:00,25.66,78.19,78.19,74.98,90,1014,29.94,SSW,210,5.46,5.46,0.0,0.0,0.0,0.0,0,15.22,9.457,28,Mostly Clear,Mostly Clear,1014.0,29.94,KCOF
1689328800,2023-07-14T06:00:00-04:00,25.66,78.19,78.19,74.98,90,1015,29.97,SSW,210,5.46,5.46,0.0,0.0,0.0,0.0,0,15.177,9.431,32,Partly Cloudy,Partly Cloudy,1015.0,29.97,KCOF
1689332400,2023-07-14T07:00:00-04:00,25.66,78.19,78.19,76.1,93,1015,29.97,SW,220,5.46,5.46,0.0,0.0,0.0,0.0,0,15.141,9.408,36,Partly Cloudy,Partly Cloudy,1015.0,29.97,KCOF
1689336000,2023-07-14T08:00:00-04:00,27.18,80.92,87.29,76.1,85,1015,29.97,SW,220,5.53,5.53,0.0,0.0,0.0,0.0,0,15.211,9.452,38,Partly Cloudy,Partly Cloudy,1015.0,29.97,KCOF
1689339600,2023-07-14T09:00:00-04:00,28.74,83.73,92.6,76.21,78,1016,30.0,SSW,210,5.53,5.53,0.04,0.0,0.04,0.0,64,15.642,9.72,44,Isolated Storms,Isolated Storms,1016.0,30.0,KCOF
1689256800,2023-07-13T10:00:00-04:00,30.72,87.3,99.59,77.32,72,1017,30.03,WNW,293,3.96,3.96,0.0,0.0,0.0,0.0,0,16.0,9.942,28,Mostly Sunny,Mostly Sunny,1016.7,30.02,KXMR
1689260400,2023-07-13T11:00:00-04:00,31.43,88.57,101.73,77.49,70,1017,30.03,WNW,298,4.47,4.47,0.0,0.0,0.0,0.0,0,16.0,9.942,26,Mostly Sunny,Mostly Sunny,1016.7,30.02,KXMR
1689264000,2023-07-13T12:00:00-04:00,32.28,90.1,104.82,78.08,68,1016,30.0,SW,224,5.59,5.59,0.0,0.0,0.0,0.0,0,16.0,9.942,28,Mostly Sunny,Mostly Sunny,1015.7,29.99,KXMR
1689267600,2023-07-13T13:00:00-04:00,32.28,90.1,104.82,78.08,68,1016,30.0,ENE,72,6.71,6.71,0.0,0.0,0.0,0.0,0,16.0,9.942,30,Mostly Sunny,Mostly Sunny,1015.7,29.99,KXMR
1689271200,2023-07-13T14:00:00-04:00,32.13,89.83,104.43,78.08,68,1015,29.97,E,90,7.83,7.83,0.0,0.0,0.0,0.0,0,16.0,9.942,33,Partly Cloudy,Partly Cloudy,1014.7,29.96,KXMR
1689274800,2023-07-13T15:00:00-04:00,32.15,89.87,104.48,78.08,68,1015,29.97,E,90,8.43,8.43,0.22,0.01,0.22,0.01,39,16.0,9.942,34,Chance of Storms,Chance of Storms,1014.7,29.96,KXMR
1689278400,2023-07-13T16:00:00-04:00,31.78,89.2,103.5,78.08,70,1014,29.94,E,100,8.72,8.72,0.22,0.01,0.22,0.01,39,16.0,9.942,36,Chance of Storms,Chance of Storms,1013.7,29.93,KXMR
1689282000,2023-07-13T17:00:00-04:00,30.12,86.22,98.83,78.08,77,1014,29.94,E,100,8.72,8.72,0.22,0.01,0.22,0.01,34,16.0,9.942,37,Chance of Storms,Chance of Storms,1013.7,29.93,KXMR
1689285600,2023-07-13T18:00:00-04:00,29.55,85.19,95.85,77.0,77,1014,29.94,ESE,110,8.16,8.16,0.22,0.01,0.22,0.01,34,16.0,9.942,40,Chance of Storms,Chance of Storms,1013.7,29.93,KXMR
1689289200,2023-07-13T19:00:00-04:00,28.8,83.84,93.53,77.0,80,1014,29.94,SE,130,7.05,7.05,0.22,0.01,0.22,0.01,34,15.596,9.691,43,Chance of Storms,Chance of Storms,1013.7,29.93,KXMR
1689292800,2023-07-13T20:00:00-04:00,27.58,81.64,89.34,77.0,86,1014,29.94,SE,140,6.71,6.71,0.22,0.01,0.22,0.01,34,16.0,9.942,46,Chance of Storms,Chance of Storms,1013.7,29.93,KXMR
1689296400,2023-07-13T21:00:00-04:00,27.43,81.37,88.78,77.0,87,1015,29.97,SSE,150,6.71,6.71,0.0,0.0,0.0,0.0,0,16.0,9.942,45,Partly Cloudy,Partly Cloudy,1014.7,29.96,KXMR
1689300000,2023-07-13T22:00:00-04:00,26.7,80.06,85.87,77.0,90,1015,29.97,S,180,7.05,7.05,0.0,0.0,0.0,0.0,0,16.0,9.942,45,Partly Cloudy,Partly Cloudy,1014.7,29.96,KXMR
1689303600,2023-07-13T23:00:00-04:00,26.35,79.43,79.43,76.37,90,1015,29.97,SSW,195,7.61,7.61,0.0,0.0,0.0,0.0,0,14.928,9.276,44,Partly Cloudy,Partly Cloudy,1014.7,29.96,KXMR
1689307200,2023-07-14T00:00:00-04:00,26.35,79.43,79.43,76.37,90,1015,29.97,SSW,195,7.31,7.31,0.0,0.0,0.0,0.0,0,15.96,9.917,42,Partly Cloudy,Partly Cloudy,1014.7,29.96,KXMR
1689310800,2023-07-14T01:00:00-04:00,26.08,78.94,78.94,76.1,91,1015,29.97,SSW,200,6.71,6.71,0.0,0.0,0.0,0.0,0,15.963,9.919,40,Partly Cloudy,Partly Cloudy,1014.7,29.96,KXMR
1689314400,2023-07-14T02:00:00-04:00,25.3,77.54,77.54,76.1,95,1015,29.97,SSW,203,5.86,5.86,0.0,0.0,0.0,0.0,0,15.963,9.919,38,Partly Cloudy,Partly Cloudy,1014.7,29.96,KXMR
1689318000,2023-07-14T03:00:00-04:00,24.95,76.91,76.91,75.79,96,1014,29.94,SSW,208,5.59,5.59,0.0,0.0,0.0,0.0,0,15.963,9.919,36,Partly Cloudy,Partly Cloudy,1013.7,29.93,KXMR
1689321600,2023-07-14T04:00:00-04:00,24.83,76.69,76.69,75.22,95,1014,29.94,SSW,210,4.74,4.74,0.0,0.0,0.0,0.0,0,15.963,9.919,34,Partly Cloudy,Partly Cloudy,1013.7,29.93,KXMR
1689325200,2023-07-14T05:00:00-04:00,24.65,76.37,76.37,75.22,96,1014,29.94,SSW,212,4.47,4.47,0.0,0.0,0.0,0.0,0,15.963,9.919,33,Partly Cloudy,Partly Cloudy,1013.7,29.93,KXMR
1689328800,2023-07-14T06:00:00-04:00,24.51,76.12,76.12,76.12,100,1015,29.97,SW,220,4.47,4.47,0.0,0.0,0.0,0.0,0,15.963,9.919,37,Partly Cloudy,Partly Cloudy,1014.7,29.96,KXMR
1689332400,2023-07-14T07:00:00-04:00,24.65,76.37,76.37,76.37,100,1015,29.97,SW,220,4.81,4.81,0.0,0.0,0.0,0.0,0,15.963,9.919,41,Partly Cloudy,Partly Cloudy,1014.7,29.96,KXMR
1689336000,2023-07-14T08:00:00-04:00,27.0,80.6,87.28,77.32,90,1015,29.97,SW,228,5.59,5.59,0.0,0.0,0.0,0.0,0,15.927,9.896,44,Partly Cloudy,Partly Cloudy,1014.7,29.96,KXMR
1689339600,2023-07-14T09:00:00-04:00,29.23,84.61,95.46,77.54,79,1016,30.0,SSW,210,5.59,5.59,0.04,0.0,0.04,0.0,59,15.963,9.919,51,Isolated Storms,Isolated Storms,1015.7,29.99,KXMR
1689256800,2023-07-13T10:00:00-04:00,30.18,86.32,96.95,76.37,72,1017,30.03,WNW,293,4.47,4.47,0.0,0.0,0.0,0.0,0,16.0,9.942,27,Mostly Sunny,Mostly Sunny,1016.9,30.03,KTTS
1689260400,2023-07-13T11:00:00-04:00,31.55,88.79,100.58,76.37,67,1016,30.0,WNW,296,4.47,4.47,0.0,0.0,0.0,0.0,0,16.0,9.942,26,Mostly Sunny,Mostly Sunny,1015.9,30.0,KTTS
1689264000,2023-07-13T12:00:00-04:00,32.7,90.86,103.46,76.37,63,1016,30.0,NNW,336,5.59,5.59,0.0,0.0,0.0,0.0,0,16.0,9.942,29,Mostly Sunny,Mostly Sunny,1015.9,30.0,KTTS
1689267600,2023-07-13T13:00:00-04:00,32.7,90.86,103.1,76.1,62,1016,30.0,NE,43,5.59,5.59,0.0,0.0,0.0,0.0,0,16.0,9.942,32,Partly Cloudy,Partly Cloudy,1015.9,30.0,KTTS
1689271200,2023-07-13T14:00:00-04:00,32.7,90.86,103.1,76.1,62,1015,29.97,E,80,6.71,6.71,0.0,0.0,0.0,0.0,0,16.0,9.942,35,Partly Cloudy,Partly Cloudy,1014.9,29.97,KTTS
1689274800,2023-07-13T15:00:00-04:00,32.2,89.96,101.87,76.1,64,1015,29.97,E,90,7.05,7.05,0.17,0.01,0.17,0.01,43,16.0,9.942,38,Chance of Storms,Chance of Storms,1014.9,29.97,KTTS
1689278400,2023-07-13T16:00:00-04:00,31.36,88.45,99.75,76.1,67,1014,29.94,E,100,7.83,7.83,0.17,0.01,0.17,0.01,43,16.0,9.942,41,Chance of Storms,Chance of Storms,1013.9,29.94,KTTS
1689282000,2023-07-13T17:00:00-04:00,30.59,87.06,98.82,77.0,72,1014,29.94,ESE,110,7.83,7.83,0.17,0.01,0.17,0.01,39,16.0,9.942,44,Chance of Storms,Chance of Storms,1013.9,29.94,KTTS
1689285600,2023-07-13T18:00:00-04:00,29.65,85.37,96.15,77.0,76,1014,29.94,ESE,120,7.49,7.49,0.17,0.01,0.17,0.01,39,16.0,9.942,45,Chance of Storms,Chance of Storms,1013.9,29.94,KTTS
1689289200,2023-07-13T19:00:00-04:00,29.28,84.7,94.38,76.37,76,1014,29.94,SE,130,6.71,6.71,0.17,0.01,0.17,0.01,39,16.0,9.942,47,Chance of Storms,Chance of Storms,1013.9,29.94,KTTS
1689292800,2023-07-13T20:00:00-04:00,27.7,81.86,89.33,76.37,84,1014,29.94,SE,140,5.59,5.59,0.17,0.01,0.17,0.01,36,16.0,9.942,48,Chance of Storms,Chance of Storms,1013.9,29.94,KTTS
1689296400,2023-07-13T21:00:00-04:00,27.35,81.23,88.08,76.37,85,1015,29.97,SSE,150,5.59,5.59,0.18,0.01,0.18,0.01,36,16.0,9.942,48,Chance of Storms,Chance of Storms,1014.9,29.97,KTTS
1689300000,2023-07-13T22:00:00-04:00,27.05,80.69,86.96,76.37,87,1015,29.97,S,180,6.38,6.38,0.18,0.01,0.18,0.01,36,16.0,9.942,47,Chance of Storms,Chance of Storms,1014.9,29.97,KTTS
1689303600,2023-07-13T23:00:00-04:00,26.55,79.79,79.79,76.1,89,1015,29.97,S,190,6.69,6.69,0.18,0.01,0.18,0.01,21,16.0,9.942,46,Isolated Storms,Isolated Storms,1014.9,29.97,KTTS
1689307200,2023-07-14T00:00:00-04:00,26.01,78.82,78.82,76.1,91,1015,29.97,S,190,5.59,5.59,0.18,0.01,0.18,0.01,21,15.981,9.93,44,Isolated Storms,Isolated Storms,1014.9,29.97,KTTS
1689310800,2023-07-14T01:00:00-04:00,26.01,78.82,78.82,74.84,88,1015,29.97,SSW,200,5.59,5.59,0.18,0.01,0.18,0.01,21,15.958,9.916,42,Isolated Storms,Isolated Storms,1014.9,29.97,KTTS
1689314400,2023-07-14T02:00:00-04:00,25.68,78.22,78.22,74.84,89,1015,29.97,SSW,200,4.81,4.81,0.0,0.0,0.0,0.0,0,15.958,9.916,40,Partly Cloudy,Partly Cloudy,1014.9,29.97,KTTS
1689318000,2023-07-14T03:00:00-04:00,24.64,76.35,76.35,74.84,95,1014,29.94,SSW,200,4.47,4.47,0.0,0.0,0.0,0.0,0,15.956,9.914,38,Partly Cloudy,Partly Cloudy,1013.9,29.94,KTTS
1689321600,2023-07-14T04:00:00-04:00,24.85,76.73,76.73,74.34,92,1014,29.94,SSW,210,4.47,4.47,0.0,0.0,0.0,0.0,0,15.956,9.914,36,Partly Cloudy,Partly Cloudy,1013.9,29.94,KTTS
1689325200,2023-07-14T05:00:00-04:00,24.29,75.72,75.72,74.12,95,1014,29.94,SSW,210,4.47,4.47,0.0,0.0,0.0,0.0,0,15.955,9.914,34,Partly Cloudy,Partly Cloudy,1013.9,29.94,KTTS
1689328800,2023-07-14T06:00:00-04:00,24.28,75.7,75.7,74.84,97,1015,29.97,SSW,210,4.47,4.47,0.0,0.0,0.0,0.0,0,15.957,9.915,38,Partly Cloudy,Partly Cloudy,1014.9,29.97,KTTS
1689332400,2023-07-14T07:00:00-04:00,24.29,75.72,75.72,74.86,97,1015,29.97,SW,220,4.47,4.47,0.0,0.0,0.0,0.0,0,15.957,9.915,41,Partly Cloudy,Partly Cloudy,1014.9,29.97,KTTS
1689336000,2023-07-14T08:00:00-04:00,26.55,79.79,79.79,76.37,89,1015,29.97,SW,220,4.81,4.81,0.0,0.0,0.0,0.0,0,15.955,9.914,41,Partly Cloudy,Partly Cloudy,1014.9,29.97,KTTS
1689339600,2023-07-14T09:00:00-04:00,27.71,81.88,88.76,75.51,81,1016,30.0,SW,227,5.59,5.59,0.04,0.0,0.04,0.0,63,16.0,9.942,46,Isolated Storms,Isolated Storms,1015.9,30.0,KTTS
1689256800,2023-07-13T10:00:00-04:00,30.33,86.59,97.25,76.28,71,1016,30.0,W,280,3.36,3.36,0.0,0.0,0.0,0.0,0,16.0,9.942,25,Mostly Sunny,Mostly Sunny,1015.0,29.97,KSFB
1689260400,2023-07-13T11:00:00-04:00,31.81,89.26,100.53,75.81,65,1016,30.0,WNW,285,4.47,4.47,0.0,0.0,0.0,0.0,0,16.0,9.942,25,Mostly Sunny,Mostly Sunny,1015.0,29.97,KSFB
1689264000,2023-07-13T12:00:00-04:00,33.3,91.94,103.8,75.52,59,1016,30.0,W,280,4.61,4.61,0.0,0.0,0.0,0.0,0,16.0,9.942,31,Mostly Sunny,Mostly Sunny,1015.0,29.97,KSFB
1689267600,2023-07-13T13:00:00-04:00,34.03,93.25,105.1,75.18,56,1015,29.97,W,278,5.59,5.59,0.0,0.0,0.0,0.0,0,16.0,9.942,37,Partly Cloudy,Partly Cloudy,1014.0,29.94,KSFB
1689271200,2023-07-13T14:00:00-04:00,34.12,93.42,104.64,74.66,55,1014,29.94,W,270,6.62,6.62,0.0,0.0,0.0,0.0,0,16.0,9.942,44,Partly Cloudy,Partly Cloudy,1013.0,29.91,KSFB
1689274800,2023-07-13T15:00:00-04:00,34.18,93.52,104.78,74.66,54,1014,29.94,WNW,287,6.71,6.71,2.36,0.09,2.36,0.09,53,16.0,9.942,49,Chance of Storms,Chance of Storms,1013.0,29.91,KSFB
1689278400,2023-07-13T16:00:00-04:00,32.47,90.45,100.74,74.66,60,1013,29.91,SSW,204,7.09,7.09,2.36,0.09,2.36,0.09,53,16.0,9.942,55,Chance of Storms,Chance of Storms,1012.0,29.88,KSFB
1689282000,2023-07-13T17:00:00-04:00,31.81,89.26,99.16,74.66,62,1013,29.91,S,191,7.18,7.18,2.36,0.09,2.36,0.09,62,16.0,9.942,60,Scattered Storms,Scattered Storms,1012.0,29.88,KSFB
1689285600,2023-07-13T18:00:00-04:00,30.65,87.17,96.31,74.66,67,1013,29.91,SE,143,6.71,6.71,2.36,0.09,2.36,0.09,62,16.0,9.942,60,Scattered Storms,Scattered Storms,1012.0,29.88,KSFB
1689289200,2023-07-13T19:00:00-04:00,29.77,85.59,93.9,74.5,70,1013,29.91,SE,138,6.58,6.58,2.36,0.09,2.36,0.09,62,16.0,9.942,61,Scattered Storms,Scattered Storms,1012.0,29.88,KSFB
1689292800,2023-07-13T20:00:00-04:00,29.77,85.59,94.23,74.84,70,1014,29.94,SE,138,5.59,5.59,2.36,0.09,2.36,0.09,47,15.468,9.611,61,Chance of Storms,Chance of Storms,1013.0,29.91,KSFB
1689296400,2023-07-13T21:00:00-04:00,27.7,81.86,88.29,74.84,79,1014,29.94,SSE,148,5.59,5.59,1.45,0.06,1.45,0.06,47,16.0,9.942,59,Chance of Storms,Chance of Storms,1013.0,29.91,KSFB
1689300000,2023-07-13T22:00:00-04:00,27.2,80.96,86.67,74.84,82,1015,29.97,SSE,168,5.59,5.59,1.45,0.06,1.45,0.06,47,16.0,9.942,57,Chance of Storms,Chance of Storms,1014.0,29.94,KSFB
1689303600,2023-07-13T23:00:00-04:00,26.24,79.23,79.23,75.69,89,1015,29.97,S,180,5.46,5.46,1.45,0.06,1.45,0.06,20,16.0,9.942,55,Isolated Storms,Isolated Storms,1014.0,29.94,KSFB
1689307200,2023-07-14T00:00:00-04:00,25.93,78.67,78.67,75.42,90,1015,29.97,S,180,4.56,4.56,1.45,0.06,1.45,0.06,20,16.0,9.942,51,Isolated Storms,Isolated Storms,1014.0,29.94,KSFB
1689310800,2023-07-14T01:00:00-04:00,25.93,78.67,78.67,75.42,90,1015,29.97,SSW,193,3.83,3.83,1.45,0.06,1.45,0.06,20,16.0,9.942,47,Isolated Storms,Isolated Storms,1014.0,29.94,KSFB
1689314400,2023-07-14T02:00:00-04:00,25.33,77.59,77.59,75.42,93,1015,29.97,SSW,200,3.36,3.36,0.0,0.0,0.0,0.0,0,16.0,9.942,42,Partly Cloudy,Partly Cloudy,1014.0,29.94,KSFB
1689318000,2023-07-14T03:00:00-04:00,25.05,77.09,77.09,75.42,95,1014,29.94,SSW,200,2.71,2.71,0.0,0.0,0.0,0.0,0,16.0,9.942,37,Partly Cloudy,Partly Cloudy,1013.0,29.91,KSFB
1689321600,2023-07-14T04:00:00-04:00,25.05,77.09,77.09,75.42,95,1014,29.94,SSW,205,2.71,2.71,0.0,0.0,0.0,0.0,0,16.0,9.942,32,Partly Cloudy,Partly Cloudy,1013.0,29.91,KSFB
1689325200,2023-07-14T05:00:00-04:00,25.22,77.4,77.4,74.84,92,1014,29.94,SSW,208,2.71,2.71,0.0,0.0,0.0,0.0,0,16.0,9.942,27,Mostly Clear,Mostly Clear,1013.0,29.91,KSFB
1689328800,2023-07-14T06:00:00-04:00,24.73,76.51,76.51,75.42,96,1014,29.94,SSW,210,2.71,2.71,0.0,0.0,0.0,0.0,0,16.0,9.942,30,Mostly Clear,Mostly Clear,1013.0,29.91,KSFB
1689332400,2023-07-14T07:00:00-04:00,24.77,76.59,76.59,76.1,98,1015,29.97,SW,220,3.36,3.36,0.0,0.0,0.0,0.0,0,16.0,9.942,33,Partly Cloudy,Partly Cloudy,1014.0,29.94,KSFB
1689336000,2023-07-14T08:00:00-04:00,25.93,78.67,78.67,76.21,92,1015,29.97,SW,220,3.36,3.36,0.0,0.0,0.0,0.0,0,16.0,9.942,38,Partly Cloudy,Partly Cloudy,1014.0,29.94,KSFB
1689339600,2023-07-14T09:00:00-04:00,28.08,82.54,91.24,77.13,84,1016,30.0,SSW,213,3.36,3.36,0.04,0.0,0.04,0.0,77,16.0,9.942,38,Isolated Storms,Isolated Storms,1015.0,29.97,KSFB
1689256800,2023-07-13T10:00:00-04:00,30.39,86.7,97.21,76.1,71,1016,30.0,W,266,3.36,3.36,0.0,0.0,0.0,0.0,0,16.0,9.942,28,Mostly Sunny,Mostly Sunny,1014.6,29.96,KDED
1689260400,2023-07-13T11:00:00-04:00,31.64,88.95,100.46,76.1,66,1016,30.0,W,270,4.47,4.47,0.0,0.0,0.0,0.0,0,16.0,9.942,28,Mostly Sunny,Mostly Sunny,1014.6,29.96,KDED
1689264000,2023-07-13T12:00:00-04:00,33.16,91.69,103.49,75.54,59,1016,30.0,W,270,5.59,5.59,0.06,0.0,0.06,0.0,17,16.0,9.942,35,Isolated Storms,Isolated Storms,1014.6,29.96,KDED
1689267600,2023-07-13T13:00:00-04:00,33.68,92.62,103.83,74.84,56,1015,29.97,W,270,5.59,5.59,0.06,0.0,0.06,0.0,17,16.0,9.942,41,Isolated Storms,Isolated Storms,1013.6,29.93,KDED
1689271200,2023-07-13T14:00:00-04:00,33.16,91.69,101.94,74.3,57,1015,29.97,W,266,6.44,6.44,0.06,0.0,0.06,0.0,54,16.0,9.942,48,Chance of Storms,Chance of Storms,1013.6,29.93,KDED
1689274800,2023-07-13T15:00:00-04:00,33.16,91.69,102.12,74.44,57,1014,29.94,WNW,299,6.71,6.71,1.86,0.07,1.86,0.07,54,16.0,9.942,52,Chance of Storms,Chance of Storms,1012.6,29.9,KDED
1689278400,2023-07-13T16:00:00-04:00,31.7,89.06,99.1,74.84,63,1014,29.94,WSW,243,6.71,6.71,1.86,0.07,1.86,0.07,54,16.0,9.942,57,Chance of Storms,Chance of Storms,1012.6,29.9,KDED
1689282000,2023-07-13T17:00:00-04:00,30.46,86.83,96.02,74.84,68,1014,29.94,S,182,6.71,6.71,1.86,0.07,1.86,0.07,61,16.0,9.942,62,Scattered Storms,Scattered Storms,1012.6,29.9,KDED
1689285600,2023-07-13T18:00:00-04:00,29.72,85.5,94.1,74.84,71,1014,29.94,NE,48,6.71,6.71,1.86,0.07,1.86,0.07,61,16.0,9.942,61,Scattered Storms,Scattered Storms,1012.6,29.9,KDED
1689289200,2023-07-13T19:00:00-04:00,29.33,84.79,93.28,75.09,73,1013,29.91,E,99,5.59,5.59,1.86,0.07,1.86,0.07,61,16.0,9.942,60,Scattered Storms,Scattered Storms,1011.6,29.87,KDED
1689292800,2023-07-13T20:00:00-04:00,28.7,83.66,91.89,75.54,77,1014,29.94,ESE,120,5.59,5.59,1.86,0.07,1.86,0.07,40,16.0,9.942,59,Chance of Storms,Chance of Storms,1012.6,29.9,KDED
1689296400,2023-07-13T21:00:00-04:00,27.2,80.96,86.8,75.09,82,1014,29.94,SE,130,4.97,4.97,0.83,0.03,0.83,0.03,40,16.0,9.942,58,Chance of Storms,Chance of Storms,1012.6,29.9,KDED
1689300000,2023-07-13T22:00:00-04:00,26.7,80.06,84.94,74.84,84,1015,29.97,SSE,160,4.47,4.47,0.83,0.03,0.83,0.03,40,16.0,9.942,58,Chance of Storms,Chance of Storms,1013.6,29.93,KDED
1689303600,2023-07-13T23:00:00-04:00,26.06,78.91,78.91,74.84,87,1015,29.97,S,180,4.47,4.47,0.83,0.03,0.83,0.03,18,16.0,9.942,57,Isolated Storms,Isolated Storms,1013.6,29.93,KDED
1689307200,2023-07-14T00:00:00-04:00,25.46,77.83,77.83,74.84,91,1015,29.97,S,180,4.47,4.47,0.83,0.03,0.83,0.03,18,16.0,9.942,53,Isolated Storms,Isolated Storms,1013.6,29.93,KDED
1689310800,2023-07-14T01:00:00-04:00,25.46,77.83,77.83,74.12,88,1015,29.97,SSW,192,3.98,3.98,0.83,0.03,0.83,0.03,18,16.0,9.942,48,Isolated Storms,Isolated Storms,1013.6,29.93,KDED
1689314400,2023-07-14T02:00:00-04:00,24.5,76.1,76.1,74.12,94,1015,29.97,SSW,200,3.36,3.36,0.0,0.0,0.0,0.0,0,16.0,9.942,44,Partly Cloudy,Partly Cloudy,1013.6,29.93,KDED
1689318000,2023-07-14T03:00:00-04:00,24.19,75.54,75.54,74.12,95,1014,29.94,SSW,208,3.36,3.36,0.0,0.0,0.0,0.0,0,16.0,9.942,39,Partly Cloudy,Partly Cloudy,1012.6,29.9,KDED
1689321600,2023-07-14T04:00:00-04:00,23.88,74.98,74.98,74.12,97,1014,29.94,SW,220,3.36,3.36,0.0,0.0,0.0,0.0,0,16.0,9.942,34,Partly Cloudy,Partly Cloudy,1012.6,29.9,KDED
1689325200,2023-07-14T05:00:00-04:00,23.8,74.84,74.84,73.56,96,1014,29.94,SW,220,3.36,3.36,0.0,0.0,0.0,0.0,0,16.0,9.942,30,Mostly Clear,Mostly Clear,1012.6,29.9,KDED
1689328800,2023-07-14T06:00:00-04:00,23.4,74.12,74.12,74.12,100,1015,29.97,SW,220,3.36,3.36,0.0,0.0,0.0,0.0,0,16.0,9.942,32,Partly Cloudy,Partly Cloudy,1013.6,29.93,KDED
1689332400,2023-07-14T07:00:00-04:00,23.4,74.12,74.12,74.12,100,1015,29.97,SW,230,3.36,3.36,0.0,0.0,0.0,0.0,0,16.0,9.942,33,Partly Cloudy,Partly Cloudy,1013.6,29.93,KDED
1689336000,2023-07-14T08:00:00-04:00,25.21,77.38,77.38,76.1,96,1015,29.97,SW,230,3.36,3.36,0.0,0.0,0.0,0.0,0,16.0,9.942,33,Partly Cloudy,Partly Cloudy,1013.6,29.93,KDED
1689339600,2023-07-14T09:00:00-04:00,27.38,81.28,88.73,77.22,88,1016,30.0,SW,216,3.36,3.36,0.04,0.0,0.04,0.0,77,16.0,9.942,39,Isolated Storms,Isolated Storms,1014.6,29.96,KDED
1689256800,2023-07-13T10:00:00-04:00,30.49,86.88,97.92,76.48,71,1016,30.0,W,270,3.65,3.65,0.0,0.0,0.0,0.0,0,16.0,9.942,27,Mostly Sunny,Mostly Sunny,1015.5,29.99,KDAB
1689260400,2023-07-13T11:00:00-04:00,31.86,89.35,101.51,76.48,66,1016,30.0,W,277,4.47,4.47,0.0,0.0,0.0,0.0,0,16.0,9.942,27,Mostly Sunny,Mostly Sunny,1015.5,29.99,KDAB
1689264000,2023-07-13T12:00:00-04:00,33.19,91.74,104.82,76.48,61,1016,30.0,NW,314,5.59,5.59,0.07,0.0,0.07,0.0,15,16.0,9.942,32,Isolated Storms,Isolated Storms,1015.5,29.99,KDAB
1689267600,2023-07-13T13:00:00-04:00,33.35,92.03,105.21,76.48,61,1016,30.0,NNE,26,6.42,6.42,0.07,0.0,0.07,0.0,15,16.0,9.942,37,Isolated Storms,Isolated Storms,1015.5,29.99,KDAB
1689271200,2023-07-13T14:00:00-04:00,33.19,91.74,104.25,76.06,60,1015,29.97,ENE,61,7.54,7.54,0.07,0.0,0.07,0.0,49,16.0,9.942,42,Chance of Storms,Chance of Storms,1014.5,29.96,KDAB
1689274800,2023-07-13T15:00:00-04:00,32.8,91.04,103.3,76.06,62,1015,29.97,ENE,71,7.83,7.83,1.1,0.04,1.1,0.04,49,16.0,9.942,48,Chance of Storms,Chance of Storms,1014.5,29.96,KDAB
1689278400,2023-07-13T16:00:00-04:00,31.25,88.25,99.42,76.06,67,1014,29.94,E,97,8.08,8.08,1.1,0.04,1.1,0.04,49,16.0,9.942,53,Chance of Storms,Chance of Storms,1013.5,29.93,KDAB
1689282000,2023-07-13T17:00:00-04:00,30.68,87.22,98.24,76.32,70,1014,29.94,ESE,110,8.08,8.08,1.1,0.04,1.1,0.04,49,16.0,9.942,58,Chance of Storms,Chance of Storms,1013.5,29.93,KDAB
1689285600,2023-07-13T18:00:00-04:00,30.68,87.22,97.94,76.06,70,1014,29.94,ESE,113,7.47,7.47,1.1,0.04,1.1,0.04,49,16.0,9.942,57,Chance of Storms,Chance of Storms,1013.5,29.93,KDAB
1689289200,2023-07-13T19:00:00-04:00,30.52,86.94,97.29,75.87,70,1013,29.91,SE,125,6.51,6.51,1.1,0.04,1.1,0.04,49,16.0,9.942,56,Chance of Storms,Chance of Storms,1012.5,29.9,KDAB
1689292800,2023-07-13T20:00:00-04:00,29.37,84.87,94.14,75.87,75,1014,29.94,SE,135,5.59,5.59,1.1,0.04,1.1,0.04,36,16.0,9.942,55,Chance of Storms,Chance of Storms,1013.5,29.93,KDAB
1689296400,2023-07-13T21:00:00-04:00,28.4,83.12,91.11,75.7,78,1014,29.94,SE,145,5.35,5.35,0.17,0.01,0.17,0.01,36,16.0,9.942,56,Chance of Storms,Chance of Storms,1013.5,29.93,KDAB
1689300000,2023-07-13T22:00:00-04:00,27.54,81.57,88.32,75.7,82,1015,29.97,S,173,5.59,5.59,0.17,0.01,0.17,0.01,36,16.0,9.942,56,Chance of Storms,Chance of Storms,1014.5,29.96,KDAB
1689303600,2023-07-13T23:00:00-04:00,27.04,80.67,86.57,75.7,85,1016,30.0,S,190,5.59,5.59,0.17,0.01,0.17,0.01,20,15.792,9.813,57,Isolated Storms,Isolated Storms,1015.5,29.99,KDAB
1689307200,2023-07-14T00:00:00-04:00,26.61,79.9,79.9,75.7,87,1015,29.97,S,190,5.59,5.59,0.17,0.01,0.17,0.01,20,16.0,9.942,53,Isolated Storms,Isolated Storms,1014.5,29.96,KDAB
1689310800,2023-07-14T01:00:00-04:00,25.79,78.42,78.42,75.36,90,1015,29.97,SSW,204,5.23,5.23,0.17,0.01,0.17,0.01,20,16.0,9.942,50,Isolated Storms,Isolated Storms,1014.5,29.96,KDAB
1689314400,2023-07-14T02:00:00-04:00,25.0,77.0,77.0,74.43,92,1014,29.94,SSW,210,4.94,4.94,0.0,0.0,0.0,0.0,0,16.0,9.942,47,Partly Cloudy,Partly Cloudy,1013.5,29.93,KDAB
1689318000,2023-07-14T03:00:00-04:00,24.84,76.71,76.71,74.43,93,1014,29.94,SSW,212,4.72,4.72,0.0,0.0,0.0,0.0,0,16.0,9.942,42,Partly Cloudy,Partly Cloudy,1013.5,29.93,KDAB
1689321600,2023-07-14T04:00:00-04:00,25.0,77.0,77.0,74.43,92,1014,29.94,SW,220,4.47,4.47,0.0,0.0,0.0,0.0,0,16.0,9.942,37,Partly Cloudy,Partly Cloudy,1013.5,29.93,KDAB
1689325200,2023-07-14T05:00:00-04:00,24.71,76.48,76.48,74.26,93,1014,29.94,SW,228,4.47,4.47,0.0,0.0,0.0,0.0,0,16.0,9.942,33,Partly Cloudy,Partly Cloudy,1013.5,29.93,KDAB
1689328800,2023-07-14T06:00:00-04:00,24.5,76.1,76.1,74.64,95,1015,29.97,SW,230,4.47,4.47,0.0,0.0,0.0,0.0,0,16.0,9.942,35,Partly Cloudy,Partly Cloudy,1014.5,29.96,KDAB
1689332400,2023-07-14T07:00:00-04:00,24.5,76.1,76.1,75.07,97,1015,29.97,SW,230,4.47,4.47,0.0,0.0,0.0,0.0,0,16.0,9.942,38,Partly Cloudy,Partly Cloudy,1014.5,29.96,KDAB
1689336000,2023-07-14T08:00:00-04:00,25.79,78.42,78.42,76.1,93,1015,29.97,SW,230,4.47,4.47,0.0,0.0,0.0,0.0,0,16.0,9.942,37,Partly Cloudy,Partly Cloudy,1014.5,29.96,KDAB
1689339600,2023-07-14T09:00:00-04:00,28.05,82.49,90.96,76.91,83,1016,30.0,SW,220,4.47,4.47,0.04,0.0,0.04,0.0,59,16.0,9.942,41,Isolated Storms,Isolated Storms,1015.5,29.99,KDAB
1689256800,2023-07-13T10:00:00-04:00,30.0,86.0,97.16,77.0,75,1016,30.0,W,268,5.59,8.95,0.0,0.0,0.0,0.0,0,16.0,9.942,20,Mostly Sunny,Mostly Sunny,1015.9,30.0,KFIN
1689260400,2023-07-13T11:00:00-04:00,31.62,88.92,101.58,77.0,68,1016,30.0,W,270,5.59,8.95,0.0,0.0,0.0,0.0,0,16.0,9.942,27,Mostly Sunny,Mostly Sunny,1015.9,30.0,KFIN
1689264000,2023-07-13T12:00:00-04:00,32.7,90.86,104.33,77.0,64,1016,30.0,WNW,283,5.59,8.95,0.0,0.0,0.0,0.0,0,16.0,9.942,34,Partly Cloudy,Partly Cloudy,1015.9,30.0,KFIN
1689267600,2023-07-13T13:00:00-04:00,33.3,91.94,105.82,77.0,62,1015,29.97,E,98,6.71,10.07,0.14,0.01,0.14,0.01,22,16.0,9.942,42,Isolated Storms,Isolated Storms,1014.9,29.97,KFIN
1689271200,2023-07-13T14:00:00-04:00,32.7,90.86,103.91,76.69,63,1015,29.97,E,93,6.89,10.42,0.14,0.01,0.14,0.01,35,16.0,9.942,49,Chance of Storms,Chance of Storms,1014.9,29.97,KFIN
1689274800,2023-07-13T15:00:00-04:00,31.87,89.37,101.81,76.69,66,1014,29.94,E,100,8.01,12.48,1.16,0.05,1.16,0.05,45,16.0,9.942,52,Chance of Storms,Chance of Storms,1013.9,29.94,KFIN
1689278400,2023-07-13T16:00:00-04:00,31.37,88.47,100.92,77.0,69,1014,29.94,ESE,107,8.41,12.88,1.16,0.05,1.16,0.05,54,16.0,9.942,56,Chance of Storms,Chance of Storms,1013.9,29.94,KFIN
1689282000,2023-07-13T17:00:00-04:00,30.6,87.08,98.85,77.0,72,1014,29.94,ESE,110,8.95,13.42,1.16,0.05,1.16,0.05,57,16.0,9.942,55,Scattered Storms,Scattered Storms,1013.9,29.94,KFIN
1689285600,2023-07-13T18:00:00-04:00,30.0,86.0,97.16,77.0,75,1014,29.94,ESE,122,7.83,12.3,1.16,0.05,1.16,0.05,57,16.0,9.942,59,Scattered Storms,Scattered Storms,1013.9,29.94,KFIN
1689289200,2023-07-13T19:00:00-04:00,28.8,83.84,93.53,77.0,80,1013,29.91,SSE,147,7.83,12.3,1.16,0.05,1.16,0.05,55,16.0,9.942,68,Scattered Storms,Scattered Storms,1012.9,29.91,KFIN
1689292800,2023-07-13T20:00:00-04:00,27.2,80.96,87.9,77.0,88,1014,29.94,S,180,6.33,9.69,1.16,0.05,1.16,0.05,40,16.0,9.942,72,Chance of Storms,Chance of Storms,1013.9,29.94,KFIN
1689296400,2023-07-13T21:00:00-04:00,26.7,80.06,85.47,76.1,88,1014,29.94,S,180,4.65,7.07,0.51,0.02,0.51,0.02,31,16.0,9.942,77,Chance of Storms,Chance of Storms,1013.9,29.94,KFIN
1689300000,2023-07-13T22:00:00-04:00,26.11,79.0,79.0,76.1,91,1015,29.97,S,190,4.47,6.71,0.51,0.02,0.51,0.02,24,16.0,9.942,79,Isolated Storms,Isolated Storms,1014.9,29.97,KFIN
1689303600,2023-07-13T23:00:00-04:00,25.31,77.56,77.56,76.1,95,1015,29.97,S,190,4.47,6.71,0.51,0.02,0.51,0.02,20,16.0,9.942,79,Isolated Storms,Isolated Storms,1014.9,29.97,KFIN
1689307200,2023-07-14T00:00:00-04:00,24.58,76.24,76.24,74.84,95,1015,29.97,S,190,4.47,6.71,0.51,0.02,0.51,0.02,14,16.0,9.942,74,Isolated Showers,Isolated Showers,1014.9,29.97,KFIN
1689310800,2023-07-14T01:00:00-04:00,24.5,76.1,76.1,74.84,96,1015,29.97,SSW,200,4.47,6.71,0.0,0.0,0.0,0.0,0,16.0,9.942,59,Partly Cloudy,Partly Cloudy,1014.9,29.97,KFIN
1689314400,2023-07-14T02:00:00-04:00,23.8,74.84,74.84,74.5,99,1014,29.94,SW,220,3.94,6.17,0.0,0.0,0.0,0.0,0,15.961,9.918,46,Partly Cloudy,Partly Cloudy,1013.9,29.94,KFIN
1689318000,2023-07-14T03:00:00-04:00,23.8,74.84,74.84,74.12,98,1014,29.94,SW,220,3.53,5.77,0.0,0.0,0.0,0.0,0,16.0,9.942,42,Partly Cloudy,Partly Cloudy,1013.9,29.94,KFIN
1689321600,2023-07-14T04:00:00-04:00,23.61,74.5,74.5,74.12,99,1014,29.94,SW,230,3.36,5.59,0.0,0.0,0.0,0.0,0,16.0,9.942,42,Partly Cloudy,Partly Cloudy,1013.9,29.94,KFIN
1689325200,2023-07-14T05:00:00-04:00,23.4,74.12,74.12,74.12,100,1014,29.94,SW,230,3.36,5.59,0.0,0.0,0.0,0.0,0,16.0,9.942,37,Partly Cloudy,Partly Cloudy,1013.9,29.94,KFIN
1689328800,2023-07-14T06:00:00-04:00,23.06,73.51,73.51,73.51,100,1015,29.97,SW,230,3.36,5.59,0.0,0.0,0.0,0.0,0,16.0,9.942,44,Partly Cloudy,Partly Cloudy,1014.9,29.97,KFIN
1689332400,2023-07-14T07:00:00-04:00,23.4,74.12,74.12,74.12,100,1015,29.97,SW,230,3.36,5.59,0.0,0.0,0.0,0.0,0,16.0,9.942,41,Partly Cloudy,Partly Cloudy,1014.9,29.97,KFIN
1689336000,2023-07-14T08:00:00-04:00,25.0,77.0,77.0,76.1,97,1015,29.97,WSW,240,3.36,5.59,0.0,0.0,0.0,0.0,0,16.0,9.942,39,Partly Cloudy,Partly Cloudy,1014.9,29.97,KFIN
1689339600,2023-07-14T09:00:00-04:00,28.4,83.12,92.23,77.0,82,1016,30.0,WSW,240,4.47,6.71,0.04,0.0,0.04,0.0,19,16.0,9.942,39,Isolated Storms,Isolated Storms,1015.9,30.0,KFIN
1689256800,2023-07-13T10:00:00-04:00,29.5,85.1,95.7,77.0,77,1016,30.0,W,280,6.71,10.07,0.0,0.0,0.0,0.0,0,16.0,9.942,28,Mostly Sunny,Mostly Sunny,1009.8,29.82,KGNV
1689260400,2023-07-13T11:00:00-04:00,31.7,89.06,101.78,77.0,68,1016,30.0,W,280,7.52,11.65,0.0,0.0,0.0,0.0,0,16.0,9.942,31,Mostly Sunny,Mostly Sunny,1009.9,29.82,KGNV
1689264000,2023-07-13T12:00:00-04:00,32.2,89.96,103.07,77.0,66,1016,30.0,W,270,7.83,12.3,0.28,0.01,0.28,0.01,26,16.0,9.942,44,Chance of Storms,Chance of Storms,1009.9,29.82,KGNV
1689267600,2023-07-13T13:00:00-04:00,32.7,90.86,103.1,76.1,62,1016,30.0,W,270,7.83,12.3,0.28,0.01,0.28,0.01,33,16.0,9.942,58,Chance of Storms,Chance of Storms,1009.9,29.82,KGNV
1689271200,2023-07-13T14:00:00-04:00,32.75,90.95,103.23,76.1,62,1015,29.97,W,261,7.83,12.3,0.28,0.01,0.28,0.01,44,16.0,9.942,73,Chance of Storms,Chance of Storms,1008.9,29.79,KGNV
1689274800,2023-07-13T15:00:00-04:00,33.3,91.94,104.57,76.1,60,1014,29.94,W,260,8.88,13.35,0.79,0.03,0.79,0.03,61,16.0,9.942,68,Scattered Storms,Scattered Storms,1007.9,29.76,KGNV
1689278400,2023-07-13T16:00:00-04:00,33.3,91.94,104.57,76.1,60,1014,29.94,W,260,8.95,13.42,0.79,0.03,0.79,0.03,69,15.988,9.935,69,Scattered Storms,Scattered Storms,1007.9,29.76,KGNV
1689282000,2023-07-13T17:00:00-04:00,32.7,90.86,103.1,76.1,62,1013,29.91,WSW,250,8.95,13.42,0.79,0.03,0.79,0.03,67,16.0,9.942,72,Scattered Storms,Scattered Storms,1006.9,29.73,KGNV
1689285600,2023-07-13T18:00:00-04:00,31.7,89.06,100.62,76.1,66,1013,29.91,WSW,258,8.05,12.53,0.79,0.03,0.79,0.03,55,16.0,9.942,74,Scattered Storms,Scattered Storms,1006.9,29.73,KGNV
1689289200,2023-07-13T19:00:00-04:00,30.6,87.08,97.77,76.1,70,1013,29.91,WSW,240,7.83,12.3,0.79,0.03,0.79,0.03,41,16.0,9.942,75,Chance of Storms,Chance of Storms,1006.9,29.73,KGNV
1689292800,2023-07-13T20:00:00-04:00,29.5,85.1,94.75,76.1,75,1014,29.94,SW,230,5.59,8.95,0.79,0.03,0.79,0.03,29,16.0,9.942,75,Chance of Storms,Chance of Storms,1007.8,29.76,KGNV
1689296400,2023-07-13T21:00:00-04:00,27.7,81.86,89.14,76.1,83,1014,29.94,SW,220,4.47,6.71,0.22,0.01,0.22,0.01,22,16.0,9.942,68,Isolated Storms,Isolated Storms,1007.8,29.76,KGNV
1689300000,2023-07-13T22:00:00-04:00,27.1,80.78,87.0,76.1,86,1015,29.97,SSW,210,3.36,5.59,0.22,0.01,0.22,0.01,14,16.0,9.942,62,Rain Showers,Rain Showers,1008.8,29.79,KGNV
1689303600,2023-07-13T23:00:00-04:00,26.2,79.16,79.16,76.1,90,1015,29.97,SSW,200,3.36,5.59,0.0,0.0,0.0,0.0,0,16.0,9.942,57,Partly Cloudy,Partly Cloudy,1008.8,29.79,KGNV
1689307200,2023-07-14T00:00:00-04:00,25.48,77.86,77.86,74.84,90,1015,29.97,S,190,3.36,5.59,0.0,0.0,0.0,0.0,0,16.0,9.942,55,Partly Cloudy,Partly Cloudy,1008.8,29.79,KGNV
1689310800,2023-07-14T01:00:00-04:00,24.53,76.15,76.15,74.84,96,1015,29.97,SSW,207,2.46,3.83,0.0,0.0,0.0,0.0,0,16.0,9.942,47,Partly Cloudy,Partly Cloudy,1008.7,29.79,KGNV
1689314400,2023-07-14T02:00:00-04:00,23.84,74.91,74.91,74.84,100,1014,29.94,SSW,211,2.24,3.36,0.0,0.0,0.0,0.0,0,16.0,9.942,44,Partly Cloudy,Partly Cloudy,1007.7,29.76,KGNV
1689318000,2023-07-14T03:00:00-04:00,23.72,74.7,74.7,74.12,98,1014,29.94,SW,220,2.24,3.36,0.0,0.0,0.0,0.0,0,15.81,9.824,39,Partly Cloudy,Partly Cloudy,1007.7,29.76,KGNV
1689321600,2023-07-14T04:00:00-04:00,23.4,74.12,74.12,74.12,100,1014,29.94,SW,230,2.24,3.36,0.0,0.0,0.0,0.0,0,15.317,9.517,35,Partly Cloudy,Partly Cloudy,1007.7,29.76,KGNV
1689325200,2023-07-14T05:00:00-04:00,23.4,74.12,74.12,74.12,100,1014,29.94,WSW,241,2.24,3.36,0.0,0.0,0.0,0.0,0,14.592,9.067,36,Partly Cloudy,Partly Cloudy,1007.7,29.76,KGNV
1689328800,2023-07-14T06:00:00-04:00,22.76,72.97,72.97,72.93,100,1015,29.97,WSW,240,2.24,3.36,0.0,0.0,0.0,0.0,0,14.582,9.061,44,Partly Cloudy,Partly Cloudy,1008.7,29.79,KGNV
1689332400,2023-07-14T07:00:00-04:00,22.76,72.97,72.97,72.97,100,1015,29.97,WSW,240,2.24,3.36,0.0,0.0,0.0,0.0,0,13.31,8.271,41,Partly Cloudy,Partly Cloudy,1008.7,29.79,KGNV
1689336000,2023-07-14T08:00:00-04:00,24.5,76.1,76.1,76.1,100,1015,29.97,WSW,240,2.24,3.36,0.0,0.0,0.0,0.0,0,15.845,9.846,51,Partly Cloudy,Partly Cloudy,1008.7,29.79,KGNV
1689339600,2023-07-14T09:00:00-04:00,27.2,80.96,87.9,77.0,88,1016,30.0,WSW,250,3.36,5.59,0.07,0.0,0.07,0.0,24,16.0,9.942,47,Isolated Storms,Isolated Storms,1009.8,29.82,KGNV
1689256800,2023-07-13T10:00:00-04:00,29.5,85.1,95.7,77.0,77,1016,30.0,W,270,6.71,10.07,0.0,0.0,0.0,0.0,0,16.0,9.942,20,Mostly Sunny,Mostly Sunny,1015.7,29.99,KSGJ
1689260400,2023-07-13T11:00:00-04:00,31.7,89.06,101.98,77.14,68,1016,30.0,WNW,284,6.71,10.07,0.0,0.0,0.0,0.0,0,16.0,9.942,25,Mostly Sunny,Mostly Sunny,1015.7,29.99,KSGJ
1689264000,2023-07-13T12:00:00-04:00,32.47,90.45,103.75,77.0,65,1016,30.0,W,276,6.71,10.07,0.0,0.0,0.0,0.0,0,16.0,9.942,30,Mostly Sunny,Mostly Sunny,1015.7,29.99,KSGJ
1689267600,2023-07-13T13:00:00-04:00,32.47,90.45,103.75,77.0,65,1015,29.97,SE,128,8.19,12.66,0.14,0.01,0.14,0.01,20,16.0,9.942,39,Isolated Storms,Isolated Storms,1014.7,29.96,KSGJ
1689271200,2023-07-13T14:00:00-04:00,32.13,89.83,103.09,77.14,66,1015,29.97,ESE,110,9.31,14.14,0.14,0.01,0.14,0.01,29,16.0,9.942,48,Chance of Storms,Chance of Storms,1014.7,29.96,KSGJ
1689274800,2023-07-13T15:00:00-04:00,31.9,89.42,102.77,77.34,68,1014,29.94,ESE,120,10.22,15.82,1.2,0.05,1.2,0.05,40,15.979,9.929,49,Chance of Storms,Chance of Storms,1013.7,29.93,KSGJ
1689278400,2023-07-13T16:00:00-04:00,31.2,88.16,100.92,77.34,70,1014,29.94,SE,130,10.74,16.33,1.2,0.05,1.2,0.05,47,16.0,9.942,51,Chance of Storms,Chance of Storms,1013.7,29.93,KSGJ
1689282000,2023-07-13T17:00:00-04:00,31.01,87.82,100.41,77.34,71,1014,29.94,SE,140,10.42,16.02,1.2,0.05,1.2,0.05,47,16.0,9.942,55,Chance of Storms,Chance of Storms,1013.7,29.93,KSGJ
1689285600,2023-07-13T18:00:00-04:00,29.5,85.1,95.7,77.0,77,1013,29.91,SSE,150,10.42,16.02,1.2,0.05,1.2,0.05,43,16.0,9.942,64,Chance of Storms,Chance of Storms,1012.7,29.9,KSGJ
1689289200,2023-07-13T19:00:00-04:00,28.64,83.55,93.02,77.0,81,1013,29.91,S,170,10.22,15.82,1.2,0.05,1.2,0.05,41,16.0,9.942,73,Chance of Storms,Chance of Storms,1012.7,29.9,KSGJ
1689292800,2023-07-13T20:00:00-04:00,27.2,80.96,87.37,76.1,85,1014,29.94,S,180,8.34,12.95,1.2,0.05,1.2,0.05,31,16.0,9.942,78,Chance of Storms,Chance of Storms,1013.7,29.93,KSGJ
1689296400,2023-07-13T21:00:00-04:00,27.0,80.6,86.62,76.1,86,1014,29.94,S,180,7.07,10.78,0.25,0.01,0.25,0.01,20,15.941,9.905,73,Isolated Storms,Isolated Storms,1013.7,29.93,KSGJ
1689300000,2023-07-13T22:00:00-04:00,26.7,80.06,85.47,76.1,88,1015,29.97,S,190,6.11,9.6,0.25,0.01,0.25,0.01,15,16.0,9.942,74,Isolated Storms,Isolated Storms,1014.7,29.96,KSGJ
1689303600,2023-07-13T23:00:00-04:00,26.2,79.16,79.16,76.1,90,1015,29.97,S,190,5.95,9.31,0.25,0.01,0.25,0.01,13,16.0,9.942,68,Rain Showers,Rain Showers,1014.7,29.96,KSGJ
1689307200,2023-07-14T00:00:00-04:00,25.6,78.08,78.08,75.24,91,1015,29.97,SSW,200,5.95,9.31,0.25,0.01,0.25,0.01,11,16.0,9.942,59,Rain Showers,Rain Showers,1014.7,29.96,KSGJ
1689310800,2023-07-14T01:00:00-04:00,25.6,78.08,78.08,75.24,91,1014,29.94,SSW,210,5.95,9.31,0.0,0.0,0.0,0.0,0,16.0,9.942,55,Partly Cloudy,Partly Cloudy,1013.7,29.93,KSGJ
1689314400,2023-07-14T02:00:00-04:00,25.0,77.0,77.0,75.0,94,1014,29.94,SSW,210,5.3,8.21,0.0,0.0,0.0,0.0,0,16.0,9.942,52,Partly Cloudy,Partly Cloudy,1013.7,29.93,KSGJ
1689318000,2023-07-14T03:00:00-04:00,24.5,76.1,76.1,74.84,96,1014,29.94,SW,220,4.99,7.56,0.0,0.0,0.0,0.0,0,16.0,9.942,47,Partly Cloudy,Partly Cloudy,1013.7,29.93,KSGJ
1689321600,2023-07-14T04:00:00-04:00,24.5,76.1,76.1,74.55,95,1014,29.94,SW,220,4.83,7.43,0.0,0.0,0.0,0.0,0,16.0,9.942,45,Partly Cloudy,Partly Cloudy,1013.7,29.93,KSGJ
1689325200,2023-07-14T05:00:00-04:00,24.5,76.1,76.1,74.84,96,1014,29.94,SW,230,4.83,7.43,0.0,0.0,0.0,0.0,0,16.0,9.942,40,Partly Cloudy,Partly Cloudy,1013.7,29.93,KSGJ
1689328800,2023-07-14T06:00:00-04:00,24.02,75.24,75.24,74.55,98,1014,29.94,SW,234,4.83,7.43,0.0,0.0,0.0,0.0,0,16.0,9.942,46,Partly Cloudy,Partly Cloudy,1013.7,29.93,KSGJ
1689332400,2023-07-14T07:00:00-04:00,24.02,75.24,75.24,74.55,98,1015,29.97,WSW,240,4.83,7.43,0.0,0.0,0.0,0.0,0,16.0,9.942,47,Partly Cloudy,Partly Cloudy,1014.6,29.96,KSGJ
1689336000,2023-07-14T08:00:00-04:00,25.52,77.94,77.94,76.1,94,1015,29.97,WSW,240,4.83,7.43,0.0,0.0,0.0,0.0,0,16.0,9.942,47,Partly Cloudy,Partly Cloudy,1014.7,29.96,KSGJ
1689339600,2023-07-14T09:00:00-04:00,27.7,81.86,89.34,76.39,84,1015,29.97,WSW,240,5.59,8.95,0.04,0.0,0.04,0.0,16,16.0,9.942,42,Isolated Storms,Isolated Storms,1014.7,29.96,KSGJ
1689256800,2023-07-13T09:00:00-05:00,30.59,87.06,98.0,76.32,71,1016,30.0,W,260,5.46,7.7,0.0,0.0,0.0,0.0,0,16.0,9.942,41,Partly Cloudy,Partly Cloudy,1015.1,29.98,KPAM
1689260400,2023-07-13T10:00:00-05:00,31.48,88.66,98.89,75.13,64,1016,30.0,W,260,7.83,10.71,0.0,0.0,0.0,0.0,0,16.0,9.942,53,Partly Cloudy,Partly Cloudy,1015.1,29.98,KPAM
1689264000,2023-07-13T11:00:00-05:00,31.48,88.66,98.89,75.13,64,1016,30.0,W,259,7.23,10.07,0.69,0.03,0.69,0.03,62,16.0,9.942,51,Scattered Storms,Scattered Storms,1015.1,29.98,KPAM
1689267600,2023-07-13T12:00:00-05:00,31.55,88.79,99.81,75.76,66,1016,30.0,WSW,245,8.81,12.17,0.69,0.03,0.69,0.03,62,16.0,9.942,59,Scattered Storms,Scattered Storms,1015.1,29.98,KPAM
1689271200,2023-07-13T13:00:00-05:00,31.48,88.66,99.14,75.34,65,1015,29.97,WSW,240,9.46,13.94,0.69,0.03,0.69,0.03,51,16.0,9.942,63,Chance of Storms,Chance of Storms,1014.1,29.95,KPAM
1689274800,2023-07-13T14:00:00-05:00,31.35,88.43,99.18,75.65,66,1015,29.97,WSW,244,12.03,16.51,0.08,0.0,0.08,0.0,51,16.0,9.942,56,Chance of Storms,Chance of Storms,1014.1,29.95,KPAM
1689278400,2023-07-13T15:00:00-05:00,31.6,88.88,101.1,76.68,67,1014,29.94,WSW,240,12.03,16.51,0.08,0.0,0.08,0.0,51,16.0,9.942,59,Chance of Storms,Chance of Storms,1013.1,29.92,KPAM
1689282000,2023-07-13T16:00:00-05:00,31.55,88.79,100.51,76.32,67,1014,29.94,WSW,240,10.07,14.54,0.08,0.0,0.08,0.0,40,16.0,9.942,62,Chance of Storms,Chance of Storms,1013.1,29.92,KPAM
1689285600,2023-07-13T17:00:00-05:00,31.41,88.54,99.99,76.19,67,1014,29.94,WSW,249,10.47,14.94,0.08,0.0,0.08,0.0,40,16.0,9.942,71,Chance of Storms,Chance of Storms,1013.1,29.92,KPAM
1689289200,2023-07-13T18:00:00-05:00,30.35,86.63,97.1,76.1,71,1013,29.91,WSW,250,8.95,13.42,0.08,0.0,0.08,0.0,40,16.0,9.942,69,Chance of Storms,Chance of Storms,1012.1,29.89,KPAM
1689292800,2023-07-13T19:00:00-05:00,29.45,85.01,94.26,75.76,74,1014,29.94,W,260,8.23,11.59,0.08,0.0,0.08,0.0,10,16.0,9.942,62,Rain Showers,Rain Showers,1013.1,29.92,KPAM
1689296400,2023-07-13T20:00:00-05:00,28.8,83.84,92.88,76.32,78,1014,29.94,WSW,251,6.96,9.19,0.04,0.0,0.04,0.0,10,16.0,9.942,62,Rain Showers,Rain Showers,1013.1,29.92,KPAM
1689300000,2023-07-13T21:00:00-05:00,27.23,81.01,87.6,76.32,86,1014,29.94,SW,231,6.71,8.95,0.04,0.0,0.04,0.0,10,15.821,9.831,52,Rain Showers,Rain Showers,1013.1,29.92,KPAM
1689303600,2023-07-13T22:00:00-05:00,26.82,80.28,85.83,75.87,86,1014,29.94,SW,235,4.47,6.71,0.04,0.0,0.04,0.0,18,15.82,9.83,41,Isolated Storms,Isolated Storms,1013.1,29.92,KPAM
1689307200,2023-07-13T23:00:00-05:00,26.76,80.17,85.6,75.87,87,1014,29.94,SW,236,4.0,6.24,0.04,0.0,0.04,0.0,18,15.838,9.841,39,Isolated Storms,Isolated Storms,1013.1,29.92,KPAM
1689310800,2023-07-14T00:00:00-05:00,26.76,80.17,85.75,76.21,88,1014,29.94,SW,230,3.89,6.13,0.04,0.0,0.04,0.0,18,15.951,9.911,36,Isolated Storms,Isolated Storms,1013.1,29.92,KPAM
1689314400,2023-07-14T01:00:00-05:00,26.18,79.12,79.12,75.65,89,1014,29.94,SW,230,5.12,7.11,0.04,0.0,0.04,0.0,35,15.958,9.916,31,Isolated Storms,Isolated Storms,1013.1,29.92,KPAM
1689318000,2023-07-14T02:00:00-05:00,26.06,78.91,78.91,75.78,90,1014,29.94,WSW,240,4.47,6.71,1.2,0.05,1.2,0.05,35,15.985,9.932,34,Chance of Storms,Chance of Storms,1013.1,29.92,KPAM
1689321600,2023-07-14T03:00:00-05:00,25.89,78.6,78.6,75.65,91,1014,29.94,WSW,249,4.88,7.11,1.2,0.05,1.2,0.05,35,15.958,9.916,49,Chance of Storms,Chance of Storms,1013.1,29.92,KPAM
1689325200,2023-07-14T04:00:00-05:00,26.06,78.91,78.91,76.68,93,1014,29.94,WSW,250,5.12,7.87,1.2,0.05,1.2,0.05,43,15.985,9.932,46,Chance of Storms,Chance of Storms,1013.1,29.92,KPAM
1689328800,2023-07-14T05:00:00-05:00,26.74,80.13,85.21,75.13,85,1014,29.94,WSW,255,5.12,7.36,1.2,0.05,1.2,0.05,43,15.957,9.915,53,Chance of Storms,Chance of Storms,1013.1,29.92,KPAM
1689332400,2023-07-14T06:00:00-05:00,26.74,80.13,85.43,75.65,86,1015,29.97,W,260,4.99,7.23,1.2,0.05,1.2,0.05,43,15.816,9.827,54,Chance of Storms,Chance of Storms,1014.1,29.95,KPAM
1689336000,2023-07-14T07:00:00-05:00,26.52,79.74,79.74,76.1,89,1015,29.97,W,260,4.47,6.71,1.2,0.05,1.2,0.05,66,15.332,9.527,50,Scattered Storms,Scattered Storms,1014.1,29.95,KPAM
1689339600,2023-07-14T08:00:00-05:00,27.57,81.63,88.83,76.32,84,1015,29.97,WSW,255,5.32,7.56,0.18,0.01,0.18,0.01,66,15.287,9.499,58,Scattered Storms,Scattered Storms,1014.1,29.95,KPAM
1689256800,2023-07-13T10:00:00-04:00,29.5,85.1,94.75,76.1,75,1016,30.0,W,280,6.71,10.07,0.0,0.0,0.0,0.0,0,16.0,9.942,29,Mostly Sunny,Mostly Sunny,1009.5,29.81,KLCQ
1689260400,2023-07-13T11:00:00-04:00,31.2,88.16,99.34,76.1,68,1016,30.0,WNW,282,7.83,12.3,0.0,0.0,0.0,0.0,0,16.0,9.942,35,Partly Cloudy,Partly Cloudy,1009.5,29.81,KLCQ
1689264000,2023-07-13T12:00:00-04:00,31.7,89.06,100.62,76.1,66,1016,30.0,W,280,7.83,12.3,0.07,0.0,0.07,0.0,19,15.955,9.914,38,Isolated Storms,Isolated Storms,1009.5,29.81,KLCQ
1689267600,2023-07-13T13:00:00-04:00,32.7,90.86,101.5,74.84,60,1015,29.97,W,270,7.83,12.3,0.07,0.0,0.07,0.0,23,16.0,9.942,45,Isolated Storms,Isolated Storms,1008.6,29.78,KLCQ
1689271200,2023-07-13T14:00:00-04:00,33.7,92.66,103.88,74.84,56,1014,29.94,W,260,7.83,12.3,0.07,0.0,0.07,0.0,31,16.0,9.942,55,Chance of Storms,Chance of Storms,1007.6,29.75,KLCQ
1689274800,2023-07-13T15:00:00-04:00,33.8,92.84,103.53,74.37,55,1014,29.94,W,260,8.61,13.09,0.71,0.03,0.71,0.03,48,16.0,9.942,50,Chance of Storms,Chance of Storms,1007.6,29.75,KLCQ
1689278400,2023-07-13T16:00:00-04:00,33.7,92.66,103.88,74.84,56,1013,29.91,W,260,8.95,13.42,0.71,0.03,0.71,0.03,61,16.0,9.942,55,Scattered Storms,Scattered Storms,1006.6,29.72,KLCQ
1689282000,2023-07-13T17:00:00-04:00,32.7,90.86,100.65,74.12,58,1013,29.91,WSW,254,8.95,13.42,0.71,0.03,0.71,0.03,57,16.0,9.942,63,Scattered Storms,Scattered Storms,1006.6,29.72,KLCQ
1689285600,2023-07-13T18:00:00-04:00,32.2,89.96,100.31,74.84,61,1013,29.91,WSW,250,8.95,13.42,0.71,0.03,0.71,0.03,44,16.0,9.942,62,Chance of Storms,Chance of Storms,1006.6,29.72,KLCQ
1689289200,2023-07-13T19:00:00-04:00,30.78,87.4,96.83,74.84,66,1013,29.91,WSW,250,7.83,12.3,0.71,0.03,0.71,0.03,39,16.0,9.942,60,Chance of Storms,Chance of Storms,1006.5,29.72,KLCQ
1689292800,2023-07-13T20:00:00-04:00,29.5,85.1,93.51,74.84,71,1014,29.94,WSW,250,5.59,8.95,0.71,0.03,0.71,0.03,30,16.0,9.942,63,Chance of Storms,Chance of Storms,1007.5,29.75,KLCQ
1689296400,2023-07-13T21:00:00-04:00,27.2,80.96,86.67,74.84,82,1014,29.94,WSW,240,4.47,6.71,0.22,0.01,0.22,0.01,20,15.997,9.94,59,Isolated Storms,Isolated Storms,1007.4,29.75,KLCQ
1689300000,2023-07-13T22:00:00-04:00,26.7,80.06,84.94,74.84,84,1014,29.94,SW,230,3.36,5.59,0.22,0.01,0.22,0.01,14,16.0,9.942,55,Rain Showers,Rain Showers,1007.4,29.75,KLCQ
1689303600,2023-07-13T23:00:00-04:00,25.88,78.58,78.58,74.12,86,1015,29.97,SW,215,3.36,5.59,0.22,0.01,0.22,0.01,11,16.0,9.942,54,Rain Showers,Rain Showers,1008.4,29.78,KLCQ
1689307200,2023-07-14T00:00:00-04:00,25.0,77.0,77.0,74.12,91,1015,29.97,SSW,210,3.36,5.59,0.0,0.0,0.0,0.0,0,16.0,9.942,50,Partly Cloudy,Partly Cloudy,1008.4,29.78,KLCQ
1689310800,2023-07-14T01:00:00-04:00,24.5,76.1,76.1,74.12,94,1014,29.94,SW,215,3.36,5.59,0.0,0.0,0.0,0.0,0,16.0,9.942,49,Partly Cloudy,Partly Cloudy,1007.4,29.75,KLCQ
1689314400,2023-07-14T02:00:00-04:00,23.8,74.84,74.84,74.12,98,1014,29.94,SW,220,3.36,5.59,0.0,0.0,0.0,0.0,0,16.0,9.942,43,Partly Cloudy,Partly Cloudy,1007.4,29.75,KLCQ
1689318000,2023-07-14T03:00:00-04:00,23.4,74.12,74.12,74.12,100,1014,29.94,SW,220,2.24,3.36,0.0,0.0,0.0,0.0,0,15.089,9.376,38,Partly Cloudy,Partly Cloudy,1007.4,29.75,KLCQ
1689321600,2023-07-14T04:00:00-04:00,23.4,74.12,74.12,74.12,100,1014,29.94,SW,230,2.24,3.36,0.0,0.0,0.0,0.0,0,15.003,9.322,40,Partly Cloudy,Partly Cloudy,1007.4,29.75,KLCQ
1689325200,2023-07-14T05:00:00-04:00,22.7,72.86,72.86,72.86,100,1014,29.94,WSW,237,2.24,3.36,0.0,0.0,0.0,0.0,0,13.323,8.278,43,Partly Cloudy,Partly Cloudy,1007.4,29.75,KLCQ
1689328800,2023-07-14T06:00:00-04:00,22.7,72.86,72.86,72.86,100,1014,29.94,WSW,240,2.24,3.36,0.0,0.0,0.0,0.0,0,14.243,8.85,48,Partly Cloudy,Partly Cloudy,1007.4,29.75,KLCQ
1689332400,2023-07-14T07:00:00-04:00,22.7,72.86,72.86,72.86,100,1015,29.97,SW,230,2.24,3.36,0.0,0.0,0.0,0.0,0,13.112,8.147,46,Partly Cloudy,Partly Cloudy,1008.3,29.78,KLCQ
1689336000,2023-07-14T08:00:00-04:00,24.5,76.1,76.1,75.88,99,1015,29.97,WSW,240,3.36,5.59,0.0,0.0,0.0,0.0,0,16.0,9.942,48,Partly Cloudy,Partly Cloudy,1008.4,29.78,KLCQ
1689339600,2023-07-14T09:00:00-04:00,27.2,80.96,87.9,77.0,88,1016,30.0,WSW,248,4.47,6.71,0.25,0.01,0.25,0.01,24,16.0,9.942,47,Isolated Storms,Isolated Storms,1009.4,29.81,KLCQ
1689256800,2023-07-13T10:00:00-04:00,30.0,86.0,97.06,76.91,74,1016,30.0,W,260,8.25,12.73,0.0,0.0,0.0,0.0,0,16.0,9.942,22,Mostly Sunny,Mostly Sunny,1015.4,29.99,KNIP
1689260400,2023-07-13T11:00:00-04:00,32.01,89.62,101.77,76.39,65,1016,30.0,W,270,7.83,12.3,0.0,0.0,0.0,0.0,0,16.0,9.942,27,Mostly Sunny,Mostly Sunny,1015.4,29.99,KNIP
1689264000,2023-07-13T12:00:00-04:00,33.3,91.94,104.57,76.1,60,1015,29.97,WSW,251,8.37,12.84,0.0,0.0,0.0,0.0,0,16.0,9.942,34,Partly Cloudy,Partly Cloudy,1014.4,29.96,KNIP
1689267600,2023-07-13T13:00:00-04:00,33.61,92.5,105.12,75.96,59,1015,29.97,SW,226,8.95,13.42,0.07,0.0,0.07,0.0,24,16.0,9.942,45,Isolated Storms,Isolated Storms,1014.4,29.96,KNIP
1689271200,2023-07-13T14:00:00-04:00,33.61,92.5,104.17,75.24,57,1014,29.94,SSW,206,8.95,13.42,0.07,0.0,0.07,0.0,35,16.0,9.942,52,Chance of Storms,Chance of Storms,1013.4,29.93,KNIP
1689274800,2023-07-13T15:00:00-04:00,33.61,92.5,103.66,74.84,57,1014,29.94,S,186,9.48,14.5,2.0,0.08,2.0,0.08,48,16.0,9.942,57,Chance of Storms,Chance of Storms,1013.4,29.93,KNIP
1689278400,2023-07-13T16:00:00-04:00,33.07,91.53,103.16,75.45,60,1013,29.91,S,170,10.07,15.66,2.0,0.08,2.0,0.08,59,16.0,9.942,61,Scattered Storms,Scattered Storms,1012.4,29.9,KNIP
1689282000,2023-07-13T17:00:00-04:00,32.7,90.86,103.1,76.1,62,1013,29.91,S,169,10.6,16.2,2.0,0.08,2.0,0.08,59,16.0,9.942,71,Scattered Storms,Scattered Storms,1012.4,29.9,KNIP
1689285600,2023-07-13T18:00:00-04:00,31.7,89.06,100.62,76.1,66,1013,29.91,S,170,11.18,16.78,2.0,0.08,2.0,0.08,53,16.0,9.942,73,Chance of Storms,Chance of Storms,1012.4,29.9,KNIP
1689289200,2023-07-13T19:00:00-04:00,30.6,87.08,97.77,76.1,70,1013,29.91,S,170,11.54,17.47,2.0,0.08,2.0,0.08,44,16.0,9.942,74,Chance of Storms,Chance of Storms,1012.4,29.9,KNIP
1689292800,2023-07-13T20:00:00-04:00,29.5,85.1,94.75,76.1,75,1014,29.94,S,180,10.13,15.73,2.0,0.08,2.0,0.08,33,15.81,9.824,73,Chance of Storms,Chance of Storms,1013.4,29.93,KNIP
1689296400,2023-07-13T21:00:00-04:00,27.7,81.86,89.14,76.1,83,1014,29.94,S,180,8.25,12.73,0.39,0.02,0.39,0.02,21,15.977,9.928,70,Isolated Storms,Isolated Storms,1013.4,29.93,KNIP
1689300000,2023-07-13T22:00:00-04:00,27.2,80.96,87.37,76.1,85,1014,29.94,S,180,7.83,12.3,0.39,0.02,0.39,0.02,15,16.0,9.942,66,Isolated Storms,Isolated Storms,1013.4,29.93,KNIP
1689303600,2023-07-13T23:00:00-04:00,26.7,80.06,85.47,76.1,88,1015,29.97,S,190,7.14,10.92,0.39,0.02,0.39,0.02,12,16.0,9.942,58,Isolated Showers,Isolated Showers,1014.4,29.96,KNIP
1689307200,2023-07-14T00:00:00-04:00,26.7,80.06,85.47,76.1,88,1015,29.97,S,190,7.07,10.76,0.39,0.02,0.39,0.02,11,16.0,9.942,56,Isolated Showers,Isolated Showers,1014.4,29.96,KNIP
1689310800,2023-07-14T01:00:00-04:00,26.2,79.16,79.16,75.31,88,1015,29.97,SSW,210,6.71,10.07,0.39,0.02,0.39,0.02,10,16.0,9.942,54,Isolated Showers,Isolated Showers,1014.4,29.96,KNIP
1689314400,2023-07-14T02:00:00-04:00,25.6,78.08,78.08,74.84,90,1014,29.94,SSW,210,6.71,10.07,0.0,0.0,0.0,0.0,0,16.0,9.942,56,Partly Cloudy,Partly Cloudy,1013.4,29.93,KNIP
1689318000,2023-07-14T03:00:00-04:00,25.6,78.08,78.08,75.45,92,1014,29.94,SSW,210,6.02,9.37,0.0,0.0,0.0,0.0,0,16.0,9.942,49,Partly Cloudy,Partly Cloudy,1013.4,29.93,KNIP
1689321600,2023-07-14T04:00:00-04:00,25.6,78.08,78.08,74.93,90,1014,29.94,SW,220,5.59,8.95,0.0,0.0,0.0,0.0,0,16.0,9.942,47,Partly Cloudy,Partly Cloudy,1013.4,29.93,KNIP
1689325200,2023-07-14T05:00:00-04:00,25.0,77.0,77.0,74.84,93,1014,29.94,SW,220,4.9,7.56,0.0,0.0,0.0,0.0,0,16.0,9.942,45,Partly Cloudy,Partly Cloudy,1013.4,29.93,KNIP
1689328800,2023-07-14T06:00:00-04:00,25.0,77.0,77.0,75.31,95,1014,29.94,SW,230,5.01,7.78,0.0,0.0,0.0,0.0,0,16.0,9.942,47,Partly Cloudy,Partly Cloudy,1013.4,29.93,KNIP
1689332400,2023-07-14T07:00:00-04:00,25.0,77.0,77.0,74.84,93,1015,29.97,SW,236,5.01,7.78,0.0,0.0,0.0,0.0,0,16.0,9.942,44,Partly Cloudy,Partly Cloudy,1014.4,29.96,KNIP
1689336000,2023-07-14T08:00:00-04:00,25.6,78.08,78.08,76.1,94,1015,29.97,WSW,240,5.59,8.95,0.0,0.0,0.0,0.0,0,16.0,9.942,39,Partly Cloudy,Partly Cloudy,1014.4,29.96,KNIP
1689339600,2023-07-14T09:00:00-04:00,27.7,81.86,89.14,76.1,83,1015,29.97,WSW,240,7.14,10.92,0.07,0.0,0.07,0.0,19,16.0,9.942,38,Isolated Storms,Isolated Storms,1014.4,29.96,KNIP
1689256800,2023-07-13T10:00:00-04:00,30.6,87.08,98.07,76.35,71,1016,30.0,W,270,7.02,10.67,0.0,0.0,0.0,0.0,0,16.0,9.942,22,Mostly Sunny,Mostly Sunny,1015.4,29.99,KCRG
1689260400,2023-07-13T11:00:00-04:00,32.56,90.61,102.76,76.1,63,1016,30.0,W,280,7.02,10.67,0.0,0.0,0.0,0.0,0,16.0,9.942,26,Mostly Sunny,Mostly Sunny,1015.4,29.99,KCRG
1689264000,2023-07-13T12:00:00-04:00,33.3,91.94,104.57,76.1,60,1015,29.97,W,260,7.83,12.3,0.0,0.0,0.0,0.0,0,16.0,9.942,32,Partly Cloudy,Partly Cloudy,1014.4,29.96,KCRG
1689267600,2023-07-13T13:00:00-04:00,33.64,92.55,105.39,76.1,59,1015,29.97,S,177,7.83,12.3,0.07,0.0,0.07,0.0,22,16.0,9.942,43,Isolated Storms,Isolated Storms,1014.4,29.96,KCRG
1689271200,2023-07-13T14:00:00-04:00,33.64,92.55,105.39,76.1,59,1015,29.97,SE,139,8.14,12.62,0.07,0.0,0.07,0.0,29,16.0,9.942,49,Chance of Storms,Chance of Storms,1014.4,29.96,KCRG
1689274800,2023-07-13T15:00:00-04:00,33.29,91.92,104.54,76.1,60,1014,29.94,SE,140,9.26,14.03,1.58,0.06,1.58,0.06,42,16.0,9.942,53,Chance of Storms,Chance of Storms,1013.4,29.93,KCRG
1689278400,2023-07-13T16:00:00-04:00,32.69,90.84,103.08,76.1,62,1014,29.94,SE,140,10.09,15.68,1.58,0.06,1.58,0.06,50,16.0,9.942,60,Chance of Storms,Chance of Storms,1013.4,29.93,KCRG
1689282000,2023-07-13T17:00:00-04:00,32.04,89.67,101.47,76.1,64,1013,29.91,SE,140,10.42,16.02,1.58,0.06,1.58,0.06,50,16.0,9.942,66,Chance of Storms,Chance of Storms,1012.4,29.9,KCRG
1689285600,2023-07-13T18:00:00-04:00,31.2,88.16,99.34,76.1,68,1013,29.91,SSE,150,10.42,16.02,1.58,0.06,1.58,0.06,41,16.0,9.942,67,Chance of Storms,Chance of Storms,1012.4,29.9,KCRG
1689289200,2023-07-13T19:00:00-04:00,30.6,87.08,97.77,76.1,70,1013,29.91,S,170,10.07,15.66,1.58,0.06,1.58,0.06,34,16.0,9.942,69,Chance of Storms,Chance of Storms,1012.4,29.9,KCRG
1689292800,2023-07-13T20:00:00-04:00,29.5,85.1,95.04,76.39,75,1014,29.94,S,180,8.14,12.62,1.58,0.06,1.58,0.06,25,15.974,9.926,66,Chance of Storms,Chance of Storms,1013.4,29.93,KCRG
1689296400,2023-07-13T21:00:00-04:00,27.89,82.2,89.78,76.1,82,1014,29.94,S,180,5.91,9.26,0.2,0.01,0.2,0.01,18,16.0,9.942,68,Isolated Storms,Isolated Storms,1013.4,29.93,KCRG
1689300000,2023-07-13T22:00:00-04:00,27.7,81.86,89.14,76.1,83,1014,29.94,S,180,5.61,8.97,0.2,0.01,0.2,0.01,13,16.0,9.942,64,Rain Showers,Rain Showers,1013.4,29.93,KCRG
1689303600,2023-07-13T23:00:00-04:00,27.2,80.96,87.37,76.1,85,1015,29.97,S,190,4.79,7.31,0.2,0.01,0.2,0.01,11,16.0,9.942,54,Rain Showers,Rain Showers,1014.4,29.96,KCRG
1689307200,2023-07-14T00:00:00-04:00,26.7,80.06,85.47,76.1,88,1014,29.94,SSW,200,4.79,7.31,0.0,0.0,0.0,0.0,0,16.0,9.942,50,Partly Cloudy,Partly Cloudy,1013.4,29.93,KCRG
1689310800,2023-07-14T01:00:00-04:00,26.2,79.16,79.16,76.1,90,1015,29.97,SSW,210,4.79,7.31,0.0,0.0,0.0,0.0,0,16.0,9.942,50,Partly Cloudy,Partly Cloudy,1014.4,29.96,KCRG
1689314400,2023-07-14T02:00:00-04:00,25.6,78.08,78.08,75.16,91,1014,29.94,SW,220,4.79,7.31,0.2,0.01,0.2,0.01,11,16.0,9.942,53,Rain Showers,Rain Showers,1013.4,29.93,KCRG
1689318000,2023-07-14T03:00:00-04:00,25.75,78.35,78.35,76.1,93,1014,29.94,SW,220,4.47,6.71,0.0,0.0,0.0,0.0,0,16.0,9.942,49,Partly Cloudy,Partly Cloudy,1013.4,29.93,KCRG
1689321600,2023-07-14T04:00:00-04:00,25.6,78.08,78.08,76.1,94,1014,29.94,SW,220,3.71,5.95,0.0,0.0,0.0,0.0,0,16.0,9.942,47,Partly Cloudy,Partly Cloudy,1013.4,29.93,KCRG
1689325200,2023-07-14T05:00:00-04:00,24.64,76.35,76.35,75.16,96,1014,29.94,SW,223,3.67,5.91,0.0,0.0,0.0,0.0,0,16.0,9.942,46,Partly Cloudy,Partly Cloudy,1013.4,29.93,KCRG
1689328800,2023-07-14T06:00:00-04:00,25.0,77.0,77.0,76.1,97,1014,29.94,SW,230,3.67,5.91,0.0,0.0,0.0,0.0,0,16.0,9.942,48,Partly Cloudy,Partly Cloudy,1013.4,29.93,KCRG
1689332400,2023-07-14T07:00:00-04:00,24.5,76.1,76.1,76.1,100,1015,29.97,WSW,240,3.67,5.91,0.0,0.0,0.0,0.0,0,16.0,9.942,45,Partly Cloudy,Partly Cloudy,1014.4,29.96,KCRG
1689336000,2023-07-14T08:00:00-04:00,26.34,79.41,79.41,76.39,91,1015,29.97,WSW,240,4.47,6.71,0.0,0.0,0.0,0.0,0,16.0,9.942,41,Partly Cloudy,Partly Cloudy,1014.4,29.96,KCRG
1689339600,2023-07-14T09:00:00-04:00,28.4,83.12,92.23,77.0,82,1015,29.97,WSW,240,5.91,9.26,0.07,0.0,0.07,0.0,19,16.0,9.942,38,Isolated Storms,Isolated Storms,1014.4,29.96,KCRG
1689256800,2023-07-13T09:00:00-05:00,29.74,85.53,96.72,77.27,76,1016,30.0,WSW,250,6.13,9.57,0.0,0.0,0.0,0.0,0,16.0,9.942,65,Partly Cloudy,Partly Cloudy,1015.8,30.0,KNPA
1689260400,2023-07-13T10:00:00-05:00,30.85,87.53,99.88,77.27,72,1016,30.0,WSW,250,7.05,10.27,0.0,0.0,0.0,0.0,0,15.301,9.508,73,Mostly Cloudy,Mostly Cloudy,1015.8,30.0,KNPA
1689264000,2023-07-13T11:00:00-05:00,31.31,88.36,101.12,77.27,70,1016,30.0,WSW,243,7.83,11.25,0.63,0.02,0.63,0.02,81,14.133,8.782,73,Scattered Storms,Scattered Storms,1015.8,30.0,KNPA
1689267600,2023-07-13T12:00:00-05:00,31.57,88.83,101.61,77.13,69,1015,29.97,SW,233,8.41,11.39,0.63,0.02,0.63,0.02,81,16.0,9.942,74,Scattered Storms,Scattered Storms,1014.8,29.97,KNPA
1689271200,2023-07-13T13:00:00-05:00,31.27,88.29,100.82,77.13,70,1015,29.97,SW,230,8.61,12.37,0.63,0.02,0.63,0.02,60,16.0,9.942,74,Scattered Storms,Scattered Storms,1014.8,29.97,KNPA
1689274800,2023-07-13T14:00:00-05:00,31.19,88.14,100.61,77.13,70,1014,29.94,SW,230,8.61,12.37,0.27,0.01,0.27,0.01,60,16.0,9.942,76,Scattered Storms,Scattered Storms,1013.8,29.94,KNPA
1689278400,2023-07-13T15:00:00-05:00,30.32,86.58,96.94,76.03,71,1014,29.94,SW,230,8.61,13.42,0.27,0.01,0.27,0.01,60,16.0,9.942,77,Scattered Storms,Scattered Storms,1013.8,29.94,KNPA
1689282000,2023-07-13T16:00:00-05:00,30.18,86.32,96.56,76.03,72,1014,29.94,WSW,240,8.03,13.42,0.27,0.01,0.27,0.01,60,16.0,9.942,79,Scattered Storms,Scattered Storms,1013.8,29.94,KNPA
1689285600,2023-07-13T17:00:00-05:00,30.18,86.32,96.56,76.03,72,1013,29.91,SW,235,7.96,12.3,0.27,0.01,0.27,0.01,60,16.0,9.942,80,Scattered Storms,Scattered Storms,1012.8,29.91,KNPA
1689289200,2023-07-13T18:00:00-05:00,30.36,86.65,98.25,77.05,73,1013,29.91,SW,235,7.76,12.24,0.27,0.01,0.27,0.01,60,16.0,9.942,82,Scattered Storms,Scattered Storms,1012.8,29.91,KNPA
1689292800,2023-07-13T19:00:00-05:00,29.78,85.6,96.59,77.05,76,1013,29.91,SW,235,6.76,11.12,0.27,0.01,0.27,0.01,22,16.0,9.942,83,Isolated Storms,Isolated Storms,1012.8,29.91,KNPA
1689296400,2023-07-13T20:00:00-05:00,27.94,82.29,90.69,77.05,84,1013,29.91,SW,230,6.06,11.12,0.04,0.0,0.04,0.0,22,16.0,9.942,82,Isolated Storms,Isolated Storms,1012.8,29.91,KNPA
1689300000,2023-07-13T21:00:00-05:00,27.33,81.19,88.23,76.73,86,1013,29.91,SW,230,4.94,10.07,0.04,0.0,0.04,0.0,22,15.533,9.652,80,Isolated Storms,Isolated Storms,1012.8,29.91,KNPA
1689303600,2023-07-13T22:00:00-05:00,26.94,80.49,86.72,76.73,88,1013,29.91,SW,230,5.01,10.07,0.04,0.0,0.04,0.0,22,15.497,9.63,78,Isolated Storms,Isolated Storms,1012.8,29.91,KNPA
1689307200,2023-07-13T23:00:00-05:00,26.94,80.49,86.72,76.73,88,1014,29.94,SW,230,5.01,10.6,0.04,0.0,0.04,0.0,22,15.495,9.628,75,Isolated Storms,Isolated Storms,1013.8,29.94,KNPA
1689310800,2023-07-14T00:00:00-05:00,26.77,80.19,86.07,76.8,89,1014,29.94,SW,230,5.59,11.18,0.04,0.0,0.04,0.0,22,15.495,9.628,73,Isolated Storms,Isolated Storms,1013.8,29.94,KNPA
1689314400,2023-07-14T01:00:00-05:00,26.64,79.95,79.95,76.8,90,1014,29.94,SW,230,6.71,11.72,0.04,0.0,0.04,0.0,47,15.495,9.628,70,Chance of Storms,Chance of Storms,1013.8,29.94,KNPA
1689318000,2023-07-14T02:00:00-05:00,26.3,79.34,79.34,76.73,92,1013,29.91,WSW,238,6.38,11.72,2.39,0.09,2.39,0.09,47,15.497,9.63,71,Chance of Storms,Chance of Storms,1012.8,29.91,KNPA
1689321600,2023-07-14T03:00:00-05:00,26.3,79.34,79.34,75.96,89,1013,29.91,WSW,248,5.79,10.6,2.39,0.09,2.39,0.09,47,15.495,9.628,71,Chance of Storms,Chance of Storms,1012.8,29.91,KNPA
1689325200,2023-07-14T04:00:00-05:00,25.31,77.56,77.56,75.88,95,1013,29.91,WSW,250,5.73,10.6,2.39,0.09,2.39,0.09,47,15.508,9.636,72,Chance of Storms,Chance of Storms,1012.8,29.91,KNPA
1689328800,2023-07-14T05:00:00-05:00,24.85,76.73,76.73,75.88,97,1014,29.94,WSW,250,5.01,10.6,2.39,0.09,2.39,0.09,47,15.461,9.607,72,Chance of Storms,Chance of Storms,1013.8,29.94,KNPA
1689332400,2023-07-14T06:00:00-05:00,25.49,77.88,77.88,76.6,96,1014,29.94,WSW,250,4.68,9.48,2.39,0.09,2.39,0.09,47,13.772,8.557,71,Chance of Storms,Chance of Storms,1013.8,29.94,KNPA
1689336000,2023-07-14T07:00:00-05:00,26.41,79.54,79.54,76.6,91,1014,29.94,WSW,250,4.09,9.48,2.39,0.09,2.39,0.09,67,14.322,8.899,71,Scattered Storms,Scattered Storms,1013.8,29.94,KNPA
1689339600,2023-07-14T08:00:00-05:00,28.85,83.93,93.64,76.95,80,1015,29.97,WSW,250,4.68,9.48,3.81,0.15,3.81,0.15,67,14.264,8.863,72,Scattered Storms,Scattered Storms,1014.8,29.97,KNPA
1689256800,2023-07-13T09:00:00-05:00,29.61,85.3,96.84,77.72,78,1016,30.0,WSW,257,4.47,6.71,0.0,0.0,0.0,0.0,0,16.0,9.942,49,Partly Cloudy,Partly Cloudy,1013.4,29.92,KECP
1689260400,2023-07-13T10:00:00-05:00,30.08,86.14,97.89,77.41,75,1016,30.0,WSW,250,5.97,8.21,0.0,0.0,0.0,0.0,0,16.0,9.942,55,Partly Cloudy,Partly Cloudy,1013.4,29.92,KECP
1689264000,2023-07-13T11:00:00-05:00,31.14,88.05,100.85,77.41,71,1016,30.0,WSW,253,5.97,8.21,2.4,0.09,2.4,0.09,65,16.0,9.942,64,Scattered Storms,Scattered Storms,1013.4,29.93,KECP
1689267600,2023-07-13T12:00:00-05:00,31.14,88.05,100.85,77.41,71,1015,29.97,SW,230,7.83,10.45,2.4,0.09,2.4,0.09,65,16.0,9.942,70,Scattered Storms,Scattered Storms,1012.4,29.9,KECP
1689271200,2023-07-13T13:00:00-05:00,31.54,88.77,101.92,77.41,69,1015,29.97,SW,230,8.95,12.3,2.4,0.09,2.4,0.09,55,15.254,9.478,66,Scattered Storms,Scattered Storms,1012.4,29.9,KECP
1689274800,2023-07-13T14:00:00-05:00,31.87,89.37,102.79,77.41,68,1015,29.97,WSW,237,10.07,14.54,0.3,0.01,0.3,0.01,55,16.0,9.942,64,Scattered Storms,Scattered Storms,1012.4,29.9,KECP
1689278400,2023-07-13T15:00:00-05:00,31.71,89.08,102.8,77.72,69,1014,29.94,SW,230,10.45,14.92,0.3,0.01,0.3,0.01,55,16.0,9.942,63,Scattered Storms,Scattered Storms,1011.4,29.87,KECP
1689282000,2023-07-13T16:00:00-05:00,30.41,86.74,98.83,77.41,74,1014,29.94,WSW,237,8.95,12.68,0.3,0.01,0.3,0.01,46,16.0,9.942,66,Chance of Storms,Chance of Storms,1011.4,29.87,KECP
1689285600,2023-07-13T17:00:00-05:00,30.41,86.74,98.83,77.41,74,1013,29.91,WSW,250,10.07,13.8,0.3,0.01,0.3,0.01,46,16.0,9.942,77,Chance of Storms,Chance of Storms,1010.4,29.84,KECP
1689289200,2023-07-13T18:00:00-05:00,30.08,86.14,97.89,77.41,75,1013,29.91,W,260,8.95,12.3,0.3,0.01,0.3,0.01,46,16.0,9.942,74,Chance of Storms,Chance of Storms,1010.4,29.84,KECP
1689292800,2023-07-13T19:00:00-05:00,29.67,85.41,95.87,76.69,75,1014,29.94,W,263,5.59,6.71,0.0,0.0,0.0,0.0,0,16.0,9.942,74,Mostly Cloudy,Mostly Cloudy,1011.4,29.87,KECP
1689296400,2023-07-13T20:00:00-05:00,28.4,83.12,91.95,76.69,81,1013,29.91,SW,230,4.47,6.71,0.0,0.0,0.0,0.0,0,16.0,9.942,70,Mostly Cloudy,Mostly Cloudy,1010.4,29.84,KECP
1689300000,2023-07-13T21:00:00-05:00,26.86,80.35,86.38,76.69,89,1013,29.91,SW,220,4.47,6.71,0.0,0.0,0.0,0.0,0,16.0,9.942,58,Partly Cloudy,Partly Cloudy,1010.4,29.84,KECP
1689303600,2023-07-13T22:00:00-05:00,26.53,79.75,79.75,76.1,89,1014,29.94,SSW,210,3.36,5.59,0.07,0.0,0.07,0.0,15,16.0,9.942,46,Isolated Storms,Isolated Storms,1011.3,29.87,KECP
1689307200,2023-07-13T23:00:00-05:00,26.0,78.8,78.8,76.1,91,1014,29.94,SW,220,4.09,5.95,0.07,0.0,0.07,0.0,15,16.0,9.942,37,Isolated Storms,Isolated Storms,1011.3,29.86,KECP
1689310800,2023-07-14T00:00:00-05:00,26.2,79.16,79.16,76.1,90,1014,29.94,SSW,213,4.09,6.33,0.07,0.0,0.07,0.0,15,16.0,9.942,29,Isolated Storms,Isolated Storms,1011.3,29.87,KECP
1689314400,2023-07-14T01:00:00-05:00,26.0,78.8,78.8,76.1,91,1014,29.94,SW,230,3.36,4.47,0.07,0.0,0.07,0.0,32,16.0,9.942,30,Isolated Storms,Isolated Storms,1011.3,29.86,KECP
1689318000,2023-07-14T02:00:00-05:00,26.0,78.8,78.8,75.27,89,1014,29.94,SW,230,3.36,5.21,3.17,0.12,3.17,0.12,32,16.0,9.942,44,Chance of Storms,Chance of Storms,1011.3,29.86,KECP
1689321600,2023-07-14T03:00:00-05:00,25.21,77.38,77.38,76.1,96,1014,29.94,WSW,240,3.36,4.85,3.17,0.12,3.17,0.12,32,16.0,9.942,48,Chance of Storms,Chance of Storms,1011.3,29.86,KECP
1689325200,2023-07-14T04:00:00-05:00,26.0,78.8,78.8,76.1,91,1014,29.94,WSW,257,3.36,5.59,3.17,0.12,3.17,0.12,41,16.0,9.942,52,Chance of Storms,Chance of Storms,1011.3,29.86,KECP
1689328800,2023-07-14T05:00:00-05:00,25.6,78.08,78.08,74.84,90,1014,29.94,WSW,240,3.36,5.59,3.17,0.12,3.17,0.12,41,16.0,9.942,51,Chance of Storms,Chance of Storms,1011.3,29.86,KECP
1689332400,2023-07-14T06:00:00-05:00,25.2,77.36,77.36,74.84,92,1014,29.94,WSW,250,3.36,5.59,3.17,0.12,3.17,0.12,41,16.0,9.942,45,Chance of Storms,Chance of Storms,1011.3,29.86,KECP
1689336000,2023-07-14T07:00:00-05:00,25.21,77.38,77.38,76.1,96,1015,29.97,W,260,3.36,5.59,3.17,0.12,3.17,0.12,66,16.0,9.942,51,Scattered Storms,Scattered Storms,1012.3,29.89,KECP
1689339600,2023-07-14T08:00:00-05:00,26.87,80.37,86.95,77.72,92,1015,29.97,WSW,243,4.47,6.71,0.22,0.01,0.22,0.01,66,16.0,9.942,61,Scattered Storms,Scattered Storms,1012.3,29.89,KECP
1689256800,2023-07-13T09:00:00-05:00,30.27,86.49,97.59,76.71,73,1016,30.0,W,260,5.3,9.55,0.08,0.0,0.08,0.0,17,16.0,9.942,62,Rain Showers,Rain Showers,1015.2,29.98,KDTS
1689260400,2023-07-13T10:00:00-05:00,30.6,87.08,98.5,76.71,71,1016,30.0,W,260,5.82,10.07,20.08,0.79,20.08,0.79,70,16.0,9.942,62,Isolated Storms,Isolated Storms,1015.2,29.98,KDTS
1689264000,2023-07-13T11:00:00-05:00,30.76,87.37,98.93,76.71,71,1016,30.0,WSW,250,6.42,11.18,0.22,0.01,0.22,0.01,77,16.0,9.942,68,Scattered Storms,Scattered Storms,1015.2,29.98,KDTS
1689267600,2023-07-13T12:00:00-05:00,30.6,87.08,98.5,76.71,71,1016,30.0,WSW,240,7.54,12.01,0.22,0.01,0.22,0.01,77,14.602,9.073,75,Scattered Storms,Scattered Storms,1015.2,29.98,KDTS
1689271200,2023-07-13T13:00:00-05:00,31.36,88.45,100.52,76.71,68,1015,29.97,SW,230,8.59,13.13,0.22,0.01,0.22,0.01,59,16.0,9.942,82,Scattered Storms,Scattered Storms,1014.2,29.95,KDTS
1689274800,2023-07-13T14:00:00-05:00,31.36,88.45,100.52,76.71,68,1014,29.94,SW,230,8.59,13.42,0.18,0.01,0.18,0.01,59,16.0,9.942,80,Scattered Storms,Scattered Storms,1013.2,29.92,KDTS
1689278400,2023-07-13T15:00:00-05:00,31.36,88.45,101.45,77.41,70,1014,29.94,SW,230,8.43,14.25,0.18,0.01,0.18,0.01,59,16.0,9.942,77,Scattered Storms,Scattered Storms,1013.2,29.92,KDTS
1689282000,2023-07-13T16:00:00-05:00,31.36,88.45,101.45,77.41,70,1014,29.94,SW,230,8.43,14.54,0.18,0.01,0.18,0.01,59,16.0,9.942,75,Scattered Storms,Scattered Storms,1013.2,29.92,KDTS
1689285600,2023-07-13T17:00:00-05:00,30.27,86.49,98.19,77.22,74,1013,29.91,SW,230,7.31,13.42,0.18,0.01,0.18,0.01,59,16.0,9.942,76,Scattered Storms,Scattered Storms,1012.2,29.89,KDTS
1689289200,2023-07-13T18:00:00-05:00,29.77,85.59,95.92,76.48,74,1013,29.91,SW,230,7.02,12.39,0.18,0.01,0.18,0.01,59,16.0,9.942,78,Scattered Storms,Scattered Storms,1012.2,29.89,KDTS
1689292800,2023-07-13T19:00:00-05:00,29.12,84.42,93.82,76.28,77,1013,29.91,WSW,240,6.2,11.27,0.18,0.01,0.18,0.01,15,16.0,9.942,79,Isolated Storms,Isolated Storms,1012.2,29.89,KDTS
1689296400,2023-07-13T20:00:00-05:00,28.87,83.97,93.06,76.28,78,1013,29.91,SW,230,5.68,10.67,0.07,0.0,0.07,0.0,15,16.0,9.942,72,Isolated Storms,Isolated Storms,1012.2,29.89,KDTS
1689300000,2023-07-13T21:00:00-05:00,27.83,82.09,90.03,76.71,84,1013,29.91,SW,230,5.08,10.16,0.07,0.0,0.07,0.0,15,16.0,9.942,65,Isolated Storms,Isolated Storms,1012.2,29.89,KDTS
1689303600,2023-07-13T22:00:00-05:00,28.13,82.63,91.07,76.71,82,1014,29.94,SW,230,5.08,9.55,0.07,0.0,0.07,0.0,15,16.0,9.942,57,Isolated Storms,Isolated Storms,1013.2,29.92,KDTS
1689307200,2023-07-13T23:00:00-05:00,27.83,82.09,90.03,76.71,84,1014,29.94,SW,230,4.47,9.55,0.07,0.0,0.07,0.0,15,16.0,9.942,61,Isolated Storms,Isolated Storms,1013.2,29.92,KDTS
1689310800,2023-07-14T00:00:00-05:00,27.33,81.19,87.95,76.28,85,1014,29.94,WSW,240,4.47,9.55,0.07,0.0,0.07,0.0,15,16.0,9.942,64,Isolated Storms,Isolated Storms,1013.2,29.92,KDTS
1689314400,2023-07-14T01:00:00-05:00,27.2,80.96,87.47,76.28,86,1014,29.94,WSW,240,5.08,9.55,0.07,0.0,0.07,0.0,42,16.0,9.942,68,Chance of Storms,Chance of Storms,1013.2,29.92,KDTS
1689318000,2023-07-14T02:00:00-05:00,27.33,81.19,87.95,76.28,85,1014,29.94,WSW,240,4.47,9.55,0.75,0.03,0.75,0.03,42,16.0,9.942,69,Chance of Storms,Chance of Storms,1013.2,29.92,KDTS
1689321600,2023-07-14T03:00:00-05:00,27.2,80.96,87.9,77.0,88,1014,29.94,WSW,243,4.47,9.1,0.75,0.03,0.75,0.03,42,15.164,9.423,71,Chance of Storms,Chance of Storms,1013.2,29.92,KDTS
1689325200,2023-07-14T04:00:00-05:00,26.47,79.65,79.65,77.0,92,1014,29.94,WSW,250,4.47,9.1,0.75,0.03,0.75,0.03,42,16.0,9.942,73,Chance of Storms,Chance of Storms,1013.2,29.92,KDTS
1689328800,2023-07-14T05:00:00-05:00,27.14,80.85,87.66,77.0,88,1014,29.94,WSW,250,4.47,9.26,0.75,0.03,0.75,0.03,42,15.071,9.365,76,Chance of Storms,Chance of Storms,1013.2,29.92,KDTS
1689332400,2023-07-14T06:00:00-05:00,26.2,79.16,79.16,77.22,94,1014,29.94,W,260,4.47,9.62,0.75,0.03,0.75,0.03,42,14.73,9.153,80,Chance of Storms,Chance of Storms,1013.2,29.92,KDTS
1689336000,2023-07-14T07:00:00-05:00,27.52,81.54,89.27,77.22,87,1014,29.94,W,263,5.08,9.78,0.75,0.03,0.75,0.03,69,14.389,8.941,83,Scattered Storms,Scattered Storms,1013.2,29.92,KDTS
1689339600,2023-07-14T08:00:00-05:00,29.1,84.38,94.7,77.22,79,1015,29.97,W,260,5.08,9.78,4.08,0.16,4.08,0.16,69,12.407,7.709,84,Scattered Storms,Scattered Storms,1014.2,29.95,KDTS
1689256800,2023-07-13T09:00:00-05:00,29.7,85.46,95.31,76.1,74,1016,30.0,WSW,256,5.59,10.07,10.48,0.41,10.48,0.41,70,16.0,9.942,62,Isolated Storms,Isolated Storms,1015.2,29.98,KHRT
1689260400,2023-07-13T10:00:00-05:00,30.49,86.88,97.48,76.1,70,1016,30.0,WSW,256,6.24,10.07,0.83,0.03,0.83,0.03,17,16.0,9.942,66,Isolated Showers,Isolated Showers,1015.2,29.98,KHRT
1689264000,2023-07-13T11:00:00-05:00,31.2,88.16,99.34,76.1,68,1016,30.0,WSW,250,6.71,11.18,0.26,0.01,0.26,0.01,76,16.0,9.942,69,Scattered Storms,Scattered Storms,1015.2,29.98,KHRT
1689267600,2023-07-13T12:00:00-05:00,31.7,89.06,101.78,77.0,68,1015,29.97,WSW,240,7.83,12.3,0.26,0.01,0.26,0.01,76,15.602,9.695,72,Scattered Storms,Scattered Storms,1014.2,29.95,KHRT
1689271200,2023-07-13T13:00:00-05:00,31.7,89.06,101.78,77.0,68,1015,29.97,WSW,240,8.3,13.42,0.26,0.01,0.26,0.01,62,16.0,9.942,75,Scattered Storms,Scattered Storms,1014.2,29.95,KHRT
1689274800,2023-07-13T14:00:00-05:00,31.69,89.04,101.76,77.0,68,1014,29.94,SW,236,8.3,13.42,0.14,0.01,0.14,0.01,62,16.0,9.942,78,Scattered Storms,Scattered Storms,1013.2,29.92,KHRT
1689278400,2023-07-13T15:00:00-05:00,31.25,88.25,100.14,76.64,69,1014,29.94,SW,236,8.95,13.89,0.14,0.01,0.14,0.01,62,16.0,9.942,81,Scattered Storms,Scattered Storms,1013.2,29.92,KHRT
1689282000,2023-07-13T16:00:00-05:00,30.94,87.69,99.32,76.64,70,1014,29.94,SW,236,8.93,13.89,0.14,0.01,0.14,0.01,62,16.0,9.942,83,Scattered Storms,Scattered Storms,1013.2,29.92,KHRT
1689285600,2023-07-13T17:00:00-05:00,29.99,85.98,96.72,76.64,74,1013,29.91,SW,230,7.83,12.77,0.14,0.01,0.14,0.01,62,16.0,9.942,82,Scattered Storms,Scattered Storms,1012.2,29.89,KHRT
1689289200,2023-07-13T18:00:00-05:00,29.22,84.6,93.47,75.61,75,1013,29.91,SW,230,7.83,12.3,0.14,0.01,0.14,0.01,62,16.0,9.942,81,Scattered Storms,Scattered Storms,1012.2,29.89,KHRT
1689292800,2023-07-13T19:00:00-05:00,29.2,84.56,93.41,75.61,75,1013,29.91,SW,230,6.71,11.18,0.14,0.01,0.14,0.01,18,16.0,9.942,79,Isolated Storms,Isolated Storms,1012.2,29.89,KHRT
1689296400,2023-07-13T20:00:00-05:00,27.98,82.36,89.72,75.61,80,1013,29.91,SW,230,6.26,11.18,0.1,0.0,0.1,0.0,18,16.0,9.942,74,Isolated Storms,Isolated Storms,1012.2,29.89,KHRT
1689300000,2023-07-13T21:00:00-05:00,27.49,81.48,88.09,75.6,82,1013,29.91,WSW,240,5.61,10.07,0.1,0.0,0.1,0.0,18,16.0,9.942,68,Isolated Storms,Isolated Storms,1012.2,29.89,KHRT
1689303600,2023-07-13T22:00:00-05:00,27.2,80.96,87.08,75.6,84,1014,29.94,WSW,240,5.61,10.07,0.1,0.0,0.1,0.0,18,15.716,9.765,63,Isolated Storms,Isolated Storms,1013.2,29.92,KHRT
1689307200,2023-07-13T23:00:00-05:00,26.5,79.7,79.7,75.6,87,1014,29.94,WSW,240,5.14,10.07,0.1,0.0,0.1,0.0,18,15.7,9.755,66,Isolated Storms,Isolated Storms,1013.2,29.92,KHRT
1689310800,2023-07-14T00:00:00-05:00,26.5,79.7,79.7,76.1,89,1014,29.94,SW,230,5.14,10.07,0.1,0.0,0.1,0.0,18,15.896,9.877,70,Isolated Storms,Isolated Storms,1013.2,29.92,KHRT
1689314400,2023-07-14T01:00:00-05:00,26.5,79.7,79.7,76.1,89,1014,29.94,SW,230,5.59,10.07,0.1,0.0,0.1,0.0,43,15.965,9.92,74,Chance of Storms,Chance of Storms,1013.2,29.92,KHRT
1689318000,2023-07-14T02:00:00-05:00,25.61,78.1,78.1,76.1,94,1014,29.94,SW,230,4.94,10.07,1.77,0.07,1.77,0.07,43,15.804,9.82,75,Chance of Storms,Chance of Storms,1013.2,29.92,KHRT
1689321600,2023-07-14T03:00:00-05:00,26.24,79.23,79.23,75.6,89,1014,29.94,WSW,240,4.94,10.07,1.77,0.07,1.77,0.07,43,15.732,9.776,76,Chance of Storms,Chance of Storms,1013.2,29.92,KHRT
1689325200,2023-07-14T04:00:00-05:00,25.6,78.08,78.08,75.6,92,1014,29.94,WSW,246,5.59,10.07,1.77,0.07,1.77,0.07,43,15.731,9.775,77,Chance of Storms,Chance of Storms,1013.2,29.92,KHRT
1689328800,2023-07-14T05:00:00-05:00,24.8,76.64,76.64,75.6,97,1014,29.94,WSW,250,5.14,10.07,1.77,0.07,1.77,0.07,43,15.689,9.749,76,Chance of Storms,Chance of Storms,1013.2,29.92,KHRT
1689332400,2023-07-14T06:00:00-05:00,25.0,77.0,77.0,76.1,97,1014,29.94,W,260,5.14,10.07,1.77,0.07,1.77,0.07,43,15.689,9.749,75,Chance of Storms,Chance of Storms,1013.2,29.92,KHRT
1689336000,2023-07-14T07:00:00-05:00,25.84,78.51,78.51,76.1,92,1014,29.94,W,260,5.14,10.07,1.77,0.07,1.77,0.07,68,15.687,9.748,75,Scattered Storms,Scattered Storms,1013.2,29.92,KHRT
1689339600,2023-07-14T08:00:00-05:00,27.0,80.6,86.62,76.1,86,1015,29.97,W,260,5.14,10.07,0.87,0.03,0.87,0.03,68,15.262,9.483,77,Scattered Storms,Scattered Storms,1014.2,29.95,KHRT
1689256800,2023-07-13T09:00:00-05:00,29.73,85.51,96.0,76.66,75,1016,30.0,WSW,250,6.02,8.95,0.0,0.0,0.0,0.0,0,16.0,9.942,67,Partly Cloudy,Partly Cloudy,1012.5,29.9,KPNS
1689260400,2023-07-13T10:00:00-05:00,30.47,86.85,98.08,76.66,72,1016,30.0,WSW,250,6.08,10.07,0.0,0.0,0.0,0.0,0,15.546,9.66,72,Mostly Cloudy,Mostly Cloudy,1012.5,29.9,KPNS
1689264000,2023-07-13T11:00:00-05:00,31.36,88.45,100.52,76.71,68,1016,30.0,WSW,249,6.08,10.56,0.72,0.03,0.72,0.03,77,11.111,6.904,70,Scattered Storms,Scattered Storms,1012.5,29.9,KPNS
1689267600,2023-07-13T12:00:00-05:00,31.36,88.45,101.42,77.4,70,1015,29.97,SW,230,7.2,11.18,0.72,0.03,0.72,0.03,77,16.0,9.942,68,Scattered Storms,Scattered Storms,1011.5,29.87,KPNS
1689271200,2023-07-13T13:00:00-05:00,31.98,89.56,103.05,77.4,68,1015,29.97,SW,229,7.25,11.68,0.72,0.03,0.72,0.03,70,16.0,9.942,67,Scattered Storms,Scattered Storms,1011.5,29.87,KPNS
1689274800,2023-07-13T14:00:00-05:00,31.29,88.32,101.14,77.32,70,1014,29.94,SW,229,7.25,12.3,0.69,0.03,0.69,0.03,70,16.0,9.942,71,Scattered Storms,Scattered Storms,1010.5,29.84,KPNS
1689278400,2023-07-13T15:00:00-05:00,30.61,87.1,97.97,76.24,70,1014,29.94,SW,229,7.27,12.8,0.69,0.03,0.69,0.03,70,16.0,9.942,76,Scattered Storms,Scattered Storms,1010.5,29.84,KPNS
1689282000,2023-07-13T16:00:00-05:00,30.42,86.76,97.37,76.17,71,1013,29.91,SW,230,7.7,13.42,0.69,0.03,0.69,0.03,70,16.0,9.942,79,Scattered Storms,Scattered Storms,1009.5,29.81,KPNS
1689285600,2023-07-13T17:00:00-05:00,30.61,87.1,97.88,76.17,70,1013,29.91,SW,230,7.65,12.35,0.69,0.03,0.69,0.03,70,16.0,9.942,82,Scattered Storms,Scattered Storms,1009.5,29.81,KPNS
1689289200,2023-07-13T18:00:00-05:00,30.47,86.85,98.14,76.71,72,1013,29.91,SW,230,7.25,12.3,0.69,0.03,0.69,0.03,70,16.0,9.942,84,Scattered Storms,Scattered Storms,1009.5,29.81,KPNS
1689292800,2023-07-13T19:00:00-05:00,29.69,85.44,95.94,76.71,75,1013,29.91,SW,230,7.2,11.23,0.69,0.03,0.69,0.03,23,16.0,9.942,86,Isolated Storms,Isolated Storms,1009.5,29.81,KPNS
1689296400,2023-07-13T20:00:00-05:00,28.59,83.46,92.59,76.71,80,1013,29.91,SW,230,6.08,10.11,0.14,0.01,0.14,0.01,23,16.0,9.942,83,Isolated Storms,Isolated Storms,1009.5,29.81,KPNS
1689300000,2023-07-13T21:00:00-05:00,27.67,81.81,88.74,75.67,82,1013,29.91,SW,230,5.59,10.07,0.14,0.01,0.14,0.01,23,15.523,9.645,80,Isolated Storms,Isolated Storms,1009.4,29.81,KPNS
1689303600,2023-07-13T22:00:00-05:00,26.92,80.46,86.11,75.67,85,1013,29.91,SW,230,4.5,8.95,0.14,0.01,0.14,0.01,23,15.52,9.644,78,Isolated Storms,Isolated Storms,1009.4,29.81,KPNS
1689307200,2023-07-13T23:00:00-05:00,26.91,80.44,86.07,75.67,85,1014,29.94,SW,230,4.47,8.95,0.14,0.01,0.14,0.01,23,15.52,9.644,77,Isolated Storms,Isolated Storms,1010.4,29.84,KPNS
1689310800,2023-07-14T00:00:00-05:00,26.81,80.26,85.92,76.14,87,1014,29.94,SW,220,4.47,10.07,0.14,0.01,0.14,0.01,23,15.495,9.628,76,Isolated Storms,Isolated Storms,1010.4,29.84,KPNS
1689314400,2023-07-14T01:00:00-05:00,26.63,79.93,79.93,76.14,88,1014,29.94,SW,220,5.14,10.07,0.14,0.01,0.14,0.01,45,15.347,9.536,76,Chance of Storms,Chance of Storms,1010.4,29.84,KPNS
1689318000,2023-07-14T02:00:00-05:00,26.61,79.9,79.9,76.14,88,1013,29.91,SW,230,4.52,10.07,1.73,0.07,1.73,0.07,45,15.486,9.622,75,Chance of Storms,Chance of Storms,1009.4,29.81,KPNS
1689321600,2023-07-14T03:00:00-05:00,26.24,79.23,79.23,76.14,90,1013,29.91,WSW,239,4.52,10.07,1.73,0.07,1.73,0.07,45,15.485,9.622,75,Chance of Storms,Chance of Storms,1009.4,29.81,KPNS
1689325200,2023-07-14T04:00:00-05:00,25.9,78.62,78.62,76.14,92,1013,29.91,WSW,240,4.56,10.07,1.73,0.07,1.73,0.07,45,15.5,9.631,75,Chance of Storms,Chance of Storms,1009.4,29.81,KPNS
1689328800,2023-07-14T05:00:00-05:00,25.53,77.95,77.95,76.14,94,1014,29.94,WSW,240,4.52,10.07,1.73,0.07,1.73,0.07,45,15.28,9.495,73,Chance of Storms,Chance of Storms,1010.4,29.84,KPNS
1689332400,2023-07-14T06:00:00-05:00,25.49,77.88,77.88,76.66,96,1014,29.94,WSW,250,4.47,9.62,1.73,0.07,1.73,0.07,45,14.274,8.869,71,Chance of Storms,Chance of Storms,1010.4,29.84,KPNS
1689336000,2023-07-14T07:00:00-05:00,26.07,78.93,78.93,76.66,93,1014,29.94,WSW,250,3.85,9.62,1.73,0.07,1.73,0.07,67,14.335,8.907,69,Scattered Storms,Scattered Storms,1010.4,29.84,KPNS
1689339600,2023-07-14T08:00:00-05:00,28.11,82.6,90.96,76.66,82,1015,29.97,WSW,250,4.47,9.62,4.94,0.19,4.94,0.19,67,14.482,8.999,74,Scattered Storms,Scattered Storms,1011.4,29.87,KPNS
1689256800,2023-07-13T09:00:00-05:00,29.83,85.69,94.85,75.31,71,1016,30.0,W,260,5.59,8.99,3.1,0.12,3.1,0.12,70,16.0,9.942,58,Rain,Rain,1014.4,29.96,KVPS
1689260400,2023-07-13T10:00:00-05:00,31.01,87.82,97.92,75.31,67,1016,30.0,W,260,5.97,10.07,3.18,0.13,3.18,0.13,70,16.0,9.942,61,Rain,Rain,1014.4,29.96,KVPS
1689264000,2023-07-13T11:00:00-05:00,31.22,88.2,98.45,75.31,66,1016,30.0,WSW,250,6.71,11.18,0.42,0.02,0.42,0.02,78,16.0,9.942,66,Scattered Storms,Scattered Storms,1014.4,29.96,KVPS
1689267600,2023-07-13T12:00:00-05:00,31.2,88.16,99.76,76.44,68,1015,29.97,SW,233,7.76,11.23,0.42,0.02,0.42,0.02,78,14.571,9.054,73,Scattered Storms,Scattered Storms,1013.4,29.93,KVPS
1689271200,2023-07-13T13:00:00-05:00,31.68,89.02,101.0,76.44,67,1015,29.97,SW,223,8.52,12.35,0.42,0.02,0.42,0.02,64,16.0,9.942,78,Scattered Storms,Scattered Storms,1013.4,29.93,KVPS
1689274800,2023-07-13T14:00:00-05:00,31.7,89.06,101.05,76.44,66,1014,29.94,SW,223,8.57,13.04,0.18,0.01,0.18,0.01,64,16.0,9.942,82,Scattered Storms,Scattered Storms,1012.4,29.9,KVPS
1689278400,2023-07-13T15:00:00-05:00,30.8,87.44,98.71,76.44,70,1014,29.94,SW,230,8.93,13.47,0.18,0.01,0.18,0.01,64,16.0,9.942,85,Scattered Storms,Scattered Storms,1012.4,29.9,KVPS
1689282000,2023-07-13T16:00:00-05:00,30.42,86.76,97.69,76.44,72,1014,29.94,SW,230,8.95,14.16,0.18,0.01,0.18,0.01,64,16.0,9.942,89,Scattered Storms,Scattered Storms,1012.4,29.9,KVPS
1689285600,2023-07-13T17:00:00-05:00,29.8,85.64,95.96,76.44,74,1013,29.91,SW,230,8.57,13.04,0.18,0.01,0.18,0.01,64,16.0,9.942,84,Scattered Storms,Scattered Storms,1011.4,29.87,KVPS
1689289200,2023-07-13T18:00:00-05:00,28.81,83.86,92.02,75.33,76,1013,29.91,SW,230,7.81,12.3,0.18,0.01,0.18,0.01,64,16.0,9.942,80,Scattered Storms,Scattered Storms,1011.4,29.87,KVPS
1689292800,2023-07-13T19:00:00-05:00,28.56,83.41,91.29,75.33,77,1013,29.91,SW,230,6.71,11.18,0.18,0.01,0.18,0.01,16,16.0,9.942,76,Isolated Storms,Isolated Storms,1011.4,29.87,KVPS
1689296400,2023-07-13T20:00:00-05:00,27.25,81.05,87.1,75.33,83,1013,29.91,SW,230,5.59,11.18,0.07,0.0,0.07,0.0,16,16.0,9.942,76,Isolated Storms,Isolated Storms,1011.4,29.87,KVPS
1689300000,2023-07-13T21:00:00-05:00,26.4,79.52,79.52,74.91,86,1013,29.91,WSW,240,4.5,10.07,0.07,0.0,0.07,0.0,16,16.0,9.942,75,Isolated Storms,Isolated Storms,1011.4,29.87,KVPS
1689303600,2023-07-13T22:00:00-05:00,26.4,79.52,79.52,74.91,86,1014,29.94,WSW,249,4.5,10.07,0.07,0.0,0.07,0.0,16,16.0,9.942,76,Isolated Storms,Isolated Storms,1012.4,29.9,KVPS
1689307200,2023-07-13T23:00:00-05:00,25.82,78.48,78.48,74.91,89,1014,29.94,WSW,240,3.78,10.07,0.07,0.0,0.07,0.0,16,15.8,9.817,75,Isolated Storms,Isolated Storms,1012.4,29.9,KVPS
1689310800,2023-07-14T00:00:00-05:00,26.2,79.16,79.16,75.31,88,1014,29.94,SW,230,4.47,10.07,0.07,0.0,0.07,0.0,16,15.748,9.785,75,Isolated Storms,Isolated Storms,1012.4,29.9,KVPS
1689314400,2023-07-14T01:00:00-05:00,25.82,78.48,78.48,75.31,90,1014,29.94,SW,230,4.9,10.07,0.07,0.0,0.07,0.0,40,15.905,9.883,75,Chance of Storms,Chance of Storms,1012.4,29.9,KVPS
1689318000,2023-07-14T02:00:00-05:00,25.8,78.44,78.44,75.31,90,1014,29.94,WSW,240,4.47,10.07,0.69,0.03,0.69,0.03,40,15.798,9.816,74,Chance of Storms,Chance of Storms,1012.4,29.9,KVPS
1689321600,2023-07-14T03:00:00-05:00,24.71,76.48,76.48,74.91,95,1014,29.94,WSW,250,4.47,8.95,0.69,0.03,0.69,0.03,40,15.695,9.753,74,Chance of Storms,Chance of Storms,1012.4,29.9,KVPS
1689325200,2023-07-14T04:00:00-05:00,24.71,76.48,76.48,74.91,95,1014,29.94,WSW,250,4.47,8.95,0.69,0.03,0.69,0.03,40,15.733,9.776,73,Chance of Storms,Chance of Storms,1012.4,29.9,KVPS
1689328800,2023-07-14T05:00:00-05:00,24.66,76.39,76.39,74.91,95,1014,29.94,W,260,4.47,8.95,0.69,0.03,0.69,0.03,40,15.695,9.753,73,Chance of Storms,Chance of Storms,1012.4,29.9,KVPS
1689332400,2023-07-14T06:00:00-05:00,24.5,76.1,76.1,76.1,100,1014,29.94,W,264,4.47,10.07,0.69,0.03,0.69,0.03,40,15.624,9.708,73,Chance of Storms,Chance of Storms,1012.4,29.9,KVPS
1689336000,2023-07-14T07:00:00-05:00,25.78,78.4,78.4,76.1,93,1014,29.94,W,273,4.9,10.07,0.69,0.03,0.69,0.03,68,15.256,9.48,73,Scattered Storms,Scattered Storms,1012.4,29.9,KVPS
1689339600,2023-07-14T08:00:00-05:00,27.35,81.23,87.91,76.1,84,1015,29.97,W,264,4.9,10.07,4.01,0.16,4.01,0.16,68,14.929,9.276,77,Scattered Storms,Scattered Storms,1013.4,29.93,KVPS
1689256800,2023-07-13T10:00:00-04:00,30.6,87.08,98.72,76.89,72,1016,30.0,W,270,6.71,10.07,0.0,0.0,0.0,0.0,0,16.0,9.942,23,Mostly Sunny,Mostly Sunny,1015.4,29.99,KJAX
1689260400,2023-07-13T11:00:00-04:00,32.7,90.86,103.1,76.1,62,1016,30.0,W,280,6.71,10.07,0.0,0.0,0.0,0.0,0,16.0,9.942,29,Mostly Sunny,Mostly Sunny,1015.4,29.99,KJAX
1689264000,2023-07-13T12:00:00-04:00,33.8,92.84,105.78,76.1,58,1015,29.97,W,270,6.71,10.07,0.0,0.0,0.0,0.0,0,16.0,9.942,36,Partly Cloudy,Partly Cloudy,1014.4,29.96,KJAX
1689267600,2023-07-13T13:00:00-04:00,34.57,94.23,105.93,74.84,54,1015,29.97,WSW,253,7.83,12.3,0.07,0.0,0.07,0.0,24,16.0,9.942,49,Isolated Storms,Isolated Storms,1014.4,29.96,KJAX
1689271200,2023-07-13T14:00:00-04:00,34.5,94.1,105.76,74.84,54,1014,29.94,SW,223,7.83,12.3,0.07,0.0,0.07,0.0,30,16.0,9.942,56,Chance of Storms,Chance of Storms,1013.4,29.93,KJAX
1689274800,2023-07-13T15:00:00-04:00,34.5,94.1,105.76,74.84,54,1014,29.94,SSW,193,7.83,12.3,1.74,0.07,1.74,0.07,43,16.0,9.942,61,Chance of Storms,Chance of Storms,1013.4,29.93,KJAX
1689278400,2023-07-13T16:00:00-04:00,33.37,92.07,104.28,75.76,59,1013,29.91,S,170,8.95,13.42,1.74,0.07,1.74,0.07,54,16.0,9.942,67,Chance of Storms,Chance of Storms,1012.4,29.9,KJAX
1689282000,2023-07-13T17:00:00-04:00,33.3,91.94,104.57,76.1,60,1013,29.91,SE,146,9.78,15.08,1.74,0.07,1.74,0.07,56,16.0,9.942,71,Scattered Storms,Scattered Storms,1012.4,29.9,KJAX
1689285600,2023-07-13T18:00:00-04:00,32.2,89.96,101.87,76.1,64,1013,29.91,SSE,150,9.44,14.41,1.74,0.07,1.74,0.07,48,16.0,9.942,68,Chance of Storms,Chance of Storms,1012.4,29.9,KJAX
1689289200,2023-07-13T19:00:00-04:00,31.2,88.16,99.12,75.92,67,1013,29.91,S,170,8.95,13.42,1.74,0.07,1.74,0.07,40,14.78,9.184,65,Chance of Storms,Chance of Storms,1012.4,29.9,KJAX
1689292800,2023-07-13T20:00:00-04:00,29.5,85.1,94.75,76.1,75,1014,29.94,S,180,7.07,10.78,1.74,0.07,1.74,0.07,28,16.0,9.942,65,Chance of Storms,Chance of Storms,1013.4,29.93,KJAX
1689296400,2023-07-13T21:00:00-04:00,27.7,81.86,89.14,76.1,83,1014,29.94,S,180,5.59,8.95,0.29,0.01,0.29,0.01,20,16.0,9.942,63,Isolated Storms,Isolated Storms,1013.4,29.93,KJAX
1689300000,2023-07-13T22:00:00-04:00,27.2,80.96,87.37,76.1,85,1014,29.94,S,183,4.47,6.71,0.29,0.01,0.29,0.01,13,16.0,9.942,60,Isolated Showers,Isolated Showers,1013.4,29.93,KJAX
1689303600,2023-07-13T23:00:00-04:00,27.2,80.96,87.37,76.1,85,1014,29.94,SSW,194,4.47,6.71,0.29,0.01,0.29,0.01,11,16.0,9.942,58,Isolated Showers,Isolated Showers,1013.4,29.93,KJAX
1689307200,2023-07-14T00:00:00-04:00,26.2,79.16,79.16,76.1,90,1014,29.94,SSW,200,4.34,6.58,0.29,0.01,0.29,0.01,11,16.0,9.942,52,Isolated Showers,Isolated Showers,1013.4,29.93,KJAX
1689310800,2023-07-14T01:00:00-04:00,25.69,78.24,78.24,75.76,92,1014,29.94,SSW,200,3.36,5.59,0.0,0.0,0.0,0.0,0,16.0,9.942,49,Partly Cloudy,Partly Cloudy,1013.4,29.93,KJAX
1689314400,2023-07-14T02:00:00-04:00,25.0,77.0,77.0,75.24,94,1014,29.94,SSW,210,3.36,5.59,0.29,0.01,0.29,0.01,12,15.961,9.918,50,Isolated Showers,Isolated Showers,1013.4,29.93,KJAX
1689318000,2023-07-14T03:00:00-04:00,25.0,77.0,77.0,74.84,93,1014,29.94,SSW,210,3.36,5.59,0.0,0.0,0.0,0.0,0,16.0,9.942,46,Partly Cloudy,Partly Cloudy,1013.4,29.93,KJAX
1689321600,2023-07-14T04:00:00-04:00,24.5,76.1,76.1,74.84,96,1014,29.94,SW,219,3.2,5.26,0.0,0.0,0.0,0.0,0,16.0,9.942,45,Partly Cloudy,Partly Cloudy,1013.4,29.93,KJAX
1689325200,2023-07-14T05:00:00-04:00,23.99,75.18,75.18,74.84,99,1014,29.94,SW,220,2.24,3.36,0.0,0.0,0.0,0.0,0,16.0,9.942,45,Partly Cloudy,Partly Cloudy,1013.4,29.93,KJAX
1689328800,2023-07-14T06:00:00-04:00,23.8,74.84,74.84,74.84,100,1014,29.94,SW,230,2.24,3.36,0.0,0.0,0.0,0.0,0,16.0,9.942,47,Partly Cloudy,Partly Cloudy,1013.4,29.93,KJAX
1689332400,2023-07-14T07:00:00-04:00,23.8,74.84,74.84,74.84,100,1015,29.97,WSW,240,3.06,5.01,0.0,0.0,0.0,0.0,0,16.0,9.942,44,Partly Cloudy,Partly Cloudy,1014.4,29.96,KJAX
1689336000,2023-07-14T08:00:00-04:00,25.0,77.0,77.0,74.84,93,1015,29.97,WSW,240,3.36,5.59,0.0,0.0,0.0,0.0,0,16.0,9.942,39,Partly Cloudy,Partly Cloudy,1014.4,29.96,KJAX
1689339600,2023-07-14T09:00:00-04:00,28.4,83.12,91.44,76.1,79,1015,29.97,WSW,250,4.47,6.71,0.08,0.0,0.08,0.0,22,16.0,9.942,36,Isolated Storms,Isolated Storms,1014.4,29.96,KJAX
1689256800,2023-07-13T10:00:00-04:00,30.6,87.08,100.04,77.94,74,1016,30.0,W,270,6.71,10.07,0.0,0.0,0.0,0.0,0,15.992,9.937,24,Mostly Sunny,Mostly Sunny,1015.7,29.99,KFHB
1689260400,2023-07-13T11:00:00-04:00,31.75,89.15,103.42,78.08,70,1016,30.0,W,270,6.71,10.07,0.0,0.0,0.0,0.0,0,16.0,9.942,28,Mostly Sunny,Mostly Sunny,1015.7,29.99,KFHB
1689264000,2023-07-13T12:00:00-04:00,32.31,90.16,104.56,77.85,67,1015,29.97,SW,224,6.71,10.07,0.0,0.0,0.0,0.0,0,16.0,9.942,32,Partly Cloudy,Partly Cloudy,1014.7,29.96,KFHB
1689267600,2023-07-13T13:00:00-04:00,32.31,90.16,104.56,77.85,67,1015,29.97,SSE,157,7.83,12.3,0.07,0.0,0.07,0.0,18,16.0,9.942,42,Isolated Storms,Isolated Storms,1014.7,29.96,KFHB
1689271200,2023-07-13T14:00:00-04:00,31.53,88.75,102.83,78.08,71,1015,29.97,SE,130,9.82,15.17,0.07,0.0,0.07,0.0,24,16.0,9.942,50,Isolated Storms,Isolated Storms,1014.7,29.96,KFHB
1689274800,2023-07-13T15:00:00-04:00,31.26,88.27,102.09,78.08,72,1014,29.94,SE,130,11.18,16.78,1.05,0.04,1.05,0.04,37,16.0,9.942,53,Chance of Storms,Chance of Storms,1013.7,29.93,KFHB
1689278400,2023-07-13T16:00:00-04:00,30.73,87.31,100.61,78.08,74,1014,29.94,SE,140,12.06,18.52,1.05,0.04,1.05,0.04,44,16.0,9.942,58,Chance of Storms,Chance of Storms,1013.7,29.93,KFHB
1689282000,2023-07-13T17:00:00-04:00,31.2,88.16,101.93,78.08,72,1013,29.91,SE,140,12.06,18.52,1.05,0.04,1.05,0.04,41,16.0,9.942,64,Chance of Storms,Chance of Storms,1012.7,29.9,KFHB
1689285600,2023-07-13T18:00:00-04:00,31.2,88.16,101.93,78.08,72,1013,29.91,SSE,150,12.06,18.52,1.05,0.04,1.05,0.04,31,16.0,9.942,61,Chance of Storms,Chance of Storms,1012.7,29.9,KFHB
1689289200,2023-07-13T19:00:00-04:00,30.0,86.0,98.47,78.08,77,1013,29.91,SSE,160,11.18,16.78,1.05,0.04,1.05,0.04,29,16.0,9.942,59,Chance of Storms,Chance of Storms,1012.7,29.9,KFHB
1689292800,2023-07-13T20:00:00-04:00,29.5,85.1,96.65,77.85,79,1014,29.94,S,170,9.82,15.17,1.05,0.04,1.05,0.04,23,16.0,9.942,63,Isolated Storms,Isolated Storms,1013.7,29.93,KFHB
1689296400,2023-07-13T21:00:00-04:00,28.4,83.12,92.05,76.8,81,1014,29.94,S,180,8.7,13.18,0.07,0.0,0.07,0.0,17,16.0,9.942,60,Isolated Storms,Isolated Storms,1013.7,29.93,KFHB
1689300000,2023-07-13T22:00:00-04:00,27.7,81.86,89.14,76.1,83,1014,29.94,S,190,8.46,12.68,0.07,0.0,0.07,0.0,11,16.0,9.942,54,Rain Showers,Rain Showers,1013.7,29.93,KFHB
1689303600,2023-07-13T23:00:00-04:00,27.41,81.34,88.12,76.1,84,1014,29.94,S,190,7.58,11.81,0.0,0.0,0.0,0.0,0,16.0,9.942,44,Partly Cloudy,Partly Cloudy,1013.7,29.93,KFHB
1689307200,2023-07-14T00:00:00-04:00,27.09,80.76,86.96,76.1,86,1014,29.94,SSW,200,7.58,11.81,0.0,0.0,0.0,0.0,0,16.0,9.942,43,Partly Cloudy,Partly Cloudy,1013.7,29.93,KFHB
1689310800,2023-07-14T01:00:00-04:00,26.7,80.06,85.47,76.1,88,1014,29.94,SSW,210,7.34,11.56,0.0,0.0,0.0,0.0,0,16.0,9.942,43,Partly Cloudy,Partly Cloudy,1013.7,29.93,KFHB
1689314400,2023-07-14T02:00:00-04:00,26.59,79.86,79.86,76.1,88,1014,29.94,SSW,210,7.58,11.81,0.07,0.0,0.07,0.0,13,16.0,9.942,52,Rain Showers,Rain Showers,1013.7,29.93,KFHB
1689318000,2023-07-14T03:00:00-04:00,26.2,79.16,79.16,76.1,90,1014,29.94,SW,220,6.46,9.82,0.0,0.0,0.0,0.0,0,16.0,9.942,50,Partly Cloudy,Partly Cloudy,1013.7,29.93,KFHB
1689321600,2023-07-14T04:00:00-04:00,25.6,78.08,78.08,76.1,94,1014,29.94,SW,228,6.46,9.82,0.0,0.0,0.0,0.0,0,16.0,9.942,48,Partly Cloudy,Partly Cloudy,1013.7,29.93,KFHB
1689325200,2023-07-14T05:00:00-04:00,25.47,77.85,77.85,75.83,94,1014,29.94,SW,230,5.35,8.46,0.0,0.0,0.0,0.0,0,16.0,9.942,44,Partly Cloudy,Partly Cloudy,1013.7,29.93,KFHB
1689328800,2023-07-14T06:00:00-04:00,25.2,77.36,77.36,75.83,95,1014,29.94,SW,230,5.35,8.46,0.0,0.0,0.0,0.0,0,16.0,9.942,45,Partly Cloudy,Partly Cloudy,1013.7,29.93,KFHB
1689332400,2023-07-14T07:00:00-04:00,25.2,77.36,77.36,75.83,95,1014,29.94,WSW,240,5.35,8.46,0.0,0.0,0.0,0.0,0,16.0,9.942,48,Partly Cloudy,Partly Cloudy,1013.7,29.93,KFHB
1689336000,2023-07-14T08:00:00-04:00,26.42,79.56,79.56,76.1,89,1015,29.97,WSW,250,5.35,8.46,0.0,0.0,0.0,0.0,0,16.0,9.942,43,Partly Cloudy,Partly Cloudy,1014.7,29.96,KFHB
1689339600,2023-07-14T09:00:00-04:00,28.4,83.12,92.05,76.8,81,1015,29.97,WSW,250,5.97,9.33,0.07,0.0,0.07,0.0,22,16.0,9.942,41,Isolated Storms,Isolated Storms,1014.7,29.96,KFHB
1689256800,2023-07-13T09:00:00-05:00,30.0,86.0,95.53,75.52,71,1016,30.0,WSW,255,5.08,8.95,0.19,0.01,0.19,0.01,17,16.0,9.942,61,Rain Showers,Rain Showers,1007.8,29.76,KEGI
1689260400,2023-07-13T10:00:00-05:00,31.08,87.94,98.35,75.52,67,1016,30.0,W,260,5.59,10.07,0.04,0.0,0.04,0.0,17,16.0,9.942,67,Rain Showers,Rain Showers,1007.8,29.76,KEGI
1689264000,2023-07-13T11:00:00-05:00,31.37,88.47,99.08,75.52,66,1016,30.0,W,260,5.59,11.18,0.83,0.03,0.83,0.03,75,16.0,9.942,73,Scattered Storms,Scattered Storms,1007.8,29.76,KEGI
1689267600,2023-07-13T12:00:00-05:00,32.24,90.03,100.02,74.52,60,1015,29.97,WSW,250,6.2,11.18,0.83,0.03,0.83,0.03,75,15.011,9.328,79,Scattered Storms,Scattered Storms,1006.9,29.73,KEGI
1689271200,2023-07-13T13:00:00-05:00,33.3,91.94,102.53,74.52,57,1015,29.97,WSW,250,6.98,12.3,0.83,0.03,0.83,0.03,82,16.0,9.942,84,Scattered Storms,Scattered Storms,1006.9,29.73,KEGI
1689274800,2023-07-13T14:00:00-05:00,32.91,91.24,101.61,74.52,58,1014,29.94,WSW,250,7.49,12.3,0.53,0.02,0.53,0.02,82,16.0,9.942,86,Scattered Storms,Scattered Storms,1005.9,29.7,KEGI
1689278400,2023-07-13T15:00:00-05:00,32.5,90.5,100.64,74.52,60,1014,29.94,WSW,250,7.83,13.42,0.53,0.02,0.53,0.02,82,16.0,9.942,87,Scattered Storms,Scattered Storms,1005.9,29.7,KEGI
1689282000,2023-07-13T16:00:00-05:00,31.25,88.25,97.64,74.52,64,1013,29.91,WSW,250,8.61,13.42,0.53,0.02,0.53,0.02,82,16.0,9.942,88,Scattered Storms,Scattered Storms,1004.9,29.67,KEGI
1689285600,2023-07-13T17:00:00-05:00,30.0,86.0,94.51,74.52,69,1013,29.91,WSW,240,7.83,12.3,0.53,0.02,0.53,0.02,82,16.0,9.942,88,Scattered Storms,Scattered Storms,1004.8,29.67,KEGI
1689289200,2023-07-13T18:00:00-05:00,29.77,85.59,94.48,75.09,71,1013,29.91,SW,230,6.98,11.68,0.53,0.02,0.53,0.02,82,16.0,9.942,88,Scattered Storms,Scattered Storms,1004.8,29.67,KEGI
1689292800,2023-07-13T19:00:00-05:00,28.99,84.18,92.33,75.09,74,1013,29.91,SW,220,6.71,10.56,0.53,0.02,0.53,0.02,24,16.0,9.942,88,Isolated Storms,Isolated Storms,1004.8,29.67,KEGI
1689296400,2023-07-13T20:00:00-05:00,26.47,79.65,79.65,75.09,86,1013,29.91,SW,220,5.59,10.56,0.04,0.0,0.04,0.0,24,16.0,9.942,79,Isolated Storms,Isolated Storms,1004.7,29.67,KEGI
1689300000,2023-07-13T21:00:00-05:00,25.53,77.95,77.95,74.34,89,1013,29.91,SW,230,5.32,9.55,0.04,0.0,0.04,0.0,24,16.0,9.942,71,Isolated Storms,Isolated Storms,1004.7,29.67,KEGI
1689303600,2023-07-13T22:00:00-05:00,25.3,77.54,77.54,74.34,90,1014,29.94,SW,235,4.81,9.55,0.04,0.0,0.04,0.0,24,16.0,9.942,62,Isolated Storms,Isolated Storms,1005.7,29.7,KEGI
1689307200,2023-07-13T23:00:00-05:00,24.77,76.59,76.59,74.34,93,1014,29.94,SW,230,4.47,9.55,0.04,0.0,0.04,0.0,24,16.0,9.942,68,Isolated Storms,Isolated Storms,1005.7,29.7,KEGI
1689310800,2023-07-14T00:00:00-05:00,24.36,75.85,75.85,74.26,95,1014,29.94,SW,220,4.47,9.33,0.04,0.0,0.04,0.0,24,16.0,9.942,75,Isolated Storms,Isolated Storms,1005.7,29.7,KEGI
1689314400,2023-07-14T01:00:00-05:00,23.86,74.95,74.95,74.26,98,1014,29.94,SW,220,5.59,9.33,0.04,0.0,0.04,0.0,38,16.0,9.942,81,Chance of Storms,Chance of Storms,1005.6,29.7,KEGI
1689318000,2023-07-14T02:00:00-05:00,23.4,74.12,74.12,74.12,100,1014,29.94,SW,220,4.7,8.95,1.06,0.04,1.06,0.04,38,16.0,9.942,78,Chance of Storms,Chance of Storms,1005.6,29.7,KEGI
1689321600,2023-07-14T03:00:00-05:00,23.59,74.46,74.46,74.26,99,1014,29.94,SW,230,4.7,8.21,1.06,0.04,1.06,0.04,38,16.0,9.942,76,Chance of Storms,Chance of Storms,1005.6,29.7,KEGI
1689325200,2023-07-14T04:00:00-05:00,23.4,74.12,74.12,74.12,100,1014,29.94,WSW,240,5.59,7.83,1.06,0.04,1.06,0.04,38,15.889,9.873,74,Chance of Storms,Chance of Storms,1005.6,29.7,KEGI
1689328800,2023-07-14T05:00:00-05:00,23.08,73.54,73.54,73.54,100,1014,29.94,WSW,241,5.37,8.95,1.06,0.04,1.06,0.04,38,15.73,9.774,71,Chance of Storms,Chance of Storms,1005.6,29.7,KEGI
1689332400,2023-07-14T06:00:00-05:00,23.08,73.54,73.54,73.54,100,1015,29.97,W,261,5.64,9.6,1.06,0.04,1.06,0.04,38,13.563,8.428,69,Chance of Storms,Chance of Storms,1006.6,29.73,KEGI
1689336000,2023-07-14T07:00:00-05:00,24.29,75.72,75.72,74.84,97,1014,29.94,W,266,5.97,10.71,1.06,0.04,1.06,0.04,62,15.659,9.73,67,Scattered Storms,Scattered Storms,1005.7,29.7,KEGI
1689339600,2023-07-14T08:00:00-05:00,26.47,79.65,79.65,75.09,86,1015,29.97,W,261,5.86,10.45,1.94,0.08,1.94,0.08,62,16.0,9.942,74,Scattered Storms,Scattered Storms,1006.7,29.73,KEGI
1689256800,2023-07-13T09:00:00-05:00,29.64,85.35,95.78,76.69,75,1016,30.0,WSW,250,5.59,8.95,0.0,0.0,0.0,0.0,0,16.0,9.942,72,Mostly Cloudy,Mostly Cloudy,1014.6,29.96,KNDZ
1689260400,2023-07-13T10:00:00-05:00,30.35,86.63,98.18,77.02,73,1016,30.0,WSW,250,5.93,10.4,0.0,0.0,0.0,0.0,0,16.0,9.942,78,Mostly Cloudy,Mostly Cloudy,1014.6,29.96,KNDZ
1689264000,2023-07-13T11:00:00-05:00,31.08,87.94,100.17,77.02,70,1015,29.97,WSW,250,6.71,10.4,0.73,0.03,0.73,0.03,65,16.0,9.942,80,Scattered Storms,Scattered Storms,1013.6,29.93,KNDZ
1689267600,2023-07-13T12:00:00-05:00,31.85,89.33,102.2,77.02,67,1015,29.97,WSW,240,6.71,11.18,0.73,0.03,0.73,0.03,65,16.0,9.942,82,Scattered Storms,Scattered Storms,1013.6,29.93,KNDZ
1689271200,2023-07-13T13:00:00-05:00,32.35,90.23,103.03,76.69,65,1015,29.97,WSW,240,6.71,11.18,0.73,0.03,0.73,0.03,81,16.0,9.942,85,Scattered Storms,Scattered Storms,1013.6,29.93,KNDZ
1689274800,2023-07-13T14:00:00-05:00,31.65,88.97,101.25,76.69,67,1014,29.94,WSW,240,7.49,12.3,1.17,0.05,1.17,0.05,81,16.0,9.942,84,Scattered Storms,Scattered Storms,1012.6,29.9,KNDZ
1689278400,2023-07-13T15:00:00-05:00,31.65,88.97,99.76,75.51,65,1014,29.94,SW,230,7.83,12.3,1.17,0.05,1.17,0.05,81,16.0,9.942,84,Scattered Storms,Scattered Storms,1012.6,29.9,KNDZ
1689282000,2023-07-13T16:00:00-05:00,30.01,86.02,95.54,75.51,71,1013,29.91,SW,227,8.95,13.42,1.17,0.05,1.17,0.05,81,16.0,9.942,84,Scattered Storms,Scattered Storms,1011.6,29.87,KNDZ
1689285600,2023-07-13T17:00:00-05:00,29.82,85.68,95.03,75.51,72,1013,29.91,SW,227,7.83,12.3,1.17,0.05,1.17,0.05,81,16.0,9.942,83,Scattered Storms,Scattered Storms,1011.6,29.87,KNDZ
1689289200,2023-07-13T18:00:00-05:00,29.82,85.68,95.96,76.39,74,1013,29.91,SW,227,5.93,10.4,1.17,0.05,1.17,0.05,81,16.0,9.942,82,Scattered Storms,Scattered Storms,1011.6,29.87,KNDZ
1689292800,2023-07-13T19:00:00-05:00,28.02,82.44,90.44,76.39,82,1013,29.91,SW,220,4.81,9.28,1.17,0.05,1.17,0.05,27,16.0,9.942,82,Chance of Storms,Chance of Storms,1011.6,29.87,KNDZ
1689296400,2023-07-13T20:00:00-05:00,25.67,78.21,78.21,76.1,93,1013,29.91,SW,220,4.47,8.19,0.29,0.01,0.29,0.01,27,16.0,9.942,79,Chance of Storms,Chance of Storms,1011.6,29.87,KNDZ
1689300000,2023-07-13T21:00:00-05:00,25.01,77.02,77.02,75.22,94,1013,29.91,SW,220,4.47,8.16,0.29,0.01,0.29,0.01,27,16.0,9.942,76,Chance of Storms,Chance of Storms,1011.6,29.87,KNDZ
1689303600,2023-07-13T22:00:00-05:00,24.06,75.31,75.31,74.34,97,1013,29.91,SW,220,4.81,7.07,0.29,0.01,0.29,0.01,27,16.0,9.942,73,Chance of Storms,Chance of Storms,1011.6,29.87,KNDZ
1689307200,2023-07-13T23:00:00-05:00,23.73,74.71,74.71,74.34,99,1014,29.94,SW,220,3.69,6.73,0.29,0.01,0.29,0.01,27,12.806,7.957,75,Chance of Storms,Chance of Storms,1012.6,29.9,KNDZ
1689310800,2023-07-14T00:00:00-05:00,23.73,74.71,74.71,74.71,100,1014,29.94,SW,220,3.69,5.95,0.29,0.01,0.29,0.01,27,15.099,9.382,77,Chance of Storms,Chance of Storms,1012.6,29.9,KNDZ
1689314400,2023-07-14T01:00:00-05:00,23.73,74.71,74.71,74.7,100,1014,29.94,SW,220,3.69,5.61,0.29,0.01,0.29,0.01,42,13.498,8.387,80,Chance of Storms,Chance of Storms,1012.6,29.9,KNDZ
1689318000,2023-07-14T02:00:00-05:00,23.73,74.71,74.71,74.7,100,1014,29.94,SW,220,3.69,5.95,1.15,0.05,1.15,0.05,42,11.332,7.042,78,Chance of Storms,Chance of Storms,1012.6,29.9,KNDZ
1689321600,2023-07-14T03:00:00-05:00,23.73,74.71,74.71,74.34,99,1014,29.94,SW,220,4.47,6.73,1.15,0.05,1.15,0.05,42,10.346,6.428,77,Chance of Storms,Chance of Storms,1012.6,29.9,KNDZ
1689325200,2023-07-14T04:00:00-05:00,23.52,74.34,74.34,74.34,100,1014,29.94,SW,223,4.81,7.07,1.15,0.05,1.15,0.05,42,9.442,5.867,75,Chance of Storms,Chance of Storms,1012.6,29.9,KNDZ
1689328800,2023-07-14T05:00:00-05:00,23.73,74.71,74.71,74.34,99,1014,29.94,SW,230,4.47,7.07,1.15,0.05,1.15,0.05,42,8.752,5.438,74,Chance of Storms,Chance of Storms,1012.6,29.9,KNDZ
1689332400,2023-07-14T06:00:00-05:00,23.72,74.7,74.7,74.34,99,1014,29.94,WSW,250,4.47,8.16,1.15,0.05,1.15,0.05,42,8.414,5.228,72,Chance of Storms,Chance of Storms,1012.6,29.9,KNDZ
1689336000,2023-07-14T07:00:00-05:00,24.01,75.22,75.22,75.22,100,1014,29.94,WSW,257,4.14,8.16,1.15,0.05,1.15,0.05,62,9.421,5.854,71,Scattered Storms,Scattered Storms,1012.6,29.9,KNDZ
1689339600,2023-07-14T08:00:00-05:00,26.99,80.58,87.06,77.0,89,1015,29.97,WSW,257,4.47,8.95,2.22,0.09,2.22,0.09,62,14.854,9.23,77,Scattered Storms,Scattered Storms,1013.6,29.93,KNDZ
1689256800,2023-07-13T09:00:00-05:00,29.18,84.52,94.36,76.64,77,1016,30.0,WSW,250,5.59,8.95,0.04,0.0,0.04,0.0,17,16.0,9.942,73,Rain Showers,Rain Showers,1010.0,29.83,KNSE
1689260400,2023-07-13T10:00:00-05:00,29.91,85.84,97.05,77.13,75,1016,30.0,WSW,250,5.73,10.2,0.0,0.0,0.0,0.0,0,16.0,9.942,79,Mostly Cloudy,Mostly Cloudy,1010.1,29.83,KNSE
1689264000,2023-07-13T11:00:00-05:00,31.23,88.21,100.72,77.13,70,1015,29.97,WSW,250,6.71,10.2,0.62,0.02,0.62,0.02,63,16.0,9.942,80,Scattered Storms,Scattered Storms,1009.1,29.8,KNSE
1689267600,2023-07-13T12:00:00-05:00,31.4,88.52,100.53,76.64,68,1015,29.97,WSW,243,6.71,11.18,0.62,0.02,0.62,0.02,63,16.0,9.942,82,Scattered Storms,Scattered Storms,1009.1,29.8,KNSE
1689271200,2023-07-13T13:00:00-05:00,32.26,90.07,102.54,76.5,65,1015,29.97,WSW,243,6.71,11.18,0.62,0.02,0.62,0.02,81,16.0,9.942,84,Scattered Storms,Scattered Storms,1009.1,29.8,KNSE
1689274800,2023-07-13T14:00:00-05:00,31.91,89.44,101.66,76.5,66,1014,29.94,WSW,240,7.83,12.3,1.4,0.06,1.4,0.06,81,16.0,9.942,84,Scattered Storms,Scattered Storms,1008.1,29.77,KNSE
1689278400,2023-07-13T15:00:00-05:00,31.75,89.15,100.56,75.96,65,1014,29.94,SW,233,7.83,12.3,1.4,0.06,1.4,0.06,81,16.0,9.942,84,Scattered Storms,Scattered Storms,1008.1,29.77,KNSE
1689282000,2023-07-13T16:00:00-05:00,29.88,85.78,95.66,75.96,73,1013,29.91,SW,233,8.95,13.42,1.4,0.06,1.4,0.06,81,16.0,9.942,85,Scattered Storms,Scattered Storms,1007.1,29.74,KNSE
1689285600,2023-07-13T17:00:00-05:00,29.27,84.69,93.94,75.96,75,1013,29.91,SW,233,7.83,12.3,1.4,0.06,1.4,0.06,81,16.0,9.942,84,Scattered Storms,Scattered Storms,1007.1,29.74,KNSE
1689289200,2023-07-13T18:00:00-05:00,29.27,84.69,94.63,76.64,77,1013,29.91,SW,233,6.53,10.58,1.4,0.06,1.4,0.06,81,16.0,9.942,82,Scattered Storms,Scattered Storms,1007.1,29.74,KNSE
1689292800,2023-07-13T19:00:00-05:00,27.54,81.57,88.95,76.64,85,1013,29.91,SW,234,5.41,9.46,1.4,0.06,1.4,0.06,28,16.0,9.942,81,Chance of Storms,Chance of Storms,1007.0,29.74,KNSE
1689296400,2023-07-13T20:00:00-05:00,25.95,78.71,78.71,75.72,91,1013,29.91,SW,227,4.47,9.28,0.3,0.01,0.3,0.01,28,16.0,9.942,79,Chance of Storms,Chance of Storms,1007.0,29.74,KNSE
1689300000,2023-07-13T21:00:00-05:00,24.85,76.73,76.73,75.0,94,1013,29.91,SW,220,4.47,8.34,0.3,0.01,0.3,0.01,28,16.0,9.942,78,Chance of Storms,Chance of Storms,1007.0,29.74,KNSE
1689303600,2023-07-13T22:00:00-05:00,24.1,75.38,75.38,74.44,97,1013,29.91,SSW,212,5.41,8.16,0.3,0.01,0.3,0.01,28,16.0,9.942,76,Chance of Storms,Chance of Storms,1007.0,29.74,KNSE
1689307200,2023-07-13T23:00:00-05:00,23.89,75.0,75.0,74.21,97,1014,29.94,SSW,212,4.29,7.23,0.3,0.01,0.3,0.01,28,13.915,8.646,77,Chance of Storms,Chance of Storms,1008.0,29.77,KNSE
1689310800,2023-07-14T00:00:00-05:00,23.97,75.15,75.15,74.37,97,1014,29.94,SSW,212,4.29,7.05,0.3,0.01,0.3,0.01,28,15.345,9.535,79,Chance of Storms,Chance of Storms,1008.0,29.77,KNSE
1689314400,2023-07-14T01:00:00-05:00,23.89,75.0,75.0,74.21,97,1014,29.94,SSW,212,4.29,6.11,0.3,0.01,0.3,0.01,42,13.477,8.374,80,Chance of Storms,Chance of Storms,1008.0,29.77,KNSE
1689318000,2023-07-14T02:00:00-05:00,23.61,74.5,74.5,74.21,99,1014,29.94,SSW,212,4.29,7.05,1.17,0.05,1.17,0.05,42,11.356,7.056,76,Chance of Storms,Chance of Storms,1008.0,29.76,KNSE
1689321600,2023-07-14T03:00:00-05:00,23.97,75.15,75.15,74.21,97,1014,29.94,SW,220,4.47,7.23,1.17,0.05,1.17,0.05,42,10.198,6.336,73,Chance of Storms,Chance of Storms,1008.0,29.77,KNSE
1689325200,2023-07-14T04:00:00-05:00,23.61,74.5,74.5,74.21,99,1014,29.94,SW,220,5.41,8.16,1.17,0.05,1.17,0.05,42,9.141,5.68,69,Chance of Storms,Chance of Storms,1008.0,29.76,KNSE
1689328800,2023-07-14T05:00:00-05:00,23.61,74.5,74.5,74.5,100,1014,29.94,SW,230,4.47,8.16,1.17,0.05,1.17,0.05,42,8.725,5.421,70,Chance of Storms,Chance of Storms,1008.0,29.76,KNSE
1689332400,2023-07-14T06:00:00-05:00,23.61,74.5,74.5,74.5,100,1014,29.94,WSW,250,4.12,8.77,1.17,0.05,1.17,0.05,42,8.359,5.194,70,Chance of Storms,Chance of Storms,1008.0,29.76,KNSE
1689336000,2023-07-14T07:00:00-05:00,24.17,75.51,75.51,75.51,100,1014,29.94,W,260,4.12,8.77,1.17,0.05,1.17,0.05,62,9.466,5.882,71,Scattered Storms,Scattered Storms,1008.0,29.77,KNSE
1689339600,2023-07-14T08:00:00-05:00,27.1,80.78,87.5,77.0,88,1015,29.97,W,260,4.47,8.95,1.95,0.08,1.95,0.08,62,15.004,9.323,77,Scattered Storms,Scattered Storms,1009.0,29.8,KNSE
1689256800,2023-07-13T09:00:00-05:00,30.25,86.45,96.47,75.78,71,1016,30.0,WSW,240,4.47,8.81,0.0,0.0,0.0,0.0,0,16.0,9.942,69,Partly Cloudy,Partly Cloudy,1007.8,29.76,KCEW
1689260400,2023-07-13T10:00:00-05:00,30.85,87.53,98.78,76.39,70,1016,30.0,W,260,6.71,10.29,0.0,0.0,0.0,0.0,0,16.0,9.942,74,Mostly Cloudy,Mostly Cloudy,1007.8,29.76,KCEW
1689264000,2023-07-13T11:00:00-05:00,31.41,88.54,100.72,76.77,68,1016,30.0,W,260,6.71,10.76,0.51,0.02,0.51,0.02,70,16.0,9.942,75,Scattered Storms,Scattered Storms,1007.8,29.76,KCEW
1689267600,2023-07-13T12:00:00-05:00,31.82,89.28,101.1,76.24,66,1015,29.97,WSW,250,6.71,11.41,0.51,0.02,0.51,0.02,70,16.0,9.942,77,Scattered Storms,Scattered Storms,1006.9,29.73,KCEW
1689271200,2023-07-13T13:00:00-05:00,32.95,91.31,103.91,76.24,62,1014,29.94,WSW,247,7.0,11.88,0.51,0.02,0.51,0.02,79,16.0,9.942,79,Scattered Storms,Scattered Storms,1005.9,29.7,KCEW
1689274800,2023-07-13T14:00:00-05:00,32.95,91.31,103.74,76.12,61,1014,29.94,WSW,240,7.14,12.3,0.77,0.03,0.77,0.03,79,16.0,9.942,80,Scattered Storms,Scattered Storms,1005.9,29.7,KCEW
1689278400,2023-07-13T15:00:00-05:00,32.54,90.57,102.2,75.7,62,1014,29.94,WSW,240,7.83,13.0,0.77,0.03,0.77,0.03,79,16.0,9.942,82,Scattered Storms,Scattered Storms,1005.9,29.7,KCEW
1689282000,2023-07-13T16:00:00-05:00,30.69,87.24,97.41,75.58,68,1013,29.91,WSW,240,8.3,13.42,0.77,0.03,0.77,0.03,79,16.0,9.942,83,Scattered Storms,Scattered Storms,1004.8,29.67,KCEW
1689285600,2023-07-13T17:00:00-05:00,29.5,85.1,94.22,75.58,73,1013,29.91,SW,230,7.83,12.3,0.77,0.03,0.77,0.03,79,16.0,9.942,83,Scattered Storms,Scattered Storms,1004.8,29.67,KCEW
1689289200,2023-07-13T18:00:00-05:00,29.5,85.1,94.86,76.21,75,1013,29.91,SW,227,7.18,11.65,0.77,0.03,0.77,0.03,79,16.0,9.942,84,Scattered Storms,Scattered Storms,1004.8,29.67,KCEW
1689292800,2023-07-13T19:00:00-05:00,28.22,82.8,90.96,76.21,81,1013,29.91,SW,227,6.35,10.54,0.77,0.03,0.77,0.03,26,16.0,9.942,85,Chance of Storms,Chance of Storms,1004.8,29.67,KCEW
1689296400,2023-07-13T20:00:00-05:00,26.0,78.8,78.8,75.58,90,1013,29.91,SW,227,5.59,10.07,0.04,0.0,0.04,0.0,26,16.0,9.942,78,Chance of Storms,Chance of Storms,1004.7,29.67,KCEW
1689300000,2023-07-13T21:00:00-05:00,25.08,77.14,77.14,75.0,93,1013,29.91,SW,229,5.59,8.95,0.04,0.0,0.04,0.0,26,16.0,9.942,71,Chance of Storms,Chance of Storms,1004.7,29.67,KCEW
1689303600,2023-07-13T22:00:00-05:00,24.79,76.62,76.62,74.55,93,1014,29.94,SW,229,5.59,8.48,0.04,0.0,0.04,0.0,26,16.0,9.942,64,Chance of Storms,Chance of Storms,1005.7,29.7,KCEW
1689307200,2023-07-13T23:00:00-05:00,24.27,75.69,75.69,74.55,96,1014,29.94,SW,229,4.47,8.48,0.04,0.0,0.04,0.0,26,16.0,9.942,71,Chance of Storms,Chance of Storms,1005.7,29.7,KCEW
1689310800,2023-07-14T00:00:00-05:00,23.97,75.15,75.15,74.41,98,1014,29.94,SW,230,4.47,8.12,0.04,0.0,0.04,0.0,26,16.0,9.942,78,Chance of Storms,Chance of Storms,1005.6,29.7,KCEW
1689314400,2023-07-14T01:00:00-05:00,23.98,75.16,75.16,74.21,97,1014,29.94,SW,230,4.99,8.12,0.04,0.0,0.04,0.0,38,16.0,9.942,85,Chance of Storms,Chance of Storms,1005.6,29.7,KCEW
1689318000,2023-07-14T02:00:00-05:00,23.53,74.35,74.35,74.21,100,1014,29.94,SW,230,4.47,8.12,1.17,0.05,1.17,0.05,38,14.823,9.21,83,Chance of Storms,Chance of Storms,1005.6,29.7,KCEW
1689321600,2023-07-14T03:00:00-05:00,23.53,74.35,74.35,74.12,99,1014,29.94,SW,230,4.47,8.05,1.17,0.05,1.17,0.05,38,15.138,9.406,82,Chance of Storms,Chance of Storms,1005.6,29.7,KCEW
1689325200,2023-07-14T04:00:00-05:00,23.53,74.35,74.35,74.12,99,1014,29.94,WSW,237,4.7,8.05,1.17,0.05,1.17,0.05,38,13.81,8.581,80,Chance of Storms,Chance of Storms,1005.6,29.7,KCEW
1689328800,2023-07-14T05:00:00-05:00,23.19,73.74,73.74,73.74,100,1014,29.94,WSW,237,4.7,8.95,1.17,0.05,1.17,0.05,38,13.095,8.137,77,Chance of Storms,Chance of Storms,1005.6,29.7,KCEW
1689332400,2023-07-14T06:00:00-05:00,23.11,73.6,73.6,73.6,100,1014,29.94,WSW,242,4.7,9.17,1.17,0.05,1.17,0.05,38,11.285,7.012,74,Chance of Storms,Chance of Storms,1005.6,29.7,KCEW
1689336000,2023-07-14T07:00:00-05:00,24.87,76.77,76.77,75.58,96,1014,29.94,WSW,246,5.59,10.07,1.17,0.05,1.17,0.05,61,12.773,7.937,71,Scattered Storms,Scattered Storms,1005.7,29.7,KCEW
1689339600,2023-07-14T08:00:00-05:00,26.57,79.83,79.83,76.39,89,1015,29.97,WSW,246,5.59,10.07,1.02,0.04,1.02,0.04,61,16.0,9.942,76,Scattered Storms,Scattered Storms,1006.7,29.73,KCEW
1689256800,2023-07-13T09:00:00-05:00,28.81,83.86,95.88,79.2,86,1018,30.06,W,260,5.75,10.07,0.0,0.0,0.0,0.0,0,16.0,9.942,0,Sunny,Sunny,1012.1,29.89,KMAI
1689260400,2023-07-13T10:00:00-05:00,31.44,88.59,102.66,78.13,71,1016,30.0,W,270,5.59,7.83,0.0,0.0,0.0,0.0,0,16.0,9.942,38,Partly Cloudy,Partly Cloudy,1010.2,29.83,KMAI
1689264000,2023-07-13T11:00:00-05:00,32.44,90.39,104.26,77.41,66,1015,29.97,W,270,4.74,6.89,0.25,0.01,0.25,0.01,47,16.0,9.942,48,Chance of Storms,Chance of Storms,1009.2,29.8,KMAI
1689267600,2023-07-13T12:00:00-05:00,32.44,90.39,103.06,76.55,64,1015,29.97,W,270,5.59,7.02,0.25,0.01,0.25,0.01,47,16.0,9.942,54,Chance of Storms,Chance of Storms,1009.2,29.8,KMAI
1689271200,2023-07-13T13:00:00-05:00,32.7,90.86,103.71,76.55,63,1015,29.97,SW,227,6.13,8.37,0.25,0.01,0.25,0.01,53,16.0,9.942,56,Chance of Storms,Chance of Storms,1009.2,29.8,KMAI
1689274800,2023-07-13T14:00:00-05:00,32.98,91.36,104.4,76.55,62,1014,29.94,SW,218,6.53,8.77,0.85,0.03,0.85,0.03,53,16.0,9.942,62,Chance of Storms,Chance of Storms,1008.2,29.77,KMAI
1689278400,2023-07-13T15:00:00-05:00,32.23,90.01,101.78,75.97,64,1013,29.91,SSW,210,8.95,13.15,0.85,0.03,0.85,0.03,53,16.0,9.942,71,Chance of Storms,Chance of Storms,1007.2,29.74,KMAI
1689282000,2023-07-13T16:00:00-05:00,31.44,88.59,99.8,75.97,66,1013,29.91,SW,229,9.75,14.23,0.85,0.03,0.85,0.03,59,16.0,9.942,68,Scattered Storms,Scattered Storms,1007.2,29.74,KMAI
1689285600,2023-07-13T17:00:00-05:00,31.44,88.59,99.39,75.63,66,1013,29.91,SW,231,9.89,13.24,0.85,0.03,0.85,0.03,59,16.0,9.942,66,Scattered Storms,Scattered Storms,1007.2,29.74,KMAI
1689289200,2023-07-13T18:00:00-05:00,30.08,86.14,96.23,75.97,72,1013,29.91,W,262,9.26,13.15,0.85,0.03,0.85,0.03,59,16.0,9.942,69,Scattered Storms,Scattered Storms,1007.2,29.74,KMAI
1689292800,2023-07-13T19:00:00-05:00,28.61,83.5,91.99,75.97,78,1013,29.91,W,270,6.71,8.95,0.85,0.03,0.85,0.03,16,16.0,9.942,69,Isolated Storms,Isolated Storms,1007.2,29.74,KMAI
1689296400,2023-07-13T20:00:00-05:00,26.7,80.06,85.68,76.57,89,1013,29.91,WSW,255,5.01,6.82,0.04,0.0,0.04,0.0,16,16.0,9.942,61,Isolated Storms,Isolated Storms,1007.1,29.74,KMAI
1689300000,2023-07-13T21:00:00-05:00,25.88,78.58,78.58,76.57,94,1013,29.91,WSW,240,4.47,6.71,0.04,0.0,0.04,0.0,16,16.0,9.942,54,Isolated Storms,Isolated Storms,1007.1,29.74,KMAI
1689303600,2023-07-13T22:00:00-05:00,25.88,78.58,78.58,75.72,91,1014,29.94,SW,218,4.47,6.22,0.04,0.0,0.04,0.0,17,16.0,9.942,47,Isolated Storms,Isolated Storms,1008.1,29.77,KMAI
1689307200,2023-07-13T23:00:00-05:00,25.0,77.0,77.0,75.51,95,1014,29.94,SSW,210,3.53,5.77,0.04,0.0,0.04,0.0,17,16.0,9.942,30,Isolated Storms,Isolated Storms,1008.1,29.77,KMAI
1689310800,2023-07-14T00:00:00-05:00,25.0,77.0,77.0,76.1,97,1014,29.94,SSW,210,3.36,5.59,0.04,0.0,0.04,0.0,17,16.0,9.942,23,Isolated Storms,Isolated Storms,1008.1,29.77,KMAI
1689314400,2023-07-14T01:00:00-05:00,24.13,75.43,75.43,74.84,98,1014,29.94,SSW,210,3.36,5.59,0.04,0.0,0.04,0.0,20,16.0,9.942,20,Isolated Storms,Isolated Storms,1008.1,29.77,KMAI
1689318000,2023-07-14T02:00:00-05:00,24.13,75.43,75.43,74.84,98,1014,29.94,SSW,210,3.36,5.59,0.2,0.01,0.2,0.01,20,16.0,9.942,21,Isolated Storms,Isolated Storms,1008.1,29.77,KMAI
1689321600,2023-07-14T03:00:00-05:00,23.46,74.23,74.23,74.23,100,1014,29.94,SSW,210,3.36,4.47,0.2,0.01,0.2,0.01,20,16.0,9.942,30,Isolated Storms,Isolated Storms,1008.1,29.77,KMAI
1689325200,2023-07-14T04:00:00-05:00,24.13,75.43,75.43,74.84,98,1014,29.94,SW,230,3.36,4.47,0.2,0.01,0.2,0.01,21,16.0,9.942,34,Isolated Storms,Isolated Storms,1008.1,29.77,KMAI
1689328800,2023-07-14T05:00:00-05:00,23.8,74.84,74.84,74.84,100,1014,29.94,SW,220,3.36,4.47,0.2,0.01,0.2,0.01,21,16.0,9.942,37,Isolated Storms,Isolated Storms,1008.1,29.77,KMAI
1689332400,2023-07-14T06:00:00-05:00,23.8,74.84,74.84,74.84,100,1014,29.94,SW,219,2.82,4.12,0.2,0.01,0.2,0.01,21,11.144,6.925,48,Isolated Storms,Isolated Storms,1008.1,29.77,KMAI
1689336000,2023-07-14T07:00:00-05:00,25.0,77.0,77.0,76.1,97,1015,29.97,SW,232,3.36,4.65,0.2,0.01,0.2,0.01,47,11.15,6.928,53,Chance of Storms,Chance of Storms,1009.1,29.8,KMAI
1689339600,2023-07-14T08:00:00-05:00,26.7,80.06,86.14,77.58,92,1015,29.97,SW,230,3.36,5.59,0.38,0.01,0.38,0.01,47,16.0,9.942,62,Chance of Storms,Chance of Storms,1009.1,29.8,KMAI
